{"type":"FeatureCollection","features":[{"type":"Feature","properties":{"name":"Miteri Bridge, Rasuwagadhi","status":"Washed out","location":"Rasuwagadhi","district":"Rasuwa","marker-color":"#7f1d1d","marker-size":"medium"},"geometry":{"type":"Point","coordinates":[85.3781,28.27894]}},{"type":"Feature","properties":{"name":"Timure Bridge 1","status":"Washed out","location":"Timure","district":"Rasuwa","marker-color":"#7f1d1d","marker-size":"medium"},"geometry":{"type":"Point","coordinates":[85.3777,28.27128]}},{"type":"Feature","properties":{"name":"Timure Bridge 2","status":"Washed out","location":"Timure","district":"Rasuwa","marker-color":"#7f1d1d","marker-size":"medium"},"geometry":{"type":"Point","coordinates":[85.35828,28.23998]}},{"type":"Feature","properties":{"name":"Ghatte Khola","status":"Washed out","location":"","district":"Rasuwa","marker-color":"#7f1d1d","marker-size":"medium"},"geometry":{"type":"Point","coordinates":[85.3618,28.22671]}},{"type":"Feature","properties":{"name":"Bhotekoshi Bridge at Chilime","status":"Washed out","location":"Chilime","district":"Rasuwa","marker-color":"#7f1d1d","marker-size":"medium"},"geometry":{"type":"Point","coordinates":[85.34328,28.1828]}},{"type":"Feature","properties":{"name":"Chilime Bridge, Chilime Khola","status":"Washed out","location":"Chilime","district":"Rasuwa","marker-color":"#7f1d1d","marker-size":"medium"},"geometry":{"type":"Point","coordinates":[85.34222,28.18165]}},{"type":"Feature","properties":{"name":"Hydropower Bailey Bridge at Bhotekoshi, Syaphrubeshi","status":"Washed out","location":"Syafrubesi","district":"Rasuwa","marker-color":"#7f1d1d","marker-size":"medium"},"geometry":{"type":"Point","coordinates":[85.33993,28.16439]}},{"type":"Feature","properties":{"name":"Syafrubesi Bridge","status":"Washed out","location":"Syafrubesi","district":"Rasuwa","marker-color":"#7f1d1d","marker-size":"medium"},"geometry":{"type":"Point","coordinates":[85.33249,28.15748]}},{"type":"Feature","properties":{"name":"Sano bharkhu","status":"Intact","location":"63+200","district":"Rasuwa","marker-color":"#15803d","marker-size":"small"},"geometry":{"type":"Point","coordinates":[85.31871,28.14556]}},{"type":"Feature","properties":{"name":"Trisuli Khola Bridge","status":"Intact","location":"60+020","district":"Rasuwa","marker-color":"#15803d","marker-size":"small"},"geometry":{"type":"Point","coordinates":[85.29947,28.12726]}},{"type":"Feature","properties":{"name":"Trisuli 216 Audit 1 Bailey Bridge","status":"Washed out","location":"Audit 1, Trisuli 216","district":"Rasuwa","marker-color":"#7f1d1d","marker-size":"medium"},"geometry":{"type":"Point","coordinates":[85.28842,28.12028]}},{"type":"Feature","properties":{"name":"Haku1 Bailey Bridge at Hydropower, Trishuli","status":"Washed out","location":"","district":"Rasuwa","marker-color":"#7f1d1d","marker-size":"medium"},"geometry":{"type":"Point","coordinates":[85.28103,28.11295]}},{"type":"Feature","properties":{"name":"Haku khola","status":"Washed out","location":"57+000","district":"Rasuwa","marker-color":"#7f1d1d","marker-size":"medium"},"geometry":{"type":"Point","coordinates":[85.27896,28.11016]}},{"type":"Feature","properties":{"name":"Bimali Khola","status":"Washed out","location":"56+800","district":"Rasuwa","marker-color":"#7f1d1d","marker-size":"medium"},"geometry":{"type":"Point","coordinates":[85.27715,28.10854]}},{"type":"Feature","properties":{"name":"Haku2 Bailey Bridge at Hydropower, Trishuli","status":"Washed out","location":"","district":"Rasuwa","marker-color":"#7f1d1d","marker-size":"medium"},"geometry":{"type":"Point","coordinates":[85.27514,28.10837]}},{"type":"Feature","properties":{"name":"Thade Khola","status":"Intact","location":"52+320","district":"Rasuwa","marker-color":"#15803d","marker-size":"small"},"geometry":{"type":"Point","coordinates":[85.25194,28.09156]}},{"type":"Feature","properties":{"name":"Thado Khola (Crossing 0+750","status":"Intact","location":"50+300","district":"Rasuwa","marker-color":"#15803d","marker-size":"small"},"geometry":{"type":"Point","coordinates":[85.22556,28.08278]}},{"type":"Feature","properties":{"name":"Crossing 0+700","status":"Washed out","location":"50+260","district":"Rasuwa","marker-color":"#7f1d1d","marker-size":"medium"},"geometry":{"type":"Point","coordinates":[85.22259,28.0819]}},{"type":"Feature","properties":{"name":"Upper Trishuli Hydrower Bailey Bridge","status":"Washed out","location":"","district":"Rasuwa","marker-color":"#7f1d1d","marker-size":"medium"},"geometry":{"type":"Point","coordinates":[85.21284,28.07598]}},{"type":"Feature","properties":{"name":"Mailung Bailey Bridge at Mailung Bazaar","status":"Washed out","location":"","district":"Rasuwa","marker-color":"#7f1d1d","marker-size":"medium"},"geometry":{"type":"Point","coordinates":[85.20753,28.07189]}},{"type":"Feature","properties":{"name":"Trishuli Bridge Mailung Chipleti","status":"Washed out","location":"47+200","district":"Rasuwa","marker-color":"#7f1d1d","marker-size":"medium"},"geometry":{"type":"Point","coordinates":[85.20583,28.06528]}},{"type":"Feature","properties":{"name":"Trishuli 3A Dam-3","status":"Washed out","location":"47+040","district":"Rasuwa","marker-color":"#7f1d1d","marker-size":"medium"},"geometry":{"type":"Point","coordinates":[85.20633,28.06258]}},{"type":"Feature","properties":{"name":"Trishuli 3A Dam-2","status":"Washed out","location":"46+990","district":"Rasuwa","marker-color":"#7f1d1d","marker-size":"medium"},"geometry":{"type":"Point","coordinates":[85.20669,28.06205]}},{"type":"Feature","properties":{"name":"Bahubali Jharana Pul","status":"Washed out","location":"43+850","district":"Rasuwa","marker-color":"#7f1d1d","marker-size":"medium"},"geometry":{"type":"Point","coordinates":[85.19278,28.03806]}},{"type":"Feature","properties":{"name":"Sukaure Khola","status":"Intact","location":"40+210","district":"Nuwakot","marker-color":"#15803d","marker-size":"small"},"geometry":{"type":"Point","coordinates":[85.17978,28.01434]}},{"type":"Feature","properties":{"name":"Naya Pul Trishuli, Khalte CH 37+810","status":"Washed out","location":"Khalte CH 37+810","district":"Rasuwa","marker-color":"#7f1d1d","marker-size":"medium"},"geometry":{"type":"Point","coordinates":[85.18489,27.99534]}},{"type":"Feature","properties":{"name":"Betrawati Old Bridge","status":"Washed out","location":"Betrawati","district":"Rasuwa","marker-color":"#7f1d1d","marker-size":"medium"},"geometry":{"type":"Point","coordinates":[85.18581,27.97434]}},{"type":"Feature","properties":{"name":"Betrawati New Bridge","status":"Washed out","location":"Betrawati (35+180)","district":"Rasuwa","marker-color":"#7f1d1d","marker-size":"medium"},"geometry":{"type":"Point","coordinates":[85.18581,27.97434]}},{"type":"Feature","properties":{"name":"Trisuli River Bridge Tupche","status":"Washed out","location":"Tupche","district":"Nuwakot","marker-color":"#7f1d1d","marker-size":"medium"},"geometry":{"type":"Point","coordinates":[85.17281,27.96378]}},{"type":"Feature","properties":{"name":"Dhobi Khola","status":"Intact","location":"27+220","district":"Nuwakot","marker-color":"#15803d","marker-size":"small"},"geometry":{"type":"Point","coordinates":[85.14861,27.92028]}},{"type":"Feature","properties":{"name":"Gundre Khola","status":"Intact","location":"27+980","district":"Nuwakot","marker-color":"#15803d","marker-size":"small"},"geometry":{"type":"Point","coordinates":[85.15361,27.92333]}},{"type":"Feature","properties":{"name":"Bire Khola","status":"Intact","location":"27+840","district":"Nuwakot","marker-color":"#15803d","marker-size":"small"},"geometry":{"type":"Point","coordinates":[85.15389,27.92444]}},{"type":"Feature","properties":{"name":"Gerkhu khola","status":"Intact","location":"29+050","district":"Nuwakot","marker-color":"#15803d","marker-size":"small"},"geometry":{"type":"Point","coordinates":[85.15472,27.93056]}},{"type":"Feature","properties":{"name":"Trisuli River Bridge ,Trisuli Bazzar(Old)","status":"Washed out","location":"Trisuli Bazzar","district":"Nuwakot","marker-color":"#7f1d1d","marker-size":"medium"},"geometry":{"type":"Point","coordinates":[85.14945,27.92183]}},{"type":"Feature","properties":{"name":"Trisuli River Bridge ,Trisuli Bazzar(New)","status":"Washed out","location":"Trisuli Bazzar","district":"Nuwakot","marker-color":"#7f1d1d","marker-size":"medium"},"geometry":{"type":"Point","coordinates":[85.14796,27.92124]}},{"type":"Feature","properties":{"name":"Trisuli River Bridge ,Simchaur","status":"Washed out","location":"Simchaur","district":"Nuwakot","marker-color":"#7f1d1d","marker-size":"medium"},"geometry":{"type":"Point","coordinates":[85.1385,27.90949]}},{"type":"Feature","properties":{"name":"Suspension Bridge at Devighat near Jalshrot tatha Sinchai Division","status":"Washed out","location":"Devighat","district":"Nuwakot","marker-color":"#7f1d1d","marker-size":"medium"},"geometry":{"type":"Point","coordinates":[85.1365,27.89234]}},{"type":"Feature","properties":{"name":"Trisuli River Bridge, Near Devighat, Midhill Highway","status":"Washed out","location":"Near DeviGhat","district":"Nuwakot","marker-color":"#7f1d1d","marker-size":"medium"},"geometry":{"type":"Point","coordinates":[85.11623,27.87034]}},{"type":"Feature","properties":{"name":"Tandi Khola Bridge, Devighat (Old)","status":"Washed out","location":"Devighat","district":"Nuwakot","marker-color":"#7f1d1d","marker-size":"medium"},"geometry":{"type":"Point","coordinates":[85.10908,27.85858]}},{"type":"Feature","properties":{"name":"Tandi Khola Bridge, Devighat (New)","status":"Washed out","location":"Devighat(CH 16+570)","district":"Nuwakot","marker-color":"#7f1d1d","marker-size":"medium"},"geometry":{"type":"Point","coordinates":[85.10908,27.85858]}},{"type":"Feature","properties":{"name":"Trisuli River Bridge,Khadgabhanjyang Srikhali Sadak","status":"Washed out","location":"Srikhali","district":"Nuwakot","marker-color":"#7f1d1d","marker-size":"medium"},"geometry":{"type":"Point","coordinates":[85.09871,27.85932]}},{"type":"Feature","properties":{"name":"Thulo khola","status":"Damaged","location":"13+260","district":"Nuwakot","marker-color":"#f59e0b","marker-size":"small"},"geometry":{"type":"Point","coordinates":[85.08106,27.85457]}},{"type":"Feature","properties":{"name":"Trishuli River Bridge, Buddhasinghghat","status":"Washed out","location":"Buddhasinghghat","district":"Nuwakot","marker-color":"#7f1d1d","marker-size":"medium"},"geometry":{"type":"Point","coordinates":[85.06194,27.85948]}},{"type":"Feature","properties":{"name":"Trishuli River Bridge, Ratmate","status":"Washed out","location":"Ratmate","district":"Nuwakot","marker-color":"#7f1d1d","marker-size":"medium"},"geometry":{"type":"Point","coordinates":[85.04119,27.8561]}},{"type":"Feature","properties":{"name":"Jhangar Khola","status":"Intact","location":"5+760","district":"Nuwakot","marker-color":"#15803d","marker-size":"small"},"geometry":{"type":"Point","coordinates":[85.02443,27.83464]}},{"type":"Feature","properties":{"name":"Trishuli River Bridge, Keurini, Fosretar","status":"Washed out","location":"Keurini, Fosretar","district":"Dhading","marker-color":"#7f1d1d","marker-size":"medium"},"geometry":{"type":"Point","coordinates":[85.02233,27.83253]}},{"type":"Feature","properties":{"name":"Kolpu Khola Bridge (Old)","status":"Damaged","location":"","district":"Nuwakot","marker-color":"#f59e0b","marker-size":"small"},"geometry":{"type":"Point","coordinates":[85.01621,27.81011]}},{"type":"Feature","properties":{"name":"Kolpu Khola Bridge (New)","status":"Damaged","location":"2+520","district":"Nuwakot","marker-color":"#f59e0b","marker-size":"small"},"geometry":{"type":"Point","coordinates":[85.01621,27.81011]}},{"type":"Feature","properties":{"name":"Trishuli River Bridge, BhimDhunga Lami Danda Sadak","status":"Intact","location":"Near Galchhi","district":"Dhading","marker-color":"#15803d","marker-size":"small"},"geometry":{"type":"Point","coordinates":[85.00277,27.80269]}},{"type":"Feature","properties":{"name":"Mahesh khola","status":"Intact","location":"0+520","district":"Dhading","marker-color":"#15803d","marker-size":"small"},"geometry":{"type":"Point","coordinates":[85.00083,27.80028]}},{"type":"Feature","properties":{"name":"Trishuli River Bridge, Baireni Syaltar Sadak","status":"Washed out","location":"Below Galchhi","district":"Dhading","marker-color":"#7f1d1d","marker-size":"medium"},"geometry":{"type":"Point","coordinates":[84.99049,27.80428]}},{"type":"Feature","properties":{"name":"Trisuli River Bridge, Mastar Dhading","status":"Damaged","location":"Near Hamlet Resort","district":"Dhading","marker-color":"#f59e0b","marker-size":"small"},"geometry":{"type":"Point","coordinates":[84.96526,27.81186]}},{"type":"Feature","properties":{"name":"Trisuli River Bridge, JareBagaicha","status":"Washed out","location":"JareBagaicha","district":"Dhading","marker-color":"#7f1d1d","marker-size":"medium"},"geometry":{"type":"Point","coordinates":[84.92428,27.79793]}},{"type":"Feature","properties":{"name":"Trisuli River Bridge, Ghatbesi","status":"Washed out","location":"Ghatbesi","district":"Dhading","marker-color":"#7f1d1d","marker-size":"medium"},"geometry":{"type":"Point","coordinates":[84.90188,27.80689]}},{"type":"Feature","properties":{"name":"Trishuli River Bridge, Furke Khola","status":"Washed out","location":"Malelkhu","district":"Dhading","marker-color":"#7f1d1d","marker-size":"medium"},"geometry":{"type":"Point","coordinates":[84.84408,27.80254]}},{"type":"Feature","properties":{"name":"Trishuli River Bridge, Benighat","status":"Intact","location":"Benighat","district":"Gorkha","marker-color":"#15803d","marker-size":"small"},"geometry":{"type":"Point","coordinates":[84.77708,27.81059]}},{"type":"Feature","properties":{"name":"Trisuli River Bridge, Fisling Gorkha","status":"Intact","location":"Fishling","district":"Gorkha","marker-color":"#15803d","marker-size":"small"},"geometry":{"type":"Point","coordinates":[84.66206,27.84463]}},{"type":"Feature","properties":{"name":"Hydropower Bailey Bridge Trishuli, Chumlingtar","status":"Intact","location":"Chumlingtar","district":"Gorkha","marker-color":"#15803d","marker-size":"small"},"geometry":{"type":"Point","coordinates":[84.64096,27.86008]}}]}