{"type":"FeatureCollection","features":[{"type":"Feature","properties":{"name":"Duksangag Choeling Monastery","damage":"Destroyed","confidence":"High","observed":"2026-08-27","note":"Damage/change can be seen in multiple satellite images","source":"UNOSAT (FL20260826NPL), CC BY-SA 4.0","marker-color":"#7f1d1d","marker-size":"small"},"geometry":{"type":"Point","coordinates":[85.34351,28.16431]}},{"type":"Feature","properties":{"name":"Rasuwa Fort / Rasuwa Gadhi","damage":"Destroyed","confidence":"Very high","observed":"2026-08-28","note":"Observed damage/change in satellite imagery has been verified on the ground","source":"UNOSAT (FL20260826NPL), CC BY-SA 4.0","marker-color":"#7f1d1d","marker-size":"small"},"geometry":{"type":"Point","coordinates":[85.3777,28.27759]}},{"type":"Feature","properties":{"name":"Jalpa Devi Temple","damage":"Destroyed","confidence":"High","observed":"2026-08-27","note":"Damage/change can be seen in multiple satellite images","source":"UNOSAT (FL20260826NPL), CC BY-SA 4.0","marker-color":"#7f1d1d","marker-size":"small"},"geometry":{"type":"Point","coordinates":[85.10742,27.85932]}},{"type":"Feature","properties":{"name":"Shree Ram Mandir","damage":"Destroyed","confidence":"High","observed":"2026-08-27","note":"Damage/change can be seen in multiple satellite images","source":"UNOSAT (FL20260826NPL), CC BY-SA 4.0","marker-color":"#7f1d1d","marker-size":"small"},"geometry":{"type":"Point","coordinates":[85.1838,27.9745]}},{"type":"Feature","properties":{"name":"Uttargaya Dham","damage":"Destroyed","confidence":"High","observed":"2026-08-27","note":"Damage/change can be seen in multiple satellite images","source":"UNOSAT (FL20260826NPL), CC BY-SA 4.0","marker-color":"#7f1d1d","marker-size":"small"},"geometry":{"type":"Point","coordinates":[85.1837,27.9738]}},{"type":"Feature","properties":{"name":"Palyul Samtan Chholing Monestery Tersuli","damage":"Damaged","confidence":"High","observed":"2026-08-27","note":"Damage/change can be seen in multiple satellite images","source":"UNOSAT (FL20260826NPL), CC BY-SA 4.0","marker-color":"#d97706","marker-size":"small"},"geometry":{"type":"Point","coordinates":[85.14911,27.92753]}},{"type":"Feature","properties":{"name":"Sugatpur Buddhist Vihara","damage":"Destroyed","confidence":"High","observed":"2026-08-27","note":"Damage/change can be seen in multiple satellite images","source":"UNOSAT (FL20260826NPL), CC BY-SA 4.0","marker-color":"#7f1d1d","marker-size":"small"},"geometry":{"type":"Point","coordinates":[85.14689,27.92139]}},{"type":"Feature","properties":{"name":"Prithvi Narayan Shah Statue","damage":"Damaged","confidence":"High","observed":"2026-08-27","note":"Damage/change can be seen in multiple satellite images","source":"UNOSAT (FL20260826NPL), CC BY-SA 4.0","marker-color":"#d97706","marker-size":"small"},"geometry":{"type":"Point","coordinates":[85.11157,27.86251]}},{"type":"Feature","properties":{"name":"Nilakantha Dham","damage":"Damaged","confidence":"High","observed":"2026-08-27","note":"Damage/change can be seen in multiple satellite images","source":"UNOSAT (FL20260826NPL), CC BY-SA 4.0","marker-color":"#d97706","marker-size":"small"},"geometry":{"type":"Point","coordinates":[85.11214,27.86301]}},{"type":"Feature","properties":{"name":"Gaureshwor Dham","damage":"Destroyed","confidence":"High","observed":"2026-08-27","note":"Damage/change can be seen in multiple satellite images","source":"UNOSAT (FL20260826NPL), CC BY-SA 4.0","marker-color":"#7f1d1d","marker-size":"small"},"geometry":{"type":"Point","coordinates":[85.1088,27.8616]}}]}