{"type":"FeatureCollection","features":[{"type":"Feature","properties":{"name":"Rasuwagadhi","part":"headworks/dam","capacity_mw":111,"status":"operating","damage":"NEA spokesperson: 'completely washed away' (KP 30 Aug); dam site, quarters and station severely damaged","missing_workers":93,"bodies_recovered":">=1 (body found inside tunnel, NDRRMA SitRep #22, 12 Sep, via ADRC)","note":"Headworks ~400 m below Kerung-Lende confluence; 4,185 m headrace; underground powerhouse; 613.9 GWh/yr; 80 m3/s design discharge (company site). HOT/DoED layer still lists it 'Under Construction' (outdated).","distance_to_flow_m":31,"source":"Curated from NEA, NDRRMA and press reports; location OSM way 1552793903 'Rasuwagadhi Hydropower Dam'","label":"Rasuwagadhi · 111 MW · 93 missing","marker-color":"#b91c1c","marker-size":"large","marker-symbol":"dam"},"geometry":{"type":"Point","coordinates":[85.37712,28.27364]}},{"type":"Feature","properties":{"name":"Rasuwagadhi","part":"licence point (approx.)","capacity_mw":111,"status":"operating","damage":"NEA spokesperson: 'completely washed away' (KP 30 Aug); dam site, quarters and station severely damaged","missing_workers":93,"bodies_recovered":">=1 (body found inside tunnel, NDRRMA SitRep #22, 12 Sep, via ADRC)","note":"Headworks ~400 m below Kerung-Lende confluence; 4,185 m headrace; underground powerhouse; 613.9 GWh/yr; 80 m3/s design discharge (company site). HOT/DoED layer still lists it 'Under Construction' (outdated).","distance_to_flow_m":532,"source":"Curated from NEA, NDRRMA and press reports; location HOT exposed-hydropower layer (DoED licence point)","label":null,"marker-color":"#b91c1c","marker-size":"small","marker-symbol":"dam"},"geometry":{"type":"Point","coordinates":[85.37014,28.25111]}},{"type":"Feature","properties":{"name":"Chilime","part":"headworks","capacity_mw":22.1,"status":"operating","damage":"'buried' (NEA spokesperson, KP 30 Aug); 5 NEA staff found dead at powerhouse after 250 m tunnel breakthrough","missing_workers":1,"bodies_recovered":"5 (KP 23 Sep; NDRRMA SitRep #16/#20)","note":"HOT destroyed-features layer tags the powerhouse node 'Destroyed'.","distance_to_flow_m":3426,"source":"Curated from NEA, NDRRMA and press reports; location OSM node 4352711189 'Chilime Hydropower Plant headworks'","label":null,"marker-color":"#b91c1c","marker-size":"small","marker-symbol":"dam"},"geometry":{"type":"Point","coordinates":[85.30757,28.18062]}},{"type":"Feature","properties":{"name":"Chilime","part":"powerhouse","capacity_mw":22.1,"status":"operating","damage":"'buried' (NEA spokesperson, KP 30 Aug); 5 NEA staff found dead at powerhouse after 250 m tunnel breakthrough","missing_workers":1,"bodies_recovered":"5 (KP 23 Sep; NDRRMA SitRep #16/#20)","note":"HOT destroyed-features layer tags the powerhouse node 'Destroyed'.","distance_to_flow_m":30,"source":"Curated from NEA, NDRRMA and press reports; location OSM node 982602383 'Chilime Hydropower Powerhouse' (22.1 MW)","label":"Chilime · 22.1 MW · 1 missing","marker-color":"#b91c1c","marker-size":"medium","marker-symbol":"dam"},"geometry":{"type":"Point","coordinates":[85.33192,28.15735]}},{"type":"Feature","properties":{"name":"Chilime","part":"powerhouse adit","capacity_mw":22.1,"status":"operating","damage":"'buried' (NEA spokesperson, KP 30 Aug); 5 NEA staff found dead at powerhouse after 250 m tunnel breakthrough","missing_workers":1,"bodies_recovered":"5 (KP 23 Sep; NDRRMA SitRep #16/#20)","note":"HOT destroyed-features layer tags the powerhouse node 'Destroyed'.","distance_to_flow_m":55,"source":"Curated from NEA, NDRRMA and press reports; location OSM node 14172124335 'Chilime Powerhouse Entrance'","label":null,"marker-color":"#b91c1c","marker-size":"small","marker-symbol":"dam"},"geometry":{"type":"Point","coordinates":[85.33188,28.1576]}},{"type":"Feature","properties":{"name":"Langtang Khola","part":"project area","capacity_mw":20,"status":"testing phase","damage":"listed 'completely damaged' by DAO Rasuwa (Radio Nepal 5 Sep)","missing_workers":39,"bodies_recovered":"2 (19 rescued) (KP 23 Sep)","note":null,"distance_to_flow_m":45,"source":"Curated from NEA, NDRRMA and press reports; location OSM way 1552890448 'Langtang Khola Hydroelektric Power'","label":"Langtang Khola · 20 MW · 39 missing","marker-color":"#b91c1c","marker-size":"medium","marker-symbol":"dam"},"geometry":{"type":"Point","coordinates":[85.34035,28.16376]}},{"type":"Feature","properties":{"name":"Rasuwa Bhotekoshi","part":"licence point (approx.)","capacity_mw":120,"status":"under construction","damage":"listed 'completely damaged' (Radio Nepal 5 Sep)","missing_workers":3,"bodies_recovered":null,"note":"NDRRMA SitRep #20 table labels 'Rasuwagadhi Hydropower Project (120 MW)' - likely a mix-up with this project.","distance_to_flow_m":14,"source":"Curated from NEA, NDRRMA and press reports; location HOT exposed-hydropower layer (DoED licence point)","label":"Rasuwa Bhotekoshi · 120 MW · 3 missing","marker-color":"#b91c1c","marker-size":"large","marker-symbol":"dam"},"geometry":{"type":"Point","coordinates":[85.35417,28.20472]}},{"type":"Feature","properties":{"name":"Upper Trishuli-1","part":"licence point (approx.)","capacity_mw":216,"status":"under construction","damage":">90% of upper dam and ~90% of workers' base camp destroyed (JoongAng Daily 27 Aug)","missing_workers":439,"bodies_recovered":"39 from tunnel (KP 23 Sep); 31 recovered from rebar mesh in Audit-3 tunnel at Hakubesi (NDRRMA SitRep #20, 21 Sep)","note":"1,433 people on site before flood; 955 rescued/made contact; a Chinese national rescued alive on day 12 (KP 23 Sep). 9 Korean staff missing (6 Doosan, 3 KOSEP).","distance_to_flow_m":698,"source":"Curated from NEA, NDRRMA and press reports; location HOT exposed-hydropower layer (DoED licence point)","label":null,"marker-color":"#b91c1c","marker-size":"small","marker-symbol":"dam"},"geometry":{"type":"Point","coordinates":[85.25597,28.10125]}},{"type":"Feature","properties":{"name":"Upper Trishuli-1","part":"project area (Mailung)","capacity_mw":216,"status":"under construction","damage":">90% of upper dam and ~90% of workers' base camp destroyed (JoongAng Daily 27 Aug)","missing_workers":439,"bodies_recovered":"39 from tunnel (KP 23 Sep); 31 recovered from rebar mesh in Audit-3 tunnel at Hakubesi (NDRRMA SitRep #20, 21 Sep)","note":"1,433 people on site before flood; 955 rescued/made contact; a Chinese national rescued alive on day 12 (KP 23 Sep). 9 Korean staff missing (6 Doosan, 3 KOSEP).","distance_to_flow_m":142,"source":"Curated from NEA, NDRRMA and press reports; location OSM way 1552864314 'Upper Trishuli-1 Hydroelectric Project'","label":"Upper Trishuli-1 · 216 MW · 439 missing","marker-color":"#b91c1c","marker-size":"large","marker-symbol":"dam"},"geometry":{"type":"Point","coordinates":[85.20992,28.07246]}},{"type":"Feature","properties":{"name":"Upper Trishuli-1","part":"Audit-1 Bailey bridge (Hakubesi)","capacity_mw":216,"status":"under construction","damage":">90% of upper dam and ~90% of workers' base camp destroyed (JoongAng Daily 27 Aug)","missing_workers":439,"bodies_recovered":"39 from tunnel (KP 23 Sep); 31 recovered from rebar mesh in Audit-3 tunnel at Hakubesi (NDRRMA SitRep #20, 21 Sep)","note":"1,433 people on site before flood; 955 rescued/made contact; a Chinese national rescued alive on day 12 (KP 23 Sep). 9 Korean staff missing (6 Doosan, 3 KOSEP).","distance_to_flow_m":57,"source":"Curated from NEA, NDRRMA and press reports; location HOT bridge-damage layer 'Trisuli 216 Audit 1 Bailey Bridge' (washed out)","label":null,"marker-color":"#b91c1c","marker-size":"small","marker-symbol":"dam"},"geometry":{"type":"Point","coordinates":[85.28842,28.12028]}},{"type":"Feature","properties":{"name":"Upper Trishuli-3A","part":"headworks/dam area","capacity_mw":60,"status":"operating","damage":"listed damaged (NEA; Radio Nepal 5 Sep); tunnel entrance blocked by ~4 ft of debris (SitRep #20)","missing_workers":39,"bodies_recovered":"1 (2 rescued alive on day 10) (KP 23 Sep)","note":"HOT bridge layer: 'Trishuli 3A Dam-2/Dam-3' crossings washed out.","distance_to_flow_m":14,"source":"Curated from NEA, NDRRMA and press reports; location OSM way 1443565890 'Upper Trishuli 3 Hydropower Station' (tagged destroyed in HOT layer)","label":"Upper Trishuli-3A · 60 MW · 39 missing","marker-color":"#b91c1c","marker-size":"medium","marker-symbol":"dam"},"geometry":{"type":"Point","coordinates":[85.20665,28.06393]}},{"type":"Feature","properties":{"name":"Upper Trishuli-3A","part":"powerhouse","capacity_mw":60,"status":"operating","damage":"listed damaged (NEA; Radio Nepal 5 Sep); tunnel entrance blocked by ~4 ft of debris (SitRep #20)","missing_workers":39,"bodies_recovered":"1 (2 rescued alive on day 10) (KP 23 Sep)","note":"HOT bridge layer: 'Trishuli 3A Dam-2/Dam-3' crossings washed out.","distance_to_flow_m":334,"source":"Curated from NEA, NDRRMA and press reports; location OSM way 1555095822 'Upper Trishuli 3A Powerhouse'","label":null,"marker-color":"#b91c1c","marker-size":"small","marker-symbol":"dam"},"geometry":{"type":"Point","coordinates":[85.18477,28.02698]}},{"type":"Feature","properties":{"name":"Upper Trishuli-3B","part":"powerhouse","capacity_mw":37,"status":"under construction","damage":"residential quarters (Buildings A1, A2, B1, B2, D) buried; excavation 2 m below riverbed found only office foundation (SitRep #20)","missing_workers":178,"bodies_recovered":"none reported","note":null,"distance_to_flow_m":84,"source":"Curated from NEA, NDRRMA and press reports; location OSM way 1553105361 'Upper Trishuli-3B Powerhouse'","label":"Upper Trishuli-3B · 37 MW · 178 missing","marker-color":"#b91c1c","marker-size":"medium","marker-symbol":"dam"},"geometry":{"type":"Point","coordinates":[85.18311,27.9949]}},{"type":"Feature","properties":{"name":"Upper Trishuli-3B","part":"licence point (approx.)","capacity_mw":37,"status":"under construction","damage":"residential quarters (Buildings A1, A2, B1, B2, D) buried; excavation 2 m below riverbed found only office foundation (SitRep #20)","missing_workers":178,"bodies_recovered":"none reported","note":null,"distance_to_flow_m":77,"source":"Curated from NEA, NDRRMA and press reports; location HOT exposed-hydropower layer (DoED licence point)","label":null,"marker-color":"#b91c1c","marker-size":"small","marker-symbol":"dam"},"geometry":{"type":"Point","coordinates":[85.185,28.00458]}},{"type":"Feature","properties":{"name":"Mailung Khola","part":"project building","capacity_mw":5,"status":"operating","damage":"listed 'completely damaged' (Radio Nepal 5 Sep)","missing_workers":7,"bodies_recovered":null,"note":null,"distance_to_flow_m":50,"source":"Curated from NEA, NDRRMA and press reports; location OSM way 338849230 'Mailung Khola Project'","label":"Mailung Khola · 5 MW · 7 missing","marker-color":"#b91c1c","marker-size":"medium","marker-symbol":"dam"},"geometry":{"type":"Point","coordinates":[85.20729,28.07054]}},{"type":"Feature","properties":{"name":"Trishuli","part":"powerhouse","capacity_mw":24,"status":"operating","damage":"damaged (NEA list)","missing_workers":3,"bodies_recovered":null,"note":null,"distance_to_flow_m":95,"source":"Curated from NEA, NDRRMA and press reports; location OSM relation 5143911 'Trishuli Hydropower Station' (24 MW)","label":null,"marker-color":"#b91c1c","marker-size":"small","marker-symbol":"dam"},"geometry":{"type":"Point","coordinates":[85.14599,27.92148]}},{"type":"Feature","properties":{"name":"Trishuli","part":"dam","capacity_mw":24,"status":"operating","damage":"damaged (NEA list)","missing_workers":3,"bodies_recovered":null,"note":null,"distance_to_flow_m":399,"source":"Curated from NEA, NDRRMA and press reports; location OSM way 755069236 'Trishuli Hydro Power Dam'","label":"Trishuli · 24 MW · 3 missing","marker-color":"#b91c1c","marker-size":"medium","marker-symbol":"dam"},"geometry":{"type":"Point","coordinates":[85.14687,27.92492]}},{"type":"Feature","properties":{"name":"Trishuli","part":"intake weir","capacity_mw":24,"status":"operating","damage":"damaged (NEA list)","missing_workers":3,"bodies_recovered":null,"note":null,"distance_to_flow_m":187,"source":"Curated from NEA, NDRRMA and press reports; location OSM node 2532475226 (weir)","label":null,"marker-color":"#b91c1c","marker-size":"small","marker-symbol":"dam"},"geometry":{"type":"Point","coordinates":[85.15851,27.94404]}},{"type":"Feature","properties":{"name":"Devighat","part":"powerhouse/substation","capacity_mw":14.1,"status":"operating","damage":"damaged (NEA list); HOT layer tags 'Devighat' power way destroyed","missing_workers":null,"bodies_recovered":null,"note":"Employees missing, no separate figure (KP 23 Sep).","distance_to_flow_m":126,"source":"Curated from NEA, NDRRMA and press reports; location OSM way 826107756 'Devighat' substation","label":"Devighat · 14.1 MW","marker-color":"#b91c1c","marker-size":"medium","marker-symbol":"dam"},"geometry":{"type":"Point","coordinates":[85.135,27.88901]}},{"type":"Feature","properties":{"name":"Devighat","part":"licence point (approx.)","capacity_mw":14.1,"status":"operating","damage":"damaged (NEA list); HOT layer tags 'Devighat' power way destroyed","missing_workers":null,"bodies_recovered":null,"note":"Employees missing, no separate figure (KP 23 Sep).","distance_to_flow_m":112,"source":"Curated from NEA, NDRRMA and press reports; location HOT exposed-hydropower layer (DoED licence point)","label":null,"marker-color":"#b91c1c","marker-size":"small","marker-symbol":"dam"},"geometry":{"type":"Point","coordinates":[85.13889,27.90222]}},{"type":"Feature","properties":{"name":"NEA solar plant, Nuwakot","part":"solar block","capacity_mw":25,"status":"operating","damage":"three generating blocks and main substation swept away (CLaSH StoryMap)","missing_workers":null,"bodies_recovered":null,"note":"RDNA counts 5 operating solar plants, 24.36 MW.","distance_to_flow_m":226,"source":"Curated from NEA, NDRRMA and press reports; location OSM way 1385457298 (plant:source=solar)","label":"NEA solar plant, Nuwakot · 25 MW","marker-color":"#b45309","marker-size":"medium"},"geometry":{"type":"Point","coordinates":[85.13439,27.89084]}},{"type":"Feature","properties":{"name":"NEA solar plant, Nuwakot","part":"solar block","capacity_mw":25,"status":"operating","damage":"three generating blocks and main substation swept away (CLaSH StoryMap)","missing_workers":null,"bodies_recovered":null,"note":"RDNA counts 5 operating solar plants, 24.36 MW.","distance_to_flow_m":161,"source":"Curated from NEA, NDRRMA and press reports; location OSM way 1557871915 (solar)","label":null,"marker-color":"#b45309","marker-size":"small"},"geometry":{"type":"Point","coordinates":[85.13186,27.88737]}},{"type":"Feature","properties":{"name":"NEA solar plant, Nuwakot","part":"solar block","capacity_mw":25,"status":"operating","damage":"three generating blocks and main substation swept away (CLaSH StoryMap)","missing_workers":null,"bodies_recovered":null,"note":"RDNA counts 5 operating solar plants, 24.36 MW.","distance_to_flow_m":212,"source":"Curated from NEA, NDRRMA and press reports; location OSM relation 21305331 (solar)","label":null,"marker-color":"#b45309","marker-size":"small"},"geometry":{"type":"Point","coordinates":[85.12472,27.88198]}},{"type":"Feature","properties":{"name":"NEA solar plant, Nuwakot","part":"solar block","capacity_mw":25,"status":"operating","damage":"three generating blocks and main substation swept away (CLaSH StoryMap)","missing_workers":null,"bodies_recovered":null,"note":"RDNA counts 5 operating solar plants, 24.36 MW.","distance_to_flow_m":285,"source":"Curated from NEA, NDRRMA and press reports; location OSM way 1385457304 (solar)","label":null,"marker-color":"#b45309","marker-size":"small"},"geometry":{"type":"Point","coordinates":[85.12312,27.88008]}},{"type":"Feature","properties":{"name":"Bhotekoshi Khola Hydropower Project","part":"licence point (approx.)","capacity_mw":33.5,"status":"survey licence","damage":"no damage report found","missing_workers":null,"bodies_recovered":null,"note":null,"distance_to_flow_m":334,"source":"HOT exposed hydropower (HDX, ODbL)","label":"Bhotekoshi Khola Hydropower Project · 33.5 MW","marker-color":"#64748b","marker-size":"small","marker-symbol":"dam"},"geometry":{"type":"Point","coordinates":[85.34583,28.17083]}},{"type":"Feature","properties":{"name":"Trishuli Galchhi","part":"licence point (approx.)","capacity_mw":75,"status":"under construction","damage":"no damage report found","missing_workers":null,"bodies_recovered":null,"note":null,"distance_to_flow_m":355,"source":"HOT exposed hydropower (HDX, ODbL)","label":"Trishuli Galchhi · 75 MW","marker-color":"#64748b","marker-size":"small","marker-symbol":"dam"},"geometry":{"type":"Point","coordinates":[85.02292,27.82778]}},{"type":"Feature","properties":{"name":"Upper Trishuli-I Cascade HEP","part":"licence point (approx.)","capacity_mw":24.6,"status":"survey licence","damage":"no damage report found","missing_workers":null,"bodies_recovered":null,"note":null,"distance_to_flow_m":60,"source":"HOT exposed hydropower (HDX, ODbL)","label":"Upper Trishuli-I Cascade HEP · 24.6 MW","marker-color":"#64748b","marker-size":"small","marker-symbol":"dam"},"geometry":{"type":"Point","coordinates":[85.20903,28.0725]}}]}