{"type":"FeatureCollection","features":[{"type":"Feature","properties":{"name":"Nepal"},"geometry":{"type":"Polygon","coordinates":[[[80.0586,28.9165],[80.0648,28.8374],[80.0751,28.8244],[80.1182,28.8288],[80.171,28.7824],[80.2162,28.7554],[80.2516,28.7574],[80.2652,28.7436],[80.2563,28.7294],[80.2777,28.71],[80.2937,28.7114],[80.3174,28.6999],[80.326,28.6664],[80.3605,28.6454],[80.3608,28.6356],[80.3764,28.6284],[80.4185,28.6391],[80.4517,28.6287],[80.4644,28.615],[80.4604,28.6138],[80.4718,28.5903],[80.4683,28.5834],[80.4812,28.5854],[80.5065,28.5681],[80.5177,28.5519],[80.5308,28.5723],[80.5217,28.577],[80.5062,28.671],[80.5399,28.6907],[80.5905,28.6798],[80.5802,28.6613],[80.5976,28.656],[80.5898,28.6478],[80.6063,28.6524],[80.6116,28.6394],[80.6333,28.6374],[80.6416,28.6433],[80.6513,28.634],[80.6677,28.6419],[80.6796,28.6205],[80.6774,28.6044],[80.6958,28.6034],[80.6903,28.5871],[80.7147,28.5679],[80.7246,28.5749],[80.7388,28.5659],[80.7385,28.5743],[80.768,28.5657],[80.7696,28.5498],[80.7896,28.5434],[80.7846,28.5293],[80.7891,28.5244],[80.8155,28.5207],[80.8445,28.4955],[80.8553,28.4972],[80.8656,28.4896],[80.8616,28.5042],[80.8759,28.5098],[80.8962,28.5057],[80.9087,28.4976],[80.9015,28.4858],[80.9058,28.4658],[80.9157,28.4577],[80.9145,28.4679],[80.9176,28.4598],[80.9306,28.4577],[80.9426,28.4685],[80.9323,28.4587],[80.9517,28.4557],[80.9518,28.4476],[80.9641,28.4497],[80.9671,28.4571],[80.9799,28.4553],[80.9649,28.4448],[80.9654,28.4378],[80.9792,28.4344],[80.9779,28.4426],[80.9892,28.4417],[80.9998,28.4541],[81.0175,28.4517],[81.013,28.4383],[81.0193,28.4317],[81.0296,28.4386],[81.0338,28.428],[81.0168,28.4158],[81.0324,28.3988],[81.0349,28.4134],[81.0674,28.3945],[81.0625,28.4041],[81.0799,28.385],[81.2135,28.3583],[81.2346,28.3247],[81.2328,28.289],[81.3206,28.1973],[81.3213,28.1689],[81.3019,28.1661],[81.3107,28.1556],[81.3202,28.1603],[81.328,28.1483],[81.3184,28.1453],[81.3181,28.1336],[81.3714,28.1425],[81.3784,28.1556],[81.367,28.1654],[81.3748,28.177],[81.4149,28.1743],[81.4448,28.162],[81.45,28.1409],[81.4841,28.1183],[81.4785,28.0826],[81.6171,28.0105],[81.6244,28.0015],[81.6435,27.9939],[81.6984,27.9883],[81.805,27.9034],[81.8328,27.8981],[81.8856,27.8571],[81.9013,27.8537],[81.9262,27.8598],[81.9255,27.8759],[81.9683,27.929],[82.071,27.9227],[82.1234,27.8651],[82.1501,27.858],[82.1541,27.8663],[82.2083,27.8432],[82.2306,27.8208],[82.304,27.7727],[82.3672,27.7427],[82.4017,27.7029],[82.4488,27.6788],[82.4733,27.6765],[82.5163,27.6905],[82.5412,27.6858],[82.5937,27.697],[82.6051,27.706],[82.6189,27.7023],[82.6279,27.7116],[82.6553,27.7133],[82.6643,27.7221],[82.6666,27.7157],[82.6807,27.7138],[82.6993,27.722],[82.7052,27.7166],[82.7081,27.7219],[82.7059,27.7029],[82.7183,27.6875],[82.7118,27.6651],[82.7256,27.6585],[82.7282,27.6456],[82.7363,27.6432],[82.7367,27.6262],[82.7308,27.6241],[82.7367,27.6218],[82.735,27.6097],[82.7559,27.5878],[82.7478,27.572],[82.7514,27.5653],[82.7436,27.561],[82.7472,27.5551],[82.7382,27.5521],[82.7495,27.5229],[82.7368,27.5181],[82.7358,27.5026],[82.802,27.4966],[82.8325,27.5021],[82.9295,27.5012],[82.9543,27.468],[83.0342,27.4489],[83.1645,27.4577],[83.1879,27.4545],[83.2177,27.4174],[83.2723,27.3837],[83.2657,27.3656],[83.2728,27.3527],[83.3048,27.3315],[83.3176,27.3302],[83.318,27.3374],[83.3376,27.3329],[83.3593,27.3433],[83.358,27.3508],[83.3738,27.3574],[83.3748,27.37],[83.3882,27.376],[83.3849,27.3904],[83.4097,27.4127],[83.3843,27.4363],[83.384,27.4424],[83.3961,27.4467],[83.402,27.4577],[83.4026,27.4664],[83.3887,27.4708],[83.3889,27.4797],[83.6148,27.4696],[83.83,27.3704],[83.8628,27.3467],[83.8878,27.3584],[83.9062,27.382],[83.9053,27.3898],[83.8727,27.3928],[83.8756,27.406],[83.8675,27.4276],[83.8956,27.4378],[83.9312,27.4496],[83.946,27.4412],[83.9661,27.4467],[83.9776,27.4394],[83.9962,27.4462],[83.9981,27.4407],[84.0272,27.4337],[84.0317,27.4417],[84.0521,27.4428],[84.0708,27.4818],[84.0955,27.4897],[84.0979,27.5173],[84.1087,27.5218],[84.1242,27.5111],[84.1458,27.5189],[84.1511,27.5165],[84.1444,27.497],[84.1489,27.486],[84.1911,27.4693],[84.2058,27.4697],[84.2086,27.4427],[84.2196,27.4405],[84.2317,27.4564],[84.2543,27.4521],[84.2782,27.4157],[84.2764,27.3957],[84.2825,27.3966],[84.2919,27.385],[84.3006,27.3905],[84.3326,27.3775],[84.3729,27.3767],[84.3918,27.3682],[84.4412,27.3703],[84.4696,27.3552],[84.476,27.3625],[84.4859,27.3586],[84.6224,27.3364],[84.6896,27.2235],[84.691,27.215],[84.6805,27.2007],[84.6792,27.1857],[84.6854,27.1809],[84.6753,27.171],[84.6809,27.1689],[84.6769,27.1626],[84.6868,27.1586],[84.6804,27.1521],[84.677,27.1152],[84.6699,27.1105],[84.6748,27.1088],[84.6747,27.0965],[84.6648,27.0947],[84.6704,27.091],[84.6463,27.0756],[84.6428,27.0465],[84.7568,27.0029],[84.7731,27.0179],[84.7888,27.009],[84.7863,26.9986],[84.7936,26.9959],[84.7971,27.0042],[84.8003,27.0008],[84.8083,27.0078],[84.8121,27.0208],[84.8256,27.021],[84.8547,27.0083],[84.8501,26.9984],[84.8578,26.9978],[84.8561,26.9866],[84.8886,26.9776],[84.8914,26.9699],[84.9623,26.9605],[84.9783,26.9403],[84.9676,26.9163],[84.9995,26.9122],[85.0022,26.9035],[84.9927,26.903],[85.0039,26.8951],[85.0602,26.887],[85.0552,26.8815],[85.0484,26.8853],[85.0522,26.8813],[85.0417,26.8746],[85.0293,26.8753],[85.0288,26.8594],[85.022,26.8549],[85.0574,26.8492],[85.0579,26.8561],[85.0647,26.8569],[85.064,26.8497],[85.0783,26.8589],[85.0872,26.8529],[85.0867,26.8674],[85.1112,26.8725],[85.1899,26.8701],[85.1912,26.8313],[85.1768,26.8097],[85.1804,26.7958],[85.1934,26.7906],[85.1971,26.77],[85.2118,26.758],[85.2402,26.762],[85.3067,26.7523],[85.3345,26.7416],[85.3553,26.7603],[85.3752,26.7607],[85.4077,26.7913],[85.4547,26.7819],[85.4776,26.7925],[85.4798,26.8024],[85.4959,26.7971],[85.4978,26.8121],[85.5198,26.8145],[85.543,26.8384],[85.5534,26.8344],[85.5576,26.8441],[85.5657,26.841],[85.5753,26.8611],[85.5838,26.8582],[85.5852,26.8472],[85.6069,26.8573],[85.6235,26.8736],[85.6344,26.8723],[85.6424,26.8533],[85.6794,26.8438],[85.7207,26.8206],[85.7344,26.7959],[85.7287,26.7501],[85.7341,26.7375],[85.726,26.7214],[85.7234,26.6869],[85.7254,26.6705],[85.7365,26.664],[85.7342,26.6506],[85.7693,26.63],[85.8014,26.6243],[85.8033,26.615],[85.8175,26.6028],[85.8306,26.6017],[85.8312,26.6114],[85.851,26.6086],[85.8578,26.59],[85.8491,26.5689],[85.8878,26.5832],[85.8917,26.5945],[85.9007,26.5951],[85.9139,26.609],[85.9272,26.6097],[85.9285,26.6166],[85.948,26.6136],[85.9461,26.6212],[85.9556,26.6307],[85.9533,26.6439],[85.9602,26.6514],[85.9759,26.6583],[86.0098,26.654],[86.028,26.6668],[86.068,26.6579],[86.074,26.6498],[86.1194,26.6301],[86.1385,26.629],[86.136,26.6066],[86.1716,26.6172],[86.1923,26.6147],[86.1956,26.5944],[86.2054,26.5967],[86.2173,26.5885],[86.2344,26.5908],[86.2522,26.6171],[86.3443,26.6171],[86.3409,26.6061],[86.3969,26.5936],[86.395,26.5852],[86.4555,26.5682],[86.4973,26.5424],[86.5418,26.5385],[86.5703,26.4965],[86.6206,26.4844],[86.6334,26.4646],[86.6934,26.4512],[86.6998,26.4374],[86.7201,26.4349],[86.7297,26.4225],[86.747,26.4286],[86.744,26.435],[86.7663,26.4594],[86.8334,26.4391],[86.847,26.4424],[86.8459,26.4483],[86.856,26.4485],[86.861,26.4576],[86.8729,26.4541],[86.894,26.4621],[86.8916,26.4862],[86.9041,26.4884],[86.9299,26.4897],[86.9327,26.5169],[86.9613,26.5238],[86.9751,26.5201],[87.0153,26.5322],[87.0423,26.5684],[87.0446,26.5873],[87.0718,26.5858],[87.0727,26.542],[87.0915,26.4504],[87.1625,26.4041],[87.189,26.4056],[87.1859,26.4143],[87.2113,26.4132],[87.2189,26.4033],[87.2288,26.4138],[87.2563,26.4112],[87.2661,26.4057],[87.2659,26.374],[87.2895,26.3738],[87.3013,26.3664],[87.3123,26.3716],[87.341,26.3478],[87.3583,26.3611],[87.3534,26.3721],[87.3564,26.3883],[87.3687,26.4082],[87.3761,26.4071],[87.3885,26.4191],[87.4278,26.4225],[87.4662,26.4404],[87.5475,26.4186],[87.5528,26.4058],[87.5878,26.3927],[87.5871,26.3822],[87.6046,26.3809],[87.6121,26.3903],[87.6518,26.3936],[87.6503,26.406],[87.6783,26.4159],[87.6777,26.4355],[87.7111,26.4274],[87.7336,26.4079],[87.7391,26.4177],[87.7474,26.4179],[87.7538,26.4083],[87.7671,26.4114],[87.7675,26.4189],[87.7762,26.422],[87.7705,26.4276],[87.7778,26.4359],[87.7729,26.4362],[87.7777,26.4428],[87.7738,26.4505],[87.7886,26.4616],[87.7889,26.4693],[87.8297,26.4503],[87.8282,26.4402],[87.8487,26.4366],[87.851,26.4454],[87.8614,26.449],[87.8581,26.4637],[87.8856,26.4766],[87.8881,26.4868],[87.9,26.4776],[87.9096,26.4579],[87.8987,26.4489],[87.9248,26.4456],[87.916,26.4319],[87.926,26.4278],[87.9268,26.4184],[87.9658,26.3973],[87.9916,26.3927],[87.9925,26.3698],[88.0069,26.3612],[88.03,26.3651],[88.0272,26.382],[88.0343,26.3922],[88.0554,26.4009],[88.0601,26.4098],[88.0714,26.4082],[88.0697,26.4136],[88.0958,26.4397],[88.0919,26.4632],[88.1031,26.4659],[88.0979,26.4727],[88.1072,26.4752],[88.1003,26.4799],[88.1057,26.4896],[88.0987,26.5059],[88.0903,26.5071],[88.1031,26.519],[88.1037,26.5365],[88.0983,26.5379],[88.1115,26.5453],[88.1054,26.561],[88.1134,26.5584],[88.1132,26.5726],[88.1189,26.5682],[88.1176,26.5747],[88.1301,26.5736],[88.1299,26.6014],[88.1391,26.6069],[88.142,26.6259],[88.1605,26.6367],[88.1671,26.6996],[88.182,26.7196],[88.188,26.7717],[88.1742,26.8336],[88.1675,26.8378],[88.1735,26.8655],[88.1364,26.8987],[88.146,26.9211],[88.1205,26.9505],[88.1226,26.9684],[88.1355,26.9849],[88.1151,26.9888],[88.0923,27.0046],[88.0776,27.0354],[88.0597,27.0291],[88.0376,27.0367],[88.0163,27.0738],[88.0211,27.0878],[88.0034,27.1045],[87.9916,27.1055],[87.9874,27.1194],[87.9912,27.1308],[88.0074,27.1433],[88.011,27.1658],[88.0194,27.1711],[88.0125,27.1776],[88.0122,27.2161],[88.0309,27.2501],[88.0317,27.2863],[88.0448,27.2938],[88.0415,27.3044],[88.0666,27.336],[88.0417,27.3721],[88.0506,27.413],[88.0802,27.4299],[88.068,27.4384],[88.0725,27.4453],[88.0671,27.458],[88.044,27.4786],[88.0437,27.496],[88.0616,27.5122],[88.0574,27.518],[88.0672,27.5264],[88.059,27.5352],[88.0692,27.5559],[88.0811,27.5649],[88.0752,27.5721],[88.082,27.5851],[88.1137,27.6107],[88.1201,27.6456],[88.1446,27.6657],[88.1548,27.6907],[88.1475,27.703],[88.1554,27.7175],[88.1563,27.7366],[88.1786,27.7471],[88.1813,27.776],[88.1973,27.7909],[88.1732,27.8206],[88.2013,27.8375],[88.1957,27.8546],[88.1783,27.8568],[88.1351,27.8817],[88.1264,27.8818],[88.1124,27.8685],[88.0958,27.8673],[88.0834,27.8959],[88.0644,27.8864],[88.0368,27.9045],[88.0284,27.906],[88.0216,27.8967],[88.0024,27.8982],[87.9848,27.886],[87.9665,27.8932],[87.9557,27.9091],[87.9391,27.9109],[87.9322,27.9179],[87.8659,27.9108],[87.854,27.9288],[87.857,27.948],[87.8318,27.9529],[87.8247,27.9202],[87.8136,27.9215],[87.8041,27.909],[87.7846,27.8994],[87.7754,27.878],[87.7787,27.8659],[87.7662,27.8596],[87.7534,27.836],[87.7438,27.8352],[87.7339,27.8192],[87.7363,27.8131],[87.7254,27.8053],[87.6987,27.8122],[87.6655,27.8069],[87.663,27.8227],[87.6697,27.8301],[87.6651,27.8365],[87.6358,27.8344],[87.632,27.8248],[87.6115,27.8106],[87.6015,27.8211],[87.5895,27.8204],[87.5864,27.8529],[87.5788,27.862],[87.5624,27.8671],[87.5521,27.8652],[87.536,27.8432],[87.4901,27.8465],[87.4498,27.8224],[87.4036,27.8341],[87.4318,27.8424],[87.4186,27.8625],[87.4026,27.852],[87.3738,27.8454],[87.3552,27.8275],[87.3179,27.8258],[87.3045,27.8355],[87.3036,27.8435],[87.2604,27.851],[87.2387,27.8395],[87.2257,27.8198],[87.1683,27.8217],[87.1405,27.8372],[87.1263,27.8342],[87.1159,27.8404],[87.1082,27.8543],[87.1072,27.875],[87.0888,27.8827],[87.0778,27.9029],[87.0783,27.9157],[87.0534,27.9266],[87.0391,27.9504],[87.0242,27.95],[87.0157,27.9577],[86.9824,27.9496],[86.9344,27.962],[86.9331,27.9781],[86.9254,27.9879],[86.8899,27.997],[86.873,28.0105],[86.8674,28.0253],[86.852,28.0277],[86.8358,28.0154],[86.8027,28.0236],[86.7901,28.0189],[86.7738,28.0378],[86.7525,28.0383],[86.7469,28.0506],[86.7649,28.0746],[86.7508,28.0813],[86.7485,28.0944],[86.7383,28.1038],[86.6891,28.1087],[86.6686,28.1009],[86.6579,28.0811],[86.6356,28.0707],[86.6084,28.076],[86.6025,28.1019],[86.5764,28.1129],[86.5637,28.1086],[86.5669,28.0918],[86.5586,28.0779],[86.5653,28.069],[86.5489,28.0508],[86.5334,28.0466],[86.5315,28.0272],[86.5214,28.0199],[86.5128,27.9848],[86.5202,27.9744],[86.5122,27.9683],[86.5222,27.94],[86.5156,27.9566],[86.4977,27.9572],[86.4694,27.9462],[86.4699,27.93],[86.4425,27.9057],[86.4108,27.9066],[86.3813,27.9379],[86.3479,27.9376],[86.3376,27.9495],[86.3353,27.9651],[86.3188,27.9479],[86.3041,27.9556],[86.2888,27.9784],[86.2332,27.9742],[86.2201,28.0101],[86.2248,28.0331],[86.2176,28.0403],[86.2042,28.084],[86.2077,28.0943],[86.2225,28.0958],[86.2198,28.1117],[86.1972,28.1383],[86.1973,28.1564],[86.1867,28.1742],[86.1739,28.1683],[86.1781,28.1436],[86.142,28.1261],[86.1405,28.1178],[86.1324,28.1166],[86.1302,28.1001],[86.1179,28.0914],[86.0921,28.0978],[86.0828,28.0909],[86.0949,28.0619],[86.0875,28.0494],[86.0905,28.0332],[86.0794,28.0204],[86.1036,27.9842],[86.1071,27.9559],[86.1237,27.9416],[86.124,27.9276],[86.0665,27.9111],[86.0648,27.8998],[85.9884,27.9177],[85.9483,27.9421],[85.9598,27.9676],[85.9783,27.9879],[85.9771,27.9967],[85.9358,28.0242],[85.9149,28.0494],[85.9009,28.0539],[85.8964,28.0743],[85.9033,28.0892],[85.8981,28.1091],[85.8701,28.1238],[85.872,28.1444],[85.8513,28.1672],[85.8485,28.1842],[85.8289,28.1851],[85.8157,28.2034],[85.8,28.1964],[85.7764,28.2086],[85.7741,28.2181],[85.7489,28.2382],[85.7331,28.2913],[85.7372,28.3193],[85.7275,28.3289],[85.7323,28.3394],[85.7199,28.3595],[85.7243,28.3734],[85.7115,28.3863],[85.6839,28.3825],[85.6862,28.347],[85.6657,28.348],[85.6644,28.3317],[85.6538,28.3175],[85.6607,28.303],[85.6354,28.2739],[85.6087,28.2569],[85.599,28.2793],[85.6006,28.3044],[85.5618,28.3098],[85.5065,28.334],[85.458,28.337],[85.4154,28.3271],[85.412,28.3084],[85.3776,28.2786],[85.3702,28.2858],[85.3483,28.2885],[85.3482,28.3017],[85.3404,28.304],[85.3036,28.2899],[85.2729,28.2878],[85.2705,28.2974],[85.2548,28.2945],[85.2415,28.3178],[85.2025,28.3407],[85.1813,28.3243],[85.1668,28.3316],[85.1208,28.3358],[85.108,28.3466],[85.1266,28.3924],[85.1158,28.4089],[85.1143,28.4432],[85.1028,28.4479],[85.0995,28.4569],[85.1185,28.4856],[85.1529,28.4906],[85.1661,28.5321],[85.1869,28.5343],[85.1847,28.5614],[85.1916,28.5691],[85.1737,28.5975],[85.189,28.605],[85.1973,28.6209],[85.1977,28.6272],[85.1848,28.6323],[85.1884,28.6413],[85.1572,28.643],[85.1324,28.676],[85.1149,28.6868],[85.0839,28.671],[85.0586,28.6825],[85.052,28.6701],[85.0412,28.6685],[85.0403,28.658],[85.0089,28.6371],[84.9888,28.6129],[84.9861,28.6052],[84.9928,28.5999],[84.9834,28.5914],[84.9489,28.5802],[84.9449,28.5949],[84.9197,28.5953],[84.907,28.5882],[84.901,28.5933],[84.8861,28.5827],[84.8671,28.5817],[84.8571,28.5706],[84.7807,28.6095],[84.7368,28.6169],[84.7138,28.633],[84.6948,28.6365],[84.705,28.6711],[84.6683,28.6835],[84.6665,28.6943],[84.6506,28.7025],[84.6436,28.7253],[84.6263,28.7365],[84.5717,28.7352],[84.5567,28.7522],[84.5249,28.7422],[84.5147,28.7486],[84.4919,28.7348],[84.4803,28.7472],[84.4604,28.7514],[84.4519,28.7648],[84.4365,28.7695],[84.446,28.7833],[84.4453,28.7934],[84.4321,28.8015],[84.4296,28.8134],[84.4353,28.8209],[84.4189,28.8316],[84.4006,28.8303],[84.409,28.8536],[84.3753,28.8645],[84.357,28.8594],[84.3431,28.873],[84.3236,28.8627],[84.2878,28.877],[84.2656,28.8978],[84.2538,28.8903],[84.2258,28.8943],[84.2205,28.9157],[84.2315,28.9597],[84.2418,28.9762],[84.2383,28.9877],[84.2479,29.0127],[84.2479,29.0373],[84.2216,29.0535],[84.1897,29.047],[84.1861,29.0808],[84.2017,29.1038],[84.201,29.124],[84.1748,29.1309],[84.1623,29.1853],[84.1775,29.2068],[84.1883,29.2058],[84.1997,29.214],[84.201,29.2401],[84.1918,29.2442],[84.1794,29.2378],[84.1574,29.2418],[84.1412,29.2362],[84.1163,29.2442],[84.1124,29.2631],[84.1217,29.2704],[84.1202,29.2797],[84.0878,29.2946],[84.0688,29.2853],[84.0439,29.3009],[84.0264,29.2857],[84.0158,29.289],[83.9878,29.3005],[84.001,29.312],[83.9922,29.3202],[83.9627,29.3314],[83.9485,29.3171],[83.9048,29.3258],[83.898,29.3189],[83.8567,29.3099],[83.8481,29.2976],[83.8126,29.302],[83.8079,29.2859],[83.7945,29.2775],[83.8023,29.2564],[83.7973,29.2501],[83.7711,29.2469],[83.7621,29.24],[83.7113,29.2446],[83.6842,29.2132],[83.6559,29.204],[83.6636,29.1841],[83.6574,29.1762],[83.6334,29.1585],[83.6102,29.1808],[83.5902,29.1742],[83.5761,29.1802],[83.5693,29.1935],[83.5721,29.2026],[83.5391,29.2027],[83.5197,29.2177],[83.5152,29.2281],[83.5228,29.2383],[83.5148,29.2559],[83.5042,29.2556],[83.4916,29.2649],[83.4935,29.2739],[83.4873,29.2802],[83.4653,29.2746],[83.4384,29.3087],[83.445,29.3403],[83.439,29.3496],[83.4152,29.3591],[83.4118,29.3803],[83.4227,29.3847],[83.4205,29.3975],[83.4262,29.4025],[83.416,29.4104],[83.4143,29.4209],[83.3715,29.4286],[83.3644,29.4398],[83.3662,29.4501],[83.3538,29.4514],[83.3424,29.4659],[83.3477,29.4786],[83.3445,29.4948],[83.3158,29.509],[83.3024,29.4997],[83.2935,29.5044],[83.2821,29.4988],[83.2675,29.5075],[83.2688,29.5222],[83.2559,29.5393],[83.2554,29.5568],[83.274,29.5545],[83.284,29.5629],[83.2612,29.5776],[83.232,29.5779],[83.2156,29.5885],[83.2181,29.6055],[83.196,29.6111],[83.1864,29.6066],[83.1873,29.5965],[83.164,29.5944],[83.1589,29.5973],[83.1645,29.6169],[83.1421,29.6249],[83.1314,29.6179],[83.1204,29.6286],[83.1165,29.6165],[83.0902,29.612],[83.0923,29.6054],[83.0857,29.6028],[83.0694,29.61],[83.0655,29.6261],[83.0434,29.6309],[83.0335,29.6542],[83.0211,29.6507],[83.0086,29.6726],[83.0006,29.6646],[82.985,29.6685],[82.9557,29.6627],[82.941,29.6742],[82.9485,29.6916],[82.9355,29.7055],[82.9268,29.7007],[82.9151,29.7064],[82.9083,29.7004],[82.891,29.7014],[82.8862,29.6928],[82.8607,29.6846],[82.8265,29.6899],[82.815,29.7048],[82.8214,29.7138],[82.8179,29.7212],[82.7976,29.7191],[82.7629,29.7312],[82.7667,29.7425],[82.7522,29.7656],[82.7238,29.7705],[82.6901,29.7632],[82.6865,29.7735],[82.6961,29.7817],[82.6941,29.7912],[82.7103,29.7928],[82.7371,29.8136],[82.7266,29.8353],[82.7106,29.8388],[82.6972,29.8554],[82.6397,29.8339],[82.621,29.8373],[82.6203,29.8451],[82.6317,29.8496],[82.6423,29.8705],[82.6024,29.8891],[82.5848,29.9213],[82.5667,29.9325],[82.5631,29.9552],[82.5494,29.9632],[82.5297,29.9712],[82.5142,29.9522],[82.4993,29.946],[82.4739,29.9653],[82.4762,29.9737],[82.4322,29.989],[82.3955,30.024],[82.3872,30.0205],[82.376,30.0264],[82.3779,30.0112],[82.3727,30.0156],[82.363,30.0104],[82.3595,30.0217],[82.3448,30.0289],[82.3341,30.0469],[82.32,30.0495],[82.3157,30.0403],[82.2985,30.0379],[82.2853,30.0473],[82.2813,30.0612],[82.2655,30.0622],[82.2467,30.0752],[82.2312,30.0649],[82.1885,30.0698],[82.1719,30.0652],[82.1659,30.0814],[82.1771,30.0889],[82.1866,30.1109],[82.1708,30.122],[82.1988,30.1363],[82.2055,30.1539],[82.1821,30.1609],[82.1845,30.1908],[82.1588,30.1893],[82.1391,30.1989],[82.1273,30.2258],[82.1094,30.226],[82.0984,30.2393],[82.1074,30.2551],[82.1184,30.2595],[82.1094,30.2772],[82.1164,30.2942],[82.1283,30.3023],[82.1047,30.3496],[82.0766,30.3593],[82.0673,30.3567],[82.056,30.3326],[82.0163,30.3442],[82.0112,30.3418],[82.0122,30.3292],[81.9886,30.3208],[81.9567,30.3412],[81.9622,30.3508],[81.9493,30.3589],[81.9395,30.3476],[81.9145,30.35],[81.8822,30.3608],[81.8677,30.3773],[81.8264,30.3751],[81.809,30.3873],[81.7511,30.3888],[81.7317,30.3983],[81.7268,30.4113],[81.6202,30.4473],[81.622,30.4244],[81.6068,30.4122],[81.5608,30.428],[81.5595,30.4074],[81.5508,30.4027],[81.5518,30.3698],[81.4895,30.3813],[81.445,30.4159],[81.4386,30.4187],[81.434,30.4128],[81.4277,30.4219],[81.4083,30.4213],[81.4007,30.3962],[81.4293,30.3834],[81.4201,30.3706],[81.3953,30.3679],[81.4061,30.3532],[81.4058,30.3366],[81.3964,30.3234],[81.4147,30.3164],[81.4233,30.3051],[81.4019,30.2931],[81.3996,30.2816],[81.4166,30.2817],[81.4084,30.2611],[81.392,30.2505],[81.3965,30.209],[81.3506,30.178],[81.3321,30.1532],[81.3168,30.152],[81.3049,30.1643],[81.3036,30.1593],[81.2581,30.1513],[81.2563,30.1465],[81.2905,30.1125],[81.2852,30.1051],[81.2896,30.0743],[81.2746,30.0591],[81.272,30.0453],[81.2374,30.0318],[81.2537,30.0197],[81.2317,30.0077],[81.2175,30.0073],[81.2077,30.0204],[81.1948,30.0229],[81.184,30.0108],[81.1334,30.016],[81.0909,30.0542],[81.1081,30.088],[81.0983,30.1],[81.0812,30.1005],[81.0832,30.1482],[81.0439,30.1806],[81.0425,30.1936],[81.0336,30.197],[81.0451,30.2101],[81.0291,30.2198],[81.0289,30.233],[80.9887,30.2467],[80.9762,30.2379],[80.9275,30.2358],[80.8973,30.2123],[80.8801,30.1812],[80.8632,30.1695],[80.8714,30.1609],[80.8776,30.1285],[80.845,30.116],[80.8453,30.1023],[80.8372,30.0974],[80.8155,30.0963],[80.7795,30.0567],[80.7613,30.0495],[80.7558,30.0396],[80.7576,30.0239],[80.7447,30.004],[80.7196,30.0003],[80.6742,29.9572],[80.6487,29.9559],[80.6299,29.9651],[80.604,29.9589],[80.5743,29.9235],[80.5727,29.8953],[80.557,29.8706],[80.5617,29.8664],[80.5528,29.8504],[80.539,29.8472],[80.5218,29.827],[80.5074,29.8231],[80.4934,29.7955],[80.464,29.8023],[80.4442,29.7991],[80.4355,29.8061],[80.429,29.7981],[80.407,29.7945],[80.3976,29.7593],[80.3653,29.7463],[80.3665,29.724],[80.3756,29.7199],[80.3721,29.7153],[80.3846,29.6744],[80.3982,29.6589],[80.4146,29.654],[80.4203,29.6391],[80.421,29.6298],[80.4107,29.625],[80.4058,29.6128],[80.4081,29.5954],[80.388,29.5718],[80.3792,29.5715],[80.3789,29.5613],[80.3637,29.5641],[80.3641,29.5566],[80.3428,29.5529],[80.3419,29.5403],[80.3581,29.5325],[80.3497,29.5189],[80.3139,29.4991],[80.3131,29.4845],[80.2992,29.4906],[80.2867,29.4769],[80.3026,29.4531],[80.2806,29.4509],[80.2763,29.4586],[80.2693,29.4551],[80.2744,29.4495],[80.2582,29.4518],[80.243,29.4438],[80.2476,29.4347],[80.2417,29.4116],[80.2747,29.393],[80.279,29.3786],[80.2714,29.3737],[80.2712,29.3645],[80.2794,29.3595],[80.2802,29.3463],[80.2963,29.3242],[80.317,29.3148],[80.318,29.3017],[80.3044,29.2853],[80.3004,29.2421],[80.2908,29.2316],[80.2974,29.2051],[80.2873,29.1952],[80.2751,29.2071],[80.2609,29.2067],[80.2561,29.2195],[80.2484,29.221],[80.2409,29.2025],[80.258,29.1874],[80.2584,29.1658],[80.2718,29.1421],[80.2542,29.138],[80.2334,29.1185],[80.2098,29.1219],[80.1836,29.1371],[80.1448,29.1034],[80.1286,29.0611],[80.1366,29.0589],[80.1247,29.0131],[80.1357,29.0073],[80.1269,29.0061],[80.118,28.9817],[80.1003,28.9865],[80.0586,28.9165]],[[81.0596,28.41],[81.0686,28.4259],[81.0601,28.4089],[81.0596,28.41]],[[81.2431,28.5894],[81.2538,28.6012],[81.2489,28.5945],[81.2431,28.5894]],[[81.2697,28.6235],[81.2707,28.6296],[81.2877,28.6486],[81.2697,28.6235]],[[81.3028,30.0339],[81.3146,30.0327],[81.317,30.0286],[81.3028,30.0339]],[[81.3102,28.6511],[81.3178,28.6593],[81.3163,28.6524],[81.3102,28.6511]],[[81.3124,28.6697],[81.3199,28.6687],[81.3191,28.6653],[81.3124,28.6697]],[[81.3704,30.0088],[81.3785,30.0077],[81.3766,30.0065],[81.3704,30.0088]],[[81.5205,28.7491],[81.5661,28.7542],[81.5539,28.7501],[81.5205,28.7491]],[[81.5784,28.7583],[81.5799,28.7801],[81.5813,28.7592],[81.5784,28.7583]],[[82.8793,28.4764],[82.883,28.4767],[82.8799,28.4743],[82.8793,28.4764]],[[82.8946,28.4778],[82.9121,28.4794],[82.904,28.4755],[82.8946,28.4778]],[[82.9281,28.5655],[82.9325,28.5658],[82.9738,28.5423],[82.9281,28.5655]],[[83.1467,28.7471],[83.1541,28.7478],[83.1865,28.7436],[83.1467,28.7471]],[[83.845,27.5573],[83.8472,27.5604],[83.8492,27.5586],[83.845,27.5573]],[[83.8521,27.5559],[83.8824,27.5279],[83.8553,27.5486],[83.8521,27.5559]],[[83.9388,27.4916],[83.9649,27.5065],[83.9635,27.5039],[83.9388,27.4916]],[[83.966,27.518],[83.9695,27.5154],[83.9674,27.5114],[83.966,27.518]],[[84.4874,27.3688],[84.4878,27.3714],[84.5041,27.3812],[84.4874,27.3688]],[[86.9204,26.5137],[86.9237,26.5233],[86.9333,26.5336],[86.9204,26.5137]],[[87.01,26.7109],[87.0146,26.6902],[87.0134,26.6709],[87.01,26.7109]]]}}]}