{"type":"FeatureCollection","features":[{"type":"Feature","properties":{"name":"Koshi","province":"Koshi"},"geometry":{"type":"Polygon","coordinates":[[[86.9041,26.4884],[86.9299,26.4897],[86.9327,26.5169],[86.9613,26.5238],[86.9751,26.5201],[87.0153,26.5322],[87.0423,26.5684],[87.0446,26.5873],[87.0718,26.5858],[87.0727,26.542],[87.0915,26.4504],[87.1625,26.4041],[87.189,26.4056],[87.1859,26.4143],[87.2113,26.4132],[87.2189,26.4033],[87.2288,26.4138],[87.2563,26.4112],[87.2661,26.4057],[87.2659,26.374],[87.2895,26.3738],[87.3013,26.3664],[87.3123,26.3716],[87.341,26.3478],[87.3583,26.3611],[87.3534,26.3721],[87.3564,26.3883],[87.3687,26.4082],[87.3761,26.4071],[87.3885,26.4191],[87.4278,26.4225],[87.4662,26.4404],[87.5475,26.4186],[87.5528,26.4058],[87.5878,26.3927],[87.5871,26.3822],[87.6046,26.3809],[87.6121,26.3903],[87.6518,26.3936],[87.6503,26.406],[87.6783,26.4159],[87.6777,26.4355],[87.7111,26.4274],[87.7336,26.4079],[87.7391,26.4177],[87.7474,26.4179],[87.7538,26.4083],[87.7671,26.4114],[87.7675,26.4189],[87.7762,26.422],[87.7705,26.4276],[87.7778,26.4359],[87.7729,26.4362],[87.7777,26.4428],[87.7738,26.4505],[87.7886,26.4616],[87.7889,26.4693],[87.8297,26.4503],[87.8282,26.4402],[87.8487,26.4366],[87.851,26.4454],[87.8614,26.449],[87.8581,26.4637],[87.8856,26.4766],[87.8881,26.4868],[87.9,26.4776],[87.9096,26.4579],[87.8987,26.4489],[87.9248,26.4456],[87.916,26.4319],[87.926,26.4278],[87.9268,26.4184],[87.9658,26.3973],[87.9916,26.3927],[87.9925,26.3698],[88.0069,26.3612],[88.03,26.3651],[88.0272,26.382],[88.0343,26.3922],[88.0554,26.4009],[88.0601,26.4098],[88.0714,26.4082],[88.0697,26.4136],[88.0958,26.4397],[88.0919,26.4632],[88.1031,26.4659],[88.0979,26.4727],[88.1072,26.4752],[88.1003,26.4799],[88.1057,26.4896],[88.0987,26.5059],[88.0903,26.5071],[88.1031,26.519],[88.1037,26.5365],[88.0983,26.5379],[88.1115,26.5453],[88.1054,26.561],[88.1134,26.5584],[88.1132,26.5726],[88.1189,26.5682],[88.1176,26.5747],[88.1301,26.5736],[88.1299,26.6014],[88.1391,26.6069],[88.142,26.6259],[88.1605,26.6367],[88.1671,26.6996],[88.182,26.7196],[88.188,26.7717],[88.1742,26.8336],[88.1675,26.8378],[88.1735,26.8655],[88.1364,26.8987],[88.146,26.9211],[88.1205,26.9505],[88.1226,26.9684],[88.1355,26.9849],[88.1151,26.9888],[88.0923,27.0046],[88.0776,27.0354],[88.0597,27.0291],[88.0376,27.0367],[88.0163,27.0738],[88.0211,27.0878],[88.0034,27.1045],[87.9916,27.1055],[87.9874,27.1194],[87.9912,27.1308],[88.0074,27.1433],[88.011,27.1658],[88.0194,27.1711],[88.0125,27.1776],[88.0122,27.2161],[88.0309,27.2501],[88.0317,27.2863],[88.0448,27.2938],[88.0415,27.3044],[88.0666,27.336],[88.0417,27.3721],[88.0506,27.413],[88.0802,27.4299],[88.068,27.4384],[88.0725,27.4453],[88.0671,27.458],[88.044,27.4786],[88.0437,27.496],[88.0616,27.5122],[88.0574,27.518],[88.0672,27.5264],[88.059,27.5352],[88.0692,27.5559],[88.0811,27.5649],[88.0752,27.5721],[88.082,27.5851],[88.1137,27.6107],[88.1201,27.6456],[88.1446,27.6657],[88.1548,27.6907],[88.1475,27.703],[88.1554,27.7175],[88.1563,27.7366],[88.1786,27.7471],[88.1813,27.776],[88.1973,27.7909],[88.1732,27.8206],[88.2013,27.8375],[88.1957,27.8546],[88.1783,27.8568],[88.1351,27.8817],[88.1264,27.8818],[88.1124,27.8685],[88.0958,27.8673],[88.0834,27.8959],[88.0644,27.8864],[88.0368,27.9045],[88.0284,27.906],[88.0216,27.8967],[88.0024,27.8982],[87.9848,27.886],[87.9665,27.8932],[87.9557,27.9091],[87.9391,27.9109],[87.9322,27.9179],[87.8659,27.9108],[87.854,27.9288],[87.857,27.948],[87.8318,27.9529],[87.8247,27.9202],[87.8136,27.9215],[87.8041,27.909],[87.7846,27.8994],[87.7754,27.878],[87.7787,27.8659],[87.7662,27.8596],[87.7534,27.836],[87.7438,27.8352],[87.7339,27.8192],[87.7363,27.8131],[87.7254,27.8053],[87.6987,27.8122],[87.6655,27.8069],[87.663,27.8227],[87.6697,27.8301],[87.6651,27.8365],[87.6358,27.8344],[87.632,27.8248],[87.6115,27.8106],[87.6015,27.8211],[87.5895,27.8204],[87.5864,27.8529],[87.5788,27.862],[87.5624,27.8671],[87.5521,27.8652],[87.536,27.8432],[87.4901,27.8465],[87.4498,27.8224],[87.4036,27.8341],[87.4318,27.8424],[87.4186,27.8625],[87.4026,27.852],[87.3738,27.8454],[87.3552,27.8275],[87.3179,27.8258],[87.3045,27.8355],[87.3036,27.8435],[87.2604,27.851],[87.2387,27.8395],[87.2257,27.8198],[87.1683,27.8217],[87.1405,27.8372],[87.1263,27.8342],[87.1159,27.8404],[87.1082,27.8543],[87.1072,27.875],[87.0888,27.8827],[87.0778,27.9029],[87.0783,27.9157],[87.0534,27.9266],[87.0391,27.9504],[87.0242,27.95],[87.0157,27.9577],[86.9824,27.9496],[86.9344,27.962],[86.9331,27.9781],[86.9254,27.9879],[86.8899,27.997],[86.873,28.0105],[86.8674,28.0253],[86.852,28.0277],[86.8358,28.0154],[86.8027,28.0236],[86.7901,28.0189],[86.7738,28.0378],[86.7525,28.0383],[86.7469,28.0506],[86.7649,28.0746],[86.7508,28.0813],[86.7485,28.0944],[86.7383,28.1038],[86.6891,28.1087],[86.6686,28.1009],[86.6579,28.0811],[86.6356,28.0707],[86.6084,28.076],[86.6025,28.1019],[86.5764,28.1129],[86.5637,28.1086],[86.5669,28.0918],[86.5586,28.0779],[86.5653,28.069],[86.5489,28.0508],[86.5334,28.0466],[86.5315,28.0272],[86.5214,28.0199],[86.5128,27.9848],[86.5202,27.9744],[86.5122,27.9683],[86.5222,27.94],[86.5337,27.9421],[86.5478,27.9305],[86.5544,27.9089],[86.5541,27.8571],[86.5404,27.8149],[86.5671,27.804],[86.564,27.7696],[86.5728,27.7546],[86.5629,27.7493],[86.551,27.7109],[86.5403,27.7016],[86.538,27.6703],[86.5271,27.6602],[86.5262,27.6504],[86.5072,27.6406],[86.4925,27.6137],[86.4697,27.6171],[86.4348,27.6103],[86.4135,27.5868],[86.3766,27.5684],[86.3549,27.5249],[86.3383,27.5201],[86.2921,27.4704],[86.2637,27.4562],[86.222,27.3821],[86.2247,27.3706],[86.2157,27.3336],[86.2372,27.3061],[86.2406,27.2888],[86.2138,27.2689],[86.2036,27.2503],[86.2301,27.2374],[86.2663,27.2611],[86.2667,27.2537],[86.2949,27.2384],[86.341,27.229],[86.3436,27.2029],[86.379,27.1933],[86.3899,27.1799],[86.3679,27.1406],[86.343,27.1473],[86.3262,27.111],[86.3064,27.1089],[86.3231,27.0991],[86.3412,27.1065],[86.3626,27.0996],[86.3552,27.0753],[86.3461,27.0661],[86.3633,27.0541],[86.367,27.0376],[86.3826,27.0315],[86.374,27.0233],[86.3652,26.98],[86.353,26.9646],[86.315,26.9635],[86.2835,26.9492],[86.2784,26.9347],[86.2631,26.9271],[86.2565,26.9118],[86.2462,26.9151],[86.2418,26.9055],[86.2242,26.9038],[86.221,26.8885],[86.1575,26.93],[86.1559,26.919],[86.187,26.8947],[86.2274,26.8807],[86.2469,26.8638],[86.2712,26.8825],[86.2875,26.8867],[86.366,26.8726],[86.3844,26.9094],[86.4184,26.9063],[86.4571,26.8874],[86.4796,26.8886],[86.4799,26.8711],[86.4882,26.8694],[86.4961,26.8566],[86.5048,26.8561],[86.5125,26.8404],[86.5178,26.8433],[86.5196,26.8316],[86.552,26.8352],[86.5535,26.8149],[86.5301,26.7912],[86.5386,26.7831],[86.5639,26.7911],[86.5666,26.781],[86.5779,26.7844],[86.5727,26.7682],[86.5532,26.746],[86.5739,26.7396],[86.5721,26.7224],[86.5833,26.7122],[86.5864,26.6965],[86.6019,26.6999],[86.6105,26.6891],[86.6163,26.6951],[86.6274,26.69],[86.6338,26.6985],[86.6566,26.6915],[86.6649,26.7045],[86.6705,26.6937],[86.6848,26.6881],[86.7063,26.7072],[86.737,26.7123],[86.7531,26.6952],[86.7531,26.6863],[86.7599,26.6954],[86.8,26.7127],[86.8143,26.7078],[86.8239,26.7143],[86.8376,26.7099],[86.8405,26.6918],[86.8483,26.6913],[86.8657,26.7007],[86.8713,26.7132],[86.885,26.7121],[86.9112,26.7399],[86.9087,26.7593],[86.9213,26.7666],[86.9325,26.7407],[86.9488,26.7322],[86.9671,26.7357],[86.9905,26.6982],[87.0008,26.7103],[87.01,26.7109],[87.0146,26.6902],[87.0134,26.6709],[86.9911,26.6496],[86.9857,26.6294],[86.9788,26.6252],[86.9894,26.606],[86.9825,26.5864],[86.9923,26.5721],[86.9636,26.5446],[86.9333,26.5336],[86.9041,26.4884]]]}},{"type":"Feature","properties":{"name":"Madhesh","province":"Madhesh"},"geometry":{"type":"Polygon","coordinates":[[[86.2597,26.9191],[86.2554,26.9325],[86.1873,26.9775],[86.1876,26.9825],[86.1064,27.0152],[86.0123,27.0187],[85.9917,27.0248],[85.9709,27.051],[85.962,27.0799],[85.9441,27.0921],[85.9359,27.1102],[85.9381,27.1214],[85.883,27.1464],[85.8625,27.1272],[85.8357,27.1471],[85.8436,27.1599],[85.8307,27.1672],[85.809,27.1617],[85.7694,27.1822],[85.7237,27.1952],[85.7169,27.1878],[85.6949,27.1841],[85.6817,27.1694],[85.6298,27.1374],[85.5807,27.144],[85.5711,27.1371],[85.5689,27.1435],[85.5536,27.1468],[85.5468,27.1406],[85.5367,27.1489],[85.5281,27.1404],[85.501,27.1436],[85.4895,27.1546],[85.4931,27.1622],[85.504,27.1635],[85.5009,27.1758],[85.4723,27.1619],[85.4529,27.1684],[85.4481,27.1868],[85.3973,27.1977],[85.3935,27.2104],[85.3597,27.2108],[85.3487,27.2222],[85.3376,27.2198],[85.3074,27.2318],[85.2619,27.2267],[85.2515,27.245],[85.2425,27.2488],[85.2318,27.2434],[85.2025,27.2503],[85.1929,27.2451],[85.1791,27.2485],[85.181,27.2546],[85.156,27.2621],[85.1453,27.273],[85.1448,27.283],[85.1266,27.2926],[85.1168,27.3179],[85.1039,27.3202],[85.0866,27.3611],[85.0615,27.3605],[85.0562,27.3657],[85.0246,27.3587],[85.0215,27.3521],[85.004,27.3529],[84.9989,27.3656],[84.9719,27.3551],[84.9642,27.3637],[84.9568,27.3592],[84.9518,27.367],[84.945,27.3602],[84.9409,27.3658],[84.9262,27.3642],[84.9085,27.3773],[84.9008,27.375],[84.8967,27.3855],[84.8819,27.3881],[84.8767,27.3977],[84.8519,27.3986],[84.8404,27.4148],[84.8253,27.4196],[84.8101,27.416],[84.8092,27.4245],[84.7909,27.4378],[84.7553,27.4357],[84.7261,27.4447],[84.7189,27.4313],[84.6477,27.4291],[84.643,27.4429],[84.6283,27.4509],[84.5759,27.454],[84.5617,27.463],[84.5484,27.418],[84.5325,27.4144],[84.5462,27.4082],[84.5347,27.4018],[84.5397,27.3859],[84.5041,27.3812],[84.4839,27.3661],[84.4859,27.3586],[84.6224,27.3364],[84.6896,27.2235],[84.691,27.215],[84.6805,27.2007],[84.6792,27.1857],[84.6854,27.1809],[84.6753,27.171],[84.6809,27.1689],[84.6769,27.1626],[84.6868,27.1586],[84.6804,27.1521],[84.677,27.1152],[84.6699,27.1105],[84.6748,27.1088],[84.6747,27.0965],[84.6648,27.0947],[84.6704,27.091],[84.6463,27.0756],[84.6428,27.0465],[84.7568,27.0029],[84.7731,27.0179],[84.7888,27.009],[84.7863,26.9986],[84.7936,26.9959],[84.7971,27.0042],[84.8003,27.0008],[84.8083,27.0078],[84.8121,27.0208],[84.8256,27.021],[84.8547,27.0083],[84.8501,26.9984],[84.8578,26.9978],[84.8561,26.9866],[84.8886,26.9776],[84.8914,26.9699],[84.9623,26.9605],[84.9783,26.9403],[84.9676,26.9163],[84.9995,26.9122],[85.0022,26.9035],[84.9927,26.903],[85.0039,26.8951],[85.0602,26.887],[85.0552,26.8815],[85.0484,26.8853],[85.0522,26.8813],[85.0417,26.8746],[85.0293,26.8753],[85.0288,26.8594],[85.022,26.8549],[85.0574,26.8492],[85.0579,26.8561],[85.0647,26.8569],[85.064,26.8497],[85.0783,26.8589],[85.0872,26.8529],[85.0867,26.8674],[85.1112,26.8725],[85.1899,26.8701],[85.1912,26.8313],[85.1768,26.8097],[85.1804,26.7958],[85.1934,26.7906],[85.1971,26.77],[85.2118,26.758],[85.2402,26.762],[85.3067,26.7523],[85.3345,26.7416],[85.3553,26.7603],[85.3752,26.7607],[85.4077,26.7913],[85.4547,26.7819],[85.4776,26.7925],[85.4798,26.8024],[85.4959,26.7971],[85.4978,26.8121],[85.5198,26.8145],[85.543,26.8384],[85.5534,26.8344],[85.5576,26.8441],[85.5657,26.841],[85.5753,26.8611],[85.5838,26.8582],[85.5852,26.8472],[85.6069,26.8573],[85.6235,26.8736],[85.6344,26.8723],[85.6424,26.8533],[85.6794,26.8438],[85.7207,26.8206],[85.7344,26.7959],[85.7287,26.7501],[85.7341,26.7375],[85.726,26.7214],[85.7234,26.6869],[85.7254,26.6705],[85.7365,26.664],[85.7342,26.6506],[85.7693,26.63],[85.8014,26.6243],[85.8033,26.615],[85.8175,26.6028],[85.8306,26.6017],[85.8312,26.6114],[85.851,26.6086],[85.8578,26.59],[85.8491,26.5689],[85.8878,26.5832],[85.8917,26.5945],[85.9007,26.5951],[85.9139,26.609],[85.9272,26.6097],[85.9285,26.6166],[85.948,26.6136],[85.9461,26.6212],[85.9556,26.6307],[85.9533,26.6439],[85.9602,26.6514],[85.9759,26.6583],[86.0098,26.654],[86.028,26.6668],[86.068,26.6579],[86.074,26.6498],[86.1194,26.6301],[86.1385,26.629],[86.136,26.6066],[86.1716,26.6172],[86.1923,26.6147],[86.1956,26.5944],[86.2054,26.5967],[86.2173,26.5885],[86.2344,26.5908],[86.2522,26.6171],[86.3443,26.6171],[86.3409,26.6061],[86.3969,26.5936],[86.395,26.5852],[86.4555,26.5682],[86.4973,26.5424],[86.5418,26.5385],[86.5703,26.4965],[86.6206,26.4844],[86.6334,26.4646],[86.6934,26.4512],[86.6998,26.4374],[86.7201,26.4349],[86.7297,26.4225],[86.747,26.4286],[86.744,26.435],[86.7663,26.4594],[86.8334,26.4391],[86.847,26.4424],[86.8459,26.4483],[86.856,26.4485],[86.861,26.4576],[86.8729,26.4541],[86.894,26.4621],[86.8916,26.4862],[86.9041,26.4884],[86.9162,26.5015],[86.9237,26.5233],[86.9333,26.5336],[86.9636,26.5446],[86.9923,26.5721],[86.9825,26.5864],[86.9894,26.606],[86.9788,26.6252],[86.9857,26.6294],[86.9911,26.6496],[87.0134,26.6709],[87.01,26.7109],[87.0008,26.7103],[86.9905,26.6982],[86.9671,26.7357],[86.9488,26.7322],[86.9325,26.7407],[86.9213,26.7666],[86.9087,26.7593],[86.9112,26.7399],[86.885,26.7121],[86.8713,26.7132],[86.8657,26.7007],[86.8483,26.6913],[86.8405,26.6918],[86.8376,26.7099],[86.8239,26.7143],[86.8143,26.7078],[86.8,26.7127],[86.7599,26.6954],[86.7531,26.6863],[86.7531,26.6952],[86.737,26.7123],[86.7063,26.7072],[86.6848,26.6881],[86.6705,26.6937],[86.6649,26.7045],[86.6566,26.6915],[86.6338,26.6985],[86.6274,26.69],[86.6163,26.6951],[86.6105,26.6891],[86.6019,26.6999],[86.5864,26.6965],[86.5833,26.7122],[86.5721,26.7224],[86.5739,26.7396],[86.5532,26.746],[86.5727,26.7682],[86.5779,26.7844],[86.5666,26.781],[86.5639,26.7911],[86.5386,26.7831],[86.5301,26.7912],[86.5535,26.8149],[86.552,26.8352],[86.5196,26.8316],[86.5178,26.8433],[86.5125,26.8404],[86.5048,26.8561],[86.4961,26.8566],[86.4882,26.8694],[86.4799,26.8711],[86.4796,26.8886],[86.4571,26.8874],[86.4184,26.9063],[86.3844,26.9094],[86.366,26.8726],[86.2875,26.8867],[86.2712,26.8825],[86.2469,26.8638],[86.2274,26.8807],[86.187,26.8947],[86.1559,26.919],[86.1575,26.93],[86.221,26.8885],[86.2242,26.9038],[86.2418,26.9055],[86.2462,26.9151],[86.2565,26.9118],[86.2597,26.9191]]]}},{"type":"Feature","properties":{"name":"Bagmati","province":"Bagmati"},"geometry":{"type":"Polygon","coordinates":[[[86.5156,27.9566],[86.4977,27.9572],[86.4694,27.9462],[86.4699,27.93],[86.4425,27.9057],[86.4108,27.9066],[86.3813,27.9379],[86.3479,27.9376],[86.3376,27.9495],[86.3353,27.9651],[86.3188,27.9479],[86.3041,27.9556],[86.2888,27.9784],[86.2332,27.9742],[86.2201,28.0101],[86.2248,28.0331],[86.2176,28.0403],[86.2042,28.084],[86.2077,28.0943],[86.2225,28.0958],[86.2198,28.1117],[86.1972,28.1383],[86.1973,28.1564],[86.1867,28.1742],[86.1739,28.1683],[86.1781,28.1436],[86.142,28.1261],[86.1405,28.1178],[86.1324,28.1166],[86.1302,28.1001],[86.1179,28.0914],[86.0921,28.0978],[86.0828,28.0909],[86.0949,28.0619],[86.0875,28.0494],[86.0905,28.0332],[86.0794,28.0204],[86.1036,27.9842],[86.1071,27.9559],[86.1237,27.9416],[86.124,27.9276],[86.0665,27.9111],[86.0648,27.8998],[85.9884,27.9177],[85.9483,27.9421],[85.9598,27.9676],[85.9783,27.9879],[85.9771,27.9967],[85.9358,28.0242],[85.9149,28.0494],[85.9009,28.0539],[85.8964,28.0743],[85.9033,28.0892],[85.8981,28.1091],[85.8701,28.1238],[85.872,28.1444],[85.8513,28.1672],[85.8485,28.1842],[85.8289,28.1851],[85.8157,28.2034],[85.8,28.1964],[85.7764,28.2086],[85.7741,28.2181],[85.7489,28.2382],[85.7331,28.2913],[85.7372,28.3193],[85.7275,28.3289],[85.7323,28.3394],[85.7199,28.3595],[85.7243,28.3734],[85.7115,28.3863],[85.6839,28.3825],[85.6862,28.347],[85.6657,28.348],[85.6644,28.3317],[85.6538,28.3175],[85.6607,28.303],[85.6354,28.2739],[85.6087,28.2569],[85.599,28.2793],[85.6006,28.3044],[85.5618,28.3098],[85.5065,28.334],[85.458,28.337],[85.4154,28.3271],[85.412,28.3084],[85.3776,28.2786],[85.3702,28.2858],[85.3483,28.2885],[85.3482,28.3017],[85.3404,28.304],[85.3036,28.2899],[85.2729,28.2878],[85.2705,28.2974],[85.2548,28.2945],[85.2415,28.3178],[85.2025,28.3407],[85.1813,28.3243],[85.1668,28.3316],[85.1208,28.3358],[85.108,28.3466],[85.0805,28.3459],[85.0467,28.3259],[85.0327,28.3028],[85.038,28.2919],[85.0279,28.2624],[85.0017,28.2533],[84.9987,28.2412],[84.9916,28.2447],[84.9647,28.2174],[84.9739,28.1903],[84.9572,28.1555],[84.9569,28.1268],[84.9288,28.1263],[84.9181,28.1034],[84.9004,28.1067],[84.8924,28.1],[84.8694,28.1205],[84.8547,28.1227],[84.8437,28.1163],[84.8184,28.0477],[84.8095,28.038],[84.8113,28.0029],[84.7902,27.998],[84.7841,27.9833],[84.7716,27.9774],[84.7747,27.9714],[84.7459,27.9601],[84.732,27.9258],[84.7358,27.8929],[84.7492,27.8861],[84.746,27.8802],[84.756,27.8618],[84.7651,27.8593],[84.7676,27.8438],[84.776,27.8353],[84.7737,27.8242],[84.782,27.8135],[84.7731,27.8087],[84.7626,27.8182],[84.7538,27.8065],[84.7388,27.8041],[84.7308,27.7956],[84.7187,27.8038],[84.7112,27.8005],[84.7074,27.8067],[84.6851,27.8103],[84.6612,27.8289],[84.66,27.85],[84.6473,27.8534],[84.649,27.8597],[84.6355,27.8604],[84.6209,27.8805],[84.6086,27.8716],[84.5907,27.8798],[84.5805,27.8744],[84.5763,27.8636],[84.5588,27.858],[84.5552,27.8358],[84.522,27.8323],[84.5171,27.8162],[84.4451,27.8229],[84.4323,27.8127],[84.4313,27.7869],[84.4393,27.7785],[84.4606,27.7737],[84.472,27.7541],[84.4506,27.7594],[84.4371,27.7428],[84.422,27.7413],[84.43,27.7051],[84.3789,27.6813],[84.3601,27.6983],[84.3437,27.7023],[84.2579,27.6511],[84.2503,27.6542],[84.2067,27.6388],[84.1353,27.5846],[84.1147,27.5533],[84.0747,27.5596],[84.0644,27.5514],[84.0506,27.5565],[84.0312,27.5373],[83.9704,27.5506],[83.9485,27.5402],[83.9245,27.5446],[83.9188,27.5331],[83.9256,27.5148],[83.9419,27.5158],[83.953,27.5276],[83.9695,27.5154],[83.9635,27.5039],[83.9388,27.4916],[83.9446,27.4658],[83.9312,27.4496],[83.946,27.4412],[83.9661,27.4467],[83.9776,27.4394],[83.9962,27.4462],[83.9981,27.4407],[84.0272,27.4337],[84.0317,27.4417],[84.0521,27.4428],[84.0708,27.4818],[84.0955,27.4897],[84.0979,27.5173],[84.1087,27.5218],[84.1242,27.5111],[84.1458,27.5189],[84.1511,27.5165],[84.1444,27.497],[84.1489,27.486],[84.1911,27.4693],[84.2058,27.4697],[84.2086,27.4427],[84.2196,27.4405],[84.2317,27.4564],[84.2543,27.4521],[84.2782,27.4157],[84.2764,27.3957],[84.2825,27.3966],[84.2919,27.385],[84.3006,27.3905],[84.3326,27.3775],[84.3729,27.3767],[84.3918,27.3682],[84.4412,27.3703],[84.4696,27.3552],[84.476,27.3625],[84.4859,27.3586],[84.4878,27.3714],[84.5041,27.3812],[84.5397,27.3859],[84.5347,27.4018],[84.5462,27.4082],[84.5325,27.4144],[84.5484,27.418],[84.5617,27.463],[84.5759,27.454],[84.6283,27.4509],[84.643,27.4429],[84.6477,27.4291],[84.7189,27.4313],[84.7261,27.4447],[84.7553,27.4357],[84.7909,27.4378],[84.8092,27.4245],[84.8101,27.416],[84.8253,27.4196],[84.8404,27.4148],[84.8519,27.3986],[84.8767,27.3977],[84.8819,27.3881],[84.8967,27.3855],[84.9008,27.375],[84.9085,27.3773],[84.9262,27.3642],[84.9409,27.3658],[84.945,27.3602],[84.9518,27.367],[84.9568,27.3592],[84.9642,27.3637],[84.9719,27.3551],[84.9989,27.3656],[85.004,27.3529],[85.0215,27.3521],[85.0246,27.3587],[85.0562,27.3657],[85.0615,27.3605],[85.0866,27.3611],[85.1039,27.3202],[85.1168,27.3179],[85.1266,27.2926],[85.1448,27.283],[85.1453,27.273],[85.156,27.2621],[85.181,27.2546],[85.1791,27.2485],[85.1929,27.2451],[85.2025,27.2503],[85.2318,27.2434],[85.2425,27.2488],[85.2515,27.245],[85.2619,27.2267],[85.3074,27.2318],[85.3376,27.2198],[85.3487,27.2222],[85.3597,27.2108],[85.3935,27.2104],[85.3973,27.1977],[85.4481,27.1868],[85.4529,27.1684],[85.4723,27.1619],[85.5009,27.1758],[85.504,27.1635],[85.4931,27.1622],[85.4895,27.1546],[85.501,27.1436],[85.5281,27.1404],[85.5367,27.1489],[85.5468,27.1406],[85.5536,27.1468],[85.5689,27.1435],[85.5711,27.1371],[85.5807,27.144],[85.6298,27.1374],[85.6817,27.1694],[85.6949,27.1841],[85.7169,27.1878],[85.7237,27.1952],[85.7694,27.1822],[85.809,27.1617],[85.8307,27.1672],[85.8436,27.1599],[85.8357,27.1471],[85.8625,27.1272],[85.883,27.1464],[85.9381,27.1214],[85.9359,27.1102],[85.9441,27.0921],[85.962,27.0799],[85.9709,27.051],[85.9917,27.0248],[86.0123,27.0187],[86.1064,27.0152],[86.1876,26.9825],[86.1873,26.9775],[86.2554,26.9325],[86.2597,26.9191],[86.2784,26.9347],[86.2835,26.9492],[86.315,26.9635],[86.353,26.9646],[86.3652,26.98],[86.374,27.0233],[86.3826,27.0315],[86.367,27.0376],[86.3633,27.0541],[86.3461,27.0661],[86.3552,27.0753],[86.3626,27.0996],[86.3412,27.1065],[86.3231,27.0991],[86.3064,27.1089],[86.3262,27.111],[86.343,27.1473],[86.3679,27.1406],[86.3899,27.1799],[86.379,27.1933],[86.3436,27.2029],[86.341,27.229],[86.2949,27.2384],[86.2667,27.2537],[86.2663,27.2611],[86.2301,27.2374],[86.2036,27.2503],[86.2138,27.2689],[86.2406,27.2888],[86.2372,27.3061],[86.2157,27.3336],[86.2247,27.3706],[86.222,27.3821],[86.2637,27.4562],[86.2921,27.4704],[86.3383,27.5201],[86.3549,27.5249],[86.3766,27.5684],[86.4135,27.5868],[86.4348,27.6103],[86.4697,27.6171],[86.4925,27.6137],[86.5072,27.6406],[86.5262,27.6504],[86.5271,27.6602],[86.538,27.6703],[86.5403,27.7016],[86.551,27.7109],[86.5629,27.7493],[86.5728,27.7546],[86.564,27.7696],[86.5671,27.804],[86.5404,27.8149],[86.5541,27.8571],[86.5544,27.9089],[86.5478,27.9305],[86.5337,27.9421],[86.5222,27.94],[86.5156,27.9566]]]}},{"type":"Feature","properties":{"name":"Gandaki","province":"Gandaki"},"geometry":{"type":"Polygon","coordinates":[[[85.108,28.3466],[85.1266,28.3924],[85.1158,28.4089],[85.1143,28.4432],[85.1028,28.4479],[85.0995,28.4569],[85.1185,28.4856],[85.1529,28.4906],[85.1661,28.5321],[85.1869,28.5343],[85.1847,28.5614],[85.1916,28.5691],[85.1737,28.5975],[85.189,28.605],[85.1973,28.6209],[85.1977,28.6272],[85.1848,28.6323],[85.1884,28.6413],[85.1572,28.643],[85.1324,28.676],[85.1149,28.6868],[85.0839,28.671],[85.0586,28.6825],[85.052,28.6701],[85.0412,28.6685],[85.0403,28.658],[85.0089,28.6371],[84.9888,28.6129],[84.9861,28.6052],[84.9928,28.5999],[84.9834,28.5914],[84.9489,28.5802],[84.9449,28.5949],[84.9197,28.5953],[84.907,28.5882],[84.901,28.5933],[84.8861,28.5827],[84.8671,28.5817],[84.8571,28.5706],[84.7807,28.6095],[84.7368,28.6169],[84.7138,28.633],[84.6948,28.6365],[84.705,28.6711],[84.6683,28.6835],[84.6665,28.6943],[84.6506,28.7025],[84.6436,28.7253],[84.6263,28.7365],[84.5717,28.7352],[84.5567,28.7522],[84.5249,28.7422],[84.5147,28.7486],[84.4919,28.7348],[84.4803,28.7472],[84.4604,28.7514],[84.4519,28.7648],[84.4365,28.7695],[84.446,28.7833],[84.4453,28.7934],[84.4321,28.8015],[84.4296,28.8134],[84.4353,28.8209],[84.4189,28.8316],[84.4006,28.8303],[84.409,28.8536],[84.3753,28.8645],[84.357,28.8594],[84.3431,28.873],[84.3236,28.8627],[84.2878,28.877],[84.2656,28.8978],[84.2538,28.8903],[84.2258,28.8943],[84.2205,28.9157],[84.2315,28.9597],[84.2418,28.9762],[84.2383,28.9877],[84.2479,29.0127],[84.2479,29.0373],[84.2216,29.0535],[84.1897,29.047],[84.1861,29.0808],[84.2017,29.1038],[84.201,29.124],[84.1748,29.1309],[84.1623,29.1853],[84.1775,29.2068],[84.1883,29.2058],[84.1997,29.214],[84.201,29.2401],[84.1918,29.2442],[84.1794,29.2378],[84.1574,29.2418],[84.1412,29.2362],[84.1163,29.2442],[84.1124,29.2631],[84.1217,29.2704],[84.1202,29.2797],[84.0878,29.2946],[84.0688,29.2853],[84.0439,29.3009],[84.0264,29.2857],[84.0158,29.289],[83.9878,29.3005],[84.001,29.312],[83.9922,29.3202],[83.9627,29.3314],[83.9485,29.3171],[83.9048,29.3258],[83.898,29.3189],[83.8567,29.3099],[83.8481,29.2976],[83.8126,29.302],[83.8079,29.2859],[83.7945,29.2775],[83.8023,29.2564],[83.7973,29.2501],[83.7711,29.2469],[83.7621,29.24],[83.7113,29.2446],[83.6842,29.2132],[83.6559,29.204],[83.6636,29.1841],[83.6574,29.1762],[83.6661,29.1698],[83.6633,29.1558],[83.676,29.1486],[83.6804,29.1235],[83.6603,29.1245],[83.6515,29.1191],[83.6499,29.1045],[83.6289,29.1069],[83.6156,29.0984],[83.6307,29.0811],[83.6315,29.065],[83.6196,29.0598],[83.6126,29.036],[83.615,28.9878],[83.6093,28.9803],[83.5921,28.9837],[83.5801,28.9562],[83.567,28.9434],[83.5587,28.9449],[83.5462,28.9219],[83.4995,28.8773],[83.506,28.8652],[83.5018,28.8462],[83.4817,28.8447],[83.4803,28.8378],[83.4801,28.8172],[83.488,28.8021],[83.4835,28.7829],[83.4104,28.7607],[83.3885,28.7631],[83.362,28.7342],[83.3256,28.738],[83.2769,28.722],[83.2293,28.7429],[83.21,28.732],[83.1865,28.7436],[83.1454,28.7472],[83.1427,28.7339],[83.1526,28.7012],[83.1436,28.6937],[83.1465,28.6818],[83.1391,28.6754],[83.1189,28.6733],[83.125,28.664],[83.1159,28.6315],[83.0964,28.6352],[83.0575,28.6201],[83.0428,28.63],[83.0191,28.6217],[82.977,28.629],[82.9565,28.6105],[82.9526,28.5981],[82.9623,28.5819],[82.9855,28.5709],[82.9738,28.5423],[82.9238,28.5676],[82.9164,28.5646],[82.9141,28.5276],[82.8946,28.5155],[82.8774,28.5154],[82.9121,28.4794],[82.904,28.4755],[82.8868,28.4797],[82.8787,28.4734],[82.8861,28.4529],[82.9142,28.4344],[82.9162,28.4027],[82.9436,28.3985],[82.9547,28.3602],[82.9801,28.3594],[82.994,28.351],[83.0042,28.3327],[83.0333,28.3218],[83.0448,28.3246],[83.0669,28.3134],[83.0694,28.3019],[83.0971,28.2772],[83.0936,28.257],[83.1096,28.2518],[83.1244,28.2578],[83.1308,28.2502],[83.1555,28.2709],[83.1678,28.258],[83.1848,28.2707],[83.2154,28.2485],[83.2338,28.2219],[83.2518,28.2142],[83.2737,28.1876],[83.3063,28.1979],[83.3302,28.1891],[83.3555,28.1975],[83.3842,28.1638],[83.3901,28.1674],[83.4233,28.1252],[83.4737,28.1323],[83.4783,28.1302],[83.4741,28.119],[83.4858,28.1134],[83.5104,28.127],[83.532,28.1166],[83.5543,28.1172],[83.5552,28.1066],[83.565,28.1008],[83.5626,28.0928],[83.5752,28.0876],[83.5807,28.0776],[83.561,28.0644],[83.5616,28.0358],[83.5784,28.034],[83.5964,28.0207],[83.6049,28.0121],[83.6033,27.9973],[83.5841,27.9875],[83.5852,27.9789],[83.5776,27.9744],[83.55,27.9768],[83.531,27.9648],[83.5112,27.9675],[83.4829,27.9817],[83.4616,27.9539],[83.4435,27.9449],[83.4403,27.9328],[83.4489,27.9285],[83.4605,27.9344],[83.4839,27.9227],[83.4905,27.9292],[83.5059,27.9286],[83.5098,27.933],[83.5029,27.9372],[83.5087,27.9408],[83.5241,27.9242],[83.531,27.9392],[83.5379,27.9281],[83.5485,27.9281],[83.5656,27.9347],[83.571,27.9431],[83.5746,27.9303],[83.593,27.9312],[83.6007,27.9234],[83.6164,27.9306],[83.6262,27.9261],[83.621,27.9177],[83.6335,27.9142],[83.6343,27.8994],[83.655,27.9025],[83.6763,27.9275],[83.6831,27.9164],[83.6894,27.9239],[83.6983,27.917],[83.7191,27.9202],[83.743,27.9001],[83.7475,27.9014],[83.7447,27.908],[83.7571,27.9031],[83.7562,27.9092],[83.7623,27.91],[83.8072,27.8733],[83.8209,27.8778],[83.8455,27.8685],[83.8452,27.8817],[83.8584,27.8736],[83.8611,27.8824],[83.8776,27.8884],[83.881,27.8824],[83.8924,27.8862],[83.9101,27.8803],[83.9107,27.8727],[83.9248,27.8683],[83.9392,27.8781],[83.9485,27.8695],[83.9715,27.8727],[83.9785,27.8661],[83.9943,27.8663],[84.0004,27.8547],[84.0213,27.8513],[84.0154,27.8582],[84.0201,27.862],[84.0285,27.8565],[84.0203,27.8409],[84.0268,27.8206],[84.0004,27.7887],[83.99,27.7493],[83.9505,27.7475],[83.9242,27.7269],[83.9045,27.7357],[83.8965,27.7301],[83.845,27.7351],[83.8463,27.7095],[83.8204,27.7107],[83.7823,27.7251],[83.7511,27.721],[83.7286,27.7092],[83.6771,27.7186],[83.6828,27.7182],[83.6898,27.6982],[83.7046,27.6829],[83.6954,27.6615],[83.7081,27.6592],[83.7252,27.6725],[83.7583,27.6675],[83.7628,27.6612],[83.7832,27.6671],[83.8119,27.6624],[83.8065,27.6476],[83.8099,27.6355],[83.801,27.6296],[83.8052,27.6209],[83.7973,27.6203],[83.7997,27.612],[83.7899,27.6064],[83.8094,27.5955],[83.8081,27.5888],[83.8215,27.5927],[83.8362,27.5858],[83.8415,27.5727],[83.8316,27.5657],[83.8361,27.5451],[83.8472,27.5604],[83.8824,27.5279],[83.8758,27.5105],[83.8977,27.4988],[83.8747,27.4894],[83.8851,27.4812],[83.8877,27.4466],[83.8956,27.4378],[83.9354,27.451],[83.9446,27.4658],[83.9388,27.4916],[83.9681,27.5083],[83.9649,27.5233],[83.953,27.5276],[83.9419,27.5158],[83.9256,27.5148],[83.9188,27.5331],[83.9245,27.5446],[83.9485,27.5402],[83.9704,27.5506],[84.0312,27.5373],[84.0506,27.5565],[84.0644,27.5514],[84.0747,27.5596],[84.1147,27.5533],[84.1353,27.5846],[84.2067,27.6388],[84.2503,27.6542],[84.2579,27.6511],[84.3437,27.7023],[84.3601,27.6983],[84.3789,27.6813],[84.43,27.7051],[84.422,27.7413],[84.4371,27.7428],[84.4506,27.7594],[84.472,27.7541],[84.4606,27.7737],[84.4393,27.7785],[84.4313,27.7869],[84.4323,27.8127],[84.4451,27.8229],[84.5171,27.8162],[84.522,27.8323],[84.5552,27.8358],[84.5588,27.858],[84.5763,27.8636],[84.5805,27.8744],[84.5907,27.8798],[84.6086,27.8716],[84.6209,27.8805],[84.6355,27.8604],[84.649,27.8597],[84.6473,27.8534],[84.66,27.85],[84.6612,27.8289],[84.6851,27.8103],[84.7074,27.8067],[84.7112,27.8005],[84.7187,27.8038],[84.7308,27.7956],[84.7388,27.8041],[84.7538,27.8065],[84.7626,27.8182],[84.7731,27.8087],[84.782,27.8135],[84.7737,27.8242],[84.776,27.8353],[84.7676,27.8438],[84.7651,27.8593],[84.756,27.8618],[84.746,27.8802],[84.7492,27.8861],[84.7358,27.8929],[84.732,27.9258],[84.7459,27.9601],[84.7747,27.9714],[84.7716,27.9774],[84.7841,27.9833],[84.7902,27.998],[84.8113,28.0029],[84.8095,28.038],[84.8184,28.0477],[84.8437,28.1163],[84.8547,28.1227],[84.8694,28.1205],[84.8924,28.1],[84.9004,28.1067],[84.9181,28.1034],[84.9288,28.1263],[84.9569,28.1268],[84.9572,28.1555],[84.9739,28.1903],[84.9647,28.2174],[84.9916,28.2447],[84.9987,28.2412],[85.0017,28.2533],[85.0279,28.2624],[85.038,28.2919],[85.0327,28.3028],[85.0467,28.3259],[85.0805,28.3459],[85.108,28.3466]]]}},{"type":"Feature","properties":{"name":"Lumbini","province":"Lumbini"},"geometry":{"type":"Polygon","coordinates":[[[83.1454,28.7472],[83.1137,28.7436],[83.0793,28.7862],[83.0684,28.78],[83.0361,28.7928],[83.0224,28.7908],[82.9974,28.8039],[82.9809,28.8008],[82.9659,28.8204],[82.9472,28.829],[82.9049,28.8324],[82.8961,28.8247],[82.8676,28.8343],[82.8438,28.8265],[82.8171,28.8313],[82.7994,28.8207],[82.7818,28.8243],[82.7658,28.8086],[82.7418,28.8459],[82.7121,28.8516],[82.6957,28.8647],[82.6694,28.8524],[82.6561,28.8667],[82.6442,28.8672],[82.6137,28.8266],[82.6197,28.8091],[82.5619,28.7678],[82.566,28.7439],[82.6014,28.7429],[82.6053,28.7157],[82.6153,28.7101],[82.6159,28.6898],[82.6007,28.6849],[82.5989,28.6691],[82.5789,28.6647],[82.5547,28.6441],[82.5014,28.6678],[82.4899,28.6593],[82.4858,28.6406],[82.5084,28.6278],[82.5399,28.6208],[82.548,28.6271],[82.5458,28.6185],[82.5612,28.6101],[82.5794,28.6138],[82.5806,28.5862],[82.5682,28.5779],[82.5534,28.5817],[82.5213,28.554],[82.4923,28.5527],[82.493,28.5401],[82.463,28.5213],[82.4182,28.5288],[82.4075,28.5037],[82.4117,28.4927],[82.4056,28.4782],[82.3956,28.4605],[82.3738,28.4483],[82.3766,28.4304],[82.3504,28.4219],[82.3532,28.4105],[82.3656,28.4032],[82.3636,28.3883],[82.3836,28.3728],[82.3761,28.3585],[82.3793,28.3518],[82.3632,28.3409],[82.3674,28.33],[82.3635,28.3196],[82.3761,28.3152],[82.3763,28.3047],[82.3953,28.283],[82.4036,28.2622],[82.4373,28.2467],[82.4269,28.239],[82.4276,28.2301],[82.4068,28.2207],[82.3965,28.1692],[82.3928,28.1893],[82.3781,28.1846],[82.3671,28.1899],[82.3376,28.2236],[82.3124,28.2234],[82.3102,28.2317],[82.3023,28.2327],[82.3004,28.246],[82.2755,28.2485],[82.244,28.2379],[82.2178,28.2497],[82.1987,28.243],[82.1695,28.2516],[82.1608,28.2418],[82.1438,28.2372],[82.1328,28.2516],[82.1008,28.259],[82.0687,28.2371],[82.0543,28.2421],[82.0422,28.2302],[82.0231,28.2013],[82.0292,28.1877],[82.0182,28.1819],[82.0076,28.1511],[81.9779,28.1829],[81.9653,28.1845],[81.9627,28.1944],[81.952,28.1941],[81.9267,28.2095],[81.9216,28.2269],[81.8965,28.2333],[81.8829,28.2435],[81.8609,28.2387],[81.8647,28.2498],[81.8436,28.272],[81.8085,28.283],[81.7937,28.2739],[81.7872,28.2947],[81.7451,28.3133],[81.7517,28.3437],[81.7667,28.3702],[81.7166,28.3841],[81.6743,28.4176],[81.6585,28.4155],[81.5573,28.495],[81.5388,28.4947],[81.5361,28.5041],[81.5162,28.5136],[81.5061,28.5283],[81.4761,28.5398],[81.4655,28.5538],[81.4532,28.5523],[81.438,28.5596],[81.4307,28.5774],[81.4218,28.5814],[81.4246,28.5878],[81.401,28.6069],[81.3164,28.6368],[81.3102,28.6511],[81.3218,28.6635],[81.3074,28.673],[81.2853,28.6733],[81.2877,28.6486],[81.2489,28.5945],[81.1681,28.5242],[81.1602,28.5015],[81.1473,28.4982],[81.109,28.4615],[81.0906,28.457],[81.0859,28.4384],[81.0686,28.4259],[81.0594,28.4075],[81.0799,28.385],[81.2135,28.3583],[81.2346,28.3247],[81.2328,28.289],[81.3206,28.1973],[81.3213,28.1689],[81.3019,28.1661],[81.3107,28.1556],[81.3202,28.1603],[81.328,28.1483],[81.3184,28.1453],[81.3181,28.1336],[81.3714,28.1425],[81.3784,28.1556],[81.367,28.1654],[81.3748,28.177],[81.4149,28.1743],[81.4448,28.162],[81.45,28.1409],[81.4841,28.1183],[81.4785,28.0826],[81.6171,28.0105],[81.6244,28.0015],[81.6435,27.9939],[81.6984,27.9883],[81.805,27.9034],[81.8328,27.8981],[81.8856,27.8571],[81.9013,27.8537],[81.9262,27.8598],[81.9255,27.8759],[81.9683,27.929],[82.071,27.9227],[82.1234,27.8651],[82.1501,27.858],[82.1541,27.8663],[82.2083,27.8432],[82.2306,27.8208],[82.304,27.7727],[82.3672,27.7427],[82.4017,27.7029],[82.4488,27.6788],[82.4733,27.6765],[82.5163,27.6905],[82.5412,27.6858],[82.5937,27.697],[82.6051,27.706],[82.6189,27.7023],[82.6279,27.7116],[82.6553,27.7133],[82.6643,27.7221],[82.6666,27.7157],[82.6807,27.7138],[82.6993,27.722],[82.7052,27.7166],[82.7081,27.7219],[82.7059,27.7029],[82.7183,27.6875],[82.7118,27.6651],[82.7256,27.6585],[82.7282,27.6456],[82.7363,27.6432],[82.7367,27.6262],[82.7308,27.6241],[82.7367,27.6218],[82.735,27.6097],[82.7559,27.5878],[82.7478,27.572],[82.7514,27.5653],[82.7436,27.561],[82.7472,27.5551],[82.7382,27.5521],[82.7495,27.5229],[82.7368,27.5181],[82.7358,27.5026],[82.802,27.4966],[82.8325,27.5021],[82.9295,27.5012],[82.9543,27.468],[83.0342,27.4489],[83.1645,27.4577],[83.1879,27.4545],[83.2177,27.4174],[83.2723,27.3837],[83.2657,27.3656],[83.2728,27.3527],[83.3048,27.3315],[83.3176,27.3302],[83.318,27.3374],[83.3376,27.3329],[83.3593,27.3433],[83.358,27.3508],[83.3738,27.3574],[83.3748,27.37],[83.3882,27.376],[83.3849,27.3904],[83.4097,27.4127],[83.3843,27.4363],[83.384,27.4424],[83.3961,27.4467],[83.402,27.4577],[83.4026,27.4664],[83.3887,27.4708],[83.3889,27.4797],[83.6148,27.4696],[83.83,27.3704],[83.8628,27.3467],[83.8878,27.3584],[83.9062,27.382],[83.9053,27.3898],[83.8727,27.3928],[83.8756,27.406],[83.8675,27.4276],[83.8956,27.4378],[83.8877,27.4466],[83.8851,27.4812],[83.8747,27.4894],[83.8977,27.4988],[83.8758,27.5105],[83.8824,27.5279],[83.8553,27.5486],[83.8507,27.5591],[83.8416,27.5563],[83.8361,27.5451],[83.8316,27.5657],[83.8415,27.5727],[83.8362,27.5858],[83.8215,27.5927],[83.8081,27.5888],[83.8094,27.5955],[83.7899,27.6064],[83.7997,27.612],[83.7973,27.6203],[83.8052,27.6209],[83.801,27.6296],[83.8099,27.6355],[83.8065,27.6476],[83.8119,27.6624],[83.7832,27.6671],[83.7628,27.6612],[83.7583,27.6675],[83.7252,27.6725],[83.7081,27.6592],[83.6954,27.6615],[83.7046,27.6829],[83.6898,27.6982],[83.6828,27.7182],[83.6771,27.7186],[83.7286,27.7092],[83.7511,27.721],[83.7823,27.7251],[83.8204,27.7107],[83.8463,27.7095],[83.845,27.7351],[83.8965,27.7301],[83.9045,27.7357],[83.9242,27.7269],[83.9505,27.7475],[83.99,27.7493],[84.0004,27.7887],[84.0268,27.8206],[84.0203,27.8409],[84.0285,27.8565],[84.0201,27.862],[84.0154,27.8582],[84.0213,27.8513],[84.0004,27.8547],[83.9943,27.8663],[83.9785,27.8661],[83.9715,27.8727],[83.9485,27.8695],[83.9392,27.8781],[83.9248,27.8683],[83.9107,27.8727],[83.9101,27.8803],[83.8924,27.8862],[83.881,27.8824],[83.8776,27.8884],[83.8611,27.8824],[83.8584,27.8736],[83.8452,27.8817],[83.8455,27.8685],[83.8209,27.8778],[83.8072,27.8733],[83.7623,27.91],[83.7562,27.9092],[83.7571,27.9031],[83.7447,27.908],[83.7475,27.9014],[83.743,27.9001],[83.7191,27.9202],[83.6983,27.917],[83.6894,27.9239],[83.6831,27.9164],[83.6763,27.9275],[83.655,27.9025],[83.6343,27.8994],[83.6335,27.9142],[83.621,27.9177],[83.6262,27.9261],[83.6164,27.9306],[83.6007,27.9234],[83.593,27.9312],[83.5746,27.9303],[83.571,27.9431],[83.5656,27.9347],[83.5485,27.9281],[83.5379,27.9281],[83.531,27.9392],[83.5241,27.9242],[83.5087,27.9408],[83.5029,27.9372],[83.5098,27.933],[83.5059,27.9286],[83.4905,27.9292],[83.4839,27.9227],[83.4605,27.9344],[83.4489,27.9285],[83.4403,27.9328],[83.4435,27.9449],[83.4616,27.9539],[83.4829,27.9817],[83.5112,27.9675],[83.531,27.9648],[83.55,27.9768],[83.5776,27.9744],[83.5852,27.9789],[83.5841,27.9875],[83.6033,27.9973],[83.6049,28.0121],[83.5964,28.0207],[83.5784,28.034],[83.5616,28.0358],[83.561,28.0644],[83.5807,28.0776],[83.5752,28.0876],[83.5626,28.0928],[83.565,28.1008],[83.5552,28.1066],[83.5543,28.1172],[83.532,28.1166],[83.5104,28.127],[83.4858,28.1134],[83.4741,28.119],[83.4783,28.1302],[83.4737,28.1323],[83.4233,28.1252],[83.3901,28.1674],[83.3842,28.1638],[83.3555,28.1975],[83.3302,28.1891],[83.3063,28.1979],[83.2737,28.1876],[83.2518,28.2142],[83.2338,28.2219],[83.2154,28.2485],[83.1848,28.2707],[83.1678,28.258],[83.1555,28.2709],[83.1308,28.2502],[83.1244,28.2578],[83.1096,28.2518],[83.0936,28.257],[83.0971,28.2772],[83.0694,28.3019],[83.0669,28.3134],[83.0448,28.3246],[83.0333,28.3218],[83.0042,28.3327],[82.994,28.351],[82.9801,28.3594],[82.9547,28.3602],[82.9436,28.3985],[82.9162,28.4027],[82.9142,28.4344],[82.8861,28.4529],[82.8793,28.4764],[82.9121,28.4794],[82.8774,28.5154],[82.8946,28.5155],[82.9141,28.5276],[82.9164,28.5646],[82.9325,28.5658],[82.9738,28.5423],[82.9804,28.5508],[82.9855,28.5709],[82.9623,28.5819],[82.9526,28.5981],[82.9565,28.6105],[82.977,28.629],[83.0191,28.6217],[83.0428,28.63],[83.0575,28.6201],[83.0964,28.6352],[83.1159,28.6315],[83.125,28.664],[83.1189,28.6733],[83.1391,28.6754],[83.1465,28.6818],[83.1436,28.6937],[83.1526,28.7012],[83.1427,28.7339],[83.1454,28.7472]]]}},{"type":"Feature","properties":{"name":"Karnali","province":"Karnali"},"geometry":{"type":"Polygon","coordinates":[[[83.6574,29.1762],[83.6334,29.1585],[83.6102,29.1808],[83.5902,29.1742],[83.5761,29.1802],[83.5693,29.1935],[83.5721,29.2026],[83.5391,29.2027],[83.5197,29.2177],[83.5152,29.2281],[83.5228,29.2383],[83.5148,29.2559],[83.5042,29.2556],[83.4916,29.2649],[83.4935,29.2739],[83.4873,29.2802],[83.4653,29.2746],[83.4384,29.3087],[83.445,29.3403],[83.439,29.3496],[83.4152,29.3591],[83.4118,29.3803],[83.4227,29.3847],[83.4205,29.3975],[83.4262,29.4025],[83.416,29.4104],[83.4143,29.4209],[83.3715,29.4286],[83.3644,29.4398],[83.3662,29.4501],[83.3538,29.4514],[83.3424,29.4659],[83.3477,29.4786],[83.3445,29.4948],[83.3158,29.509],[83.3024,29.4997],[83.2935,29.5044],[83.2821,29.4988],[83.2675,29.5075],[83.2688,29.5222],[83.2559,29.5393],[83.2554,29.5568],[83.274,29.5545],[83.284,29.5629],[83.2612,29.5776],[83.232,29.5779],[83.2156,29.5885],[83.2181,29.6055],[83.196,29.6111],[83.1864,29.6066],[83.1873,29.5965],[83.164,29.5944],[83.1589,29.5973],[83.1645,29.6169],[83.1421,29.6249],[83.1314,29.6179],[83.1204,29.6286],[83.1165,29.6165],[83.0902,29.612],[83.0923,29.6054],[83.0857,29.6028],[83.0694,29.61],[83.0655,29.6261],[83.0434,29.6309],[83.0335,29.6542],[83.0211,29.6507],[83.0086,29.6726],[83.0006,29.6646],[82.985,29.6685],[82.9557,29.6627],[82.941,29.6742],[82.9485,29.6916],[82.9355,29.7055],[82.9268,29.7007],[82.9151,29.7064],[82.9083,29.7004],[82.891,29.7014],[82.8862,29.6928],[82.8607,29.6846],[82.8265,29.6899],[82.815,29.7048],[82.8214,29.7138],[82.8179,29.7212],[82.7976,29.7191],[82.7629,29.7312],[82.7667,29.7425],[82.7522,29.7656],[82.7238,29.7705],[82.6901,29.7632],[82.6865,29.7735],[82.6961,29.7817],[82.6941,29.7912],[82.7103,29.7928],[82.7371,29.8136],[82.7266,29.8353],[82.7106,29.8388],[82.6972,29.8554],[82.6397,29.8339],[82.621,29.8373],[82.6203,29.8451],[82.6317,29.8496],[82.6423,29.8705],[82.6024,29.8891],[82.5848,29.9213],[82.5667,29.9325],[82.5631,29.9552],[82.5494,29.9632],[82.5297,29.9712],[82.5142,29.9522],[82.4993,29.946],[82.4739,29.9653],[82.4762,29.9737],[82.4322,29.989],[82.3955,30.024],[82.3872,30.0205],[82.376,30.0264],[82.3779,30.0112],[82.3727,30.0156],[82.363,30.0104],[82.3595,30.0217],[82.3448,30.0289],[82.3341,30.0469],[82.32,30.0495],[82.3157,30.0403],[82.2985,30.0379],[82.2853,30.0473],[82.2813,30.0612],[82.2655,30.0622],[82.2467,30.0752],[82.2312,30.0649],[82.1885,30.0698],[82.1719,30.0652],[82.1659,30.0814],[82.1771,30.0889],[82.1866,30.1109],[82.1708,30.122],[82.1988,30.1363],[82.2055,30.1539],[82.1821,30.1609],[82.1845,30.1908],[82.1588,30.1893],[82.1391,30.1989],[82.1273,30.2258],[82.1094,30.226],[82.0984,30.2393],[82.1074,30.2551],[82.1184,30.2595],[82.1094,30.2772],[82.1164,30.2942],[82.1283,30.3023],[82.1047,30.3496],[82.0766,30.3593],[82.0673,30.3567],[82.056,30.3326],[82.0163,30.3442],[82.0112,30.3418],[82.0122,30.3292],[81.9886,30.3208],[81.9567,30.3412],[81.9622,30.3508],[81.9493,30.3589],[81.9395,30.3476],[81.9145,30.35],[81.8822,30.3608],[81.8677,30.3773],[81.8264,30.3751],[81.809,30.3873],[81.7511,30.3888],[81.7317,30.3983],[81.7268,30.4113],[81.6202,30.4473],[81.622,30.4244],[81.6068,30.4122],[81.5608,30.428],[81.5595,30.4074],[81.5508,30.4027],[81.5518,30.3698],[81.4895,30.3813],[81.445,30.4159],[81.4386,30.4187],[81.434,30.4128],[81.4277,30.4219],[81.4083,30.4213],[81.4007,30.3962],[81.4293,30.3834],[81.4201,30.3706],[81.3953,30.3679],[81.4061,30.3532],[81.4058,30.3366],[81.3964,30.3234],[81.4147,30.3164],[81.4233,30.3051],[81.4019,30.2931],[81.3996,30.2816],[81.4166,30.2817],[81.4084,30.2611],[81.392,30.2505],[81.3965,30.209],[81.3506,30.178],[81.3321,30.1532],[81.3168,30.152],[81.3049,30.1643],[81.3036,30.1593],[81.2581,30.1513],[81.2563,30.1465],[81.2905,30.1125],[81.2852,30.1051],[81.2896,30.0743],[81.2746,30.0591],[81.272,30.0453],[81.291,30.035],[81.3146,30.0327],[81.3187,30.0256],[81.3571,30.0106],[81.382,30.0072],[81.4013,30.0228],[81.4632,29.9952],[81.4607,29.9857],[81.4701,29.9751],[81.4687,29.9637],[81.4529,29.949],[81.4627,29.921],[81.4564,29.9012],[81.4707,29.8898],[81.4927,29.8872],[81.504,29.8929],[81.5169,29.9043],[81.512,29.9162],[81.5169,29.9228],[81.5349,29.9276],[81.5494,29.9232],[81.5849,29.9369],[81.6026,29.9302],[81.6129,29.9432],[81.6266,29.9384],[81.6456,29.9482],[81.6651,29.9403],[81.6878,29.9491],[81.6979,29.9415],[81.6975,29.9315],[81.7097,29.9269],[81.716,29.9094],[81.78,29.9111],[81.7989,29.902],[81.7936,29.8955],[81.7942,29.8488],[81.7808,29.8393],[81.7804,29.8071],[81.7737,29.7982],[81.7645,29.8018],[81.7396,29.7922],[81.7302,29.7692],[81.727,29.7341],[81.714,29.7223],[81.6971,29.6783],[81.7036,29.6454],[81.6994,29.6421],[81.7104,29.6263],[81.7385,29.6062],[81.7738,29.6058],[81.7905,29.5958],[81.7986,29.576],[81.7929,29.5306],[81.7773,29.5174],[81.7806,29.5092],[81.7625,29.5054],[81.788,29.5],[81.8039,29.4752],[81.8082,29.4564],[81.7979,29.4071],[81.7893,29.389],[81.7688,29.3923],[81.7611,29.3866],[81.7497,29.3666],[81.7523,29.3518],[81.7403,29.3343],[81.7032,29.3306],[81.6909,29.3206],[81.6685,29.3171],[81.6477,29.3215],[81.6419,29.3345],[81.6431,29.3562],[81.6137,29.3708],[81.5763,29.3629],[81.567,29.3479],[81.5585,29.3579],[81.5239,29.3151],[81.508,29.3146],[81.4839,29.2796],[81.4681,29.2719],[81.4912,29.2617],[81.4996,29.2389],[81.487,29.227],[81.4821,29.2006],[81.4908,29.185],[81.4873,29.173],[81.4953,29.1689],[81.4991,29.1518],[81.5247,29.1528],[81.5353,29.1369],[81.5656,29.1262],[81.5235,29.1043],[81.5099,29.0907],[81.4694,29.0781],[81.4668,29.0671],[81.4441,29.0538],[81.4397,29.0403],[81.4178,29.0214],[81.419,29.0043],[81.4101,28.997],[81.4251,28.9803],[81.424,28.9664],[81.4328,28.9571],[81.444,28.9585],[81.4446,28.9404],[81.4665,28.9289],[81.4917,28.8942],[81.509,28.8898],[81.5319,28.8561],[81.5569,28.7976],[81.5799,28.7801],[81.5813,28.7592],[81.5539,28.7501],[81.5205,28.7491],[81.5351,28.7613],[81.5278,28.7746],[81.5155,28.7805],[81.5224,28.8033],[81.4982,28.8213],[81.4905,28.841],[81.4633,28.8528],[81.4649,28.8937],[81.4406,28.9004],[81.4318,28.9107],[81.4142,28.9142],[81.3944,28.9085],[81.3748,28.893],[81.3552,28.8898],[81.3423,28.8927],[81.3366,28.907],[81.3242,28.9081],[81.3163,28.9202],[81.3021,28.9258],[81.2835,28.9216],[81.2661,28.9027],[81.2457,28.9152],[81.2366,28.906],[81.2042,28.9081],[81.1945,28.9162],[81.1688,28.9215],[81.1192,28.9635],[81.065,28.9703],[81.0499,28.9783],[81.0208,28.9529],[81.0033,28.9572],[80.9811,28.9388],[81.0212,28.9199],[81.0515,28.8769],[81.0723,28.8768],[81.0729,28.8649],[81.0892,28.8629],[81.1024,28.8448],[81.126,28.8517],[81.1291,28.8652],[81.1434,28.8731],[81.1577,28.8444],[81.153,28.8304],[81.1741,28.835],[81.1818,28.8251],[81.2034,28.8168],[81.2067,28.8253],[81.1952,28.8331],[81.199,28.8612],[81.2065,28.8621],[81.2062,28.8504],[81.232,28.8319],[81.2299,28.8168],[81.2421,28.8109],[81.2259,28.7952],[81.2478,28.7797],[81.2472,28.7609],[81.2611,28.7459],[81.2561,28.73],[81.2725,28.7271],[81.2665,28.7042],[81.2812,28.6951],[81.2853,28.6733],[81.3199,28.6687],[81.3163,28.6524],[81.3102,28.6511],[81.3164,28.6368],[81.401,28.6069],[81.4246,28.5878],[81.4218,28.5814],[81.4307,28.5774],[81.438,28.5596],[81.4532,28.5523],[81.4655,28.5538],[81.4761,28.5398],[81.5061,28.5283],[81.5162,28.5136],[81.5361,28.5041],[81.5388,28.4947],[81.5573,28.495],[81.6585,28.4155],[81.6743,28.4176],[81.7166,28.3841],[81.7667,28.3702],[81.7517,28.3437],[81.7451,28.3133],[81.7872,28.2947],[81.7937,28.2739],[81.8085,28.283],[81.8436,28.272],[81.8647,28.2498],[81.8609,28.2387],[81.8829,28.2435],[81.8965,28.2333],[81.9216,28.2269],[81.9267,28.2095],[81.952,28.1941],[81.9627,28.1944],[81.9653,28.1845],[81.9779,28.1829],[82.0076,28.1511],[82.0182,28.1819],[82.0292,28.1877],[82.0231,28.2013],[82.0422,28.2302],[82.0543,28.2421],[82.0687,28.2371],[82.1008,28.259],[82.1328,28.2516],[82.1438,28.2372],[82.1608,28.2418],[82.1695,28.2516],[82.1987,28.243],[82.2178,28.2497],[82.244,28.2379],[82.2755,28.2485],[82.3004,28.246],[82.3023,28.2327],[82.3102,28.2317],[82.3124,28.2234],[82.3376,28.2236],[82.3671,28.1899],[82.3781,28.1846],[82.3928,28.1893],[82.3965,28.1692],[82.4068,28.2207],[82.4276,28.2301],[82.4269,28.239],[82.4373,28.2467],[82.4036,28.2622],[82.3953,28.283],[82.3763,28.3047],[82.3761,28.3152],[82.3635,28.3196],[82.3674,28.33],[82.3632,28.3409],[82.3793,28.3518],[82.3761,28.3585],[82.3836,28.3728],[82.3636,28.3883],[82.3656,28.4032],[82.3532,28.4105],[82.3504,28.4219],[82.3766,28.4304],[82.3738,28.4483],[82.3956,28.4605],[82.4056,28.4782],[82.4117,28.4927],[82.4075,28.5037],[82.4182,28.5288],[82.463,28.5213],[82.493,28.5401],[82.4923,28.5527],[82.5213,28.554],[82.5534,28.5817],[82.5682,28.5779],[82.5806,28.5862],[82.5794,28.6138],[82.5612,28.6101],[82.5458,28.6185],[82.548,28.6271],[82.5399,28.6208],[82.5084,28.6278],[82.4858,28.6406],[82.4899,28.6593],[82.5014,28.6678],[82.5547,28.6441],[82.5789,28.6647],[82.5989,28.6691],[82.6007,28.6849],[82.6159,28.6898],[82.6153,28.7101],[82.6053,28.7157],[82.6014,28.7429],[82.566,28.7439],[82.5619,28.7678],[82.6197,28.8091],[82.6137,28.8266],[82.6442,28.8672],[82.6561,28.8667],[82.6694,28.8524],[82.6957,28.8647],[82.7121,28.8516],[82.7418,28.8459],[82.7658,28.8086],[82.7818,28.8243],[82.7994,28.8207],[82.8171,28.8313],[82.8438,28.8265],[82.8676,28.8343],[82.8961,28.8247],[82.9049,28.8324],[82.9472,28.829],[82.9659,28.8204],[82.9809,28.8008],[82.9974,28.8039],[83.0224,28.7908],[83.0361,28.7928],[83.0684,28.78],[83.0793,28.7862],[83.1137,28.7436],[83.1541,28.7478],[83.1865,28.7436],[83.21,28.732],[83.2293,28.7429],[83.2769,28.722],[83.3256,28.738],[83.362,28.7342],[83.3885,28.7631],[83.4104,28.7607],[83.4835,28.7829],[83.488,28.8021],[83.4801,28.8172],[83.4803,28.8378],[83.4817,28.8447],[83.5018,28.8462],[83.506,28.8652],[83.4995,28.8773],[83.5462,28.9219],[83.5587,28.9449],[83.567,28.9434],[83.5801,28.9562],[83.5921,28.9837],[83.6093,28.9803],[83.615,28.9878],[83.6126,29.036],[83.6196,29.0598],[83.6315,29.065],[83.6307,29.0811],[83.6156,29.0984],[83.6289,29.1069],[83.6499,29.1045],[83.6515,29.1191],[83.6603,29.1245],[83.6804,29.1235],[83.676,29.1486],[83.6633,29.1558],[83.6661,29.1698],[83.6574,29.1762]]]}},{"type":"Feature","properties":{"name":"Sudurpashchim","province":"Sudurpashchim"},"geometry":{"type":"Polygon","coordinates":[[[81.2853,28.6733],[81.2812,28.6951],[81.2665,28.7042],[81.2725,28.7271],[81.2561,28.73],[81.2611,28.7459],[81.2472,28.7609],[81.2478,28.7797],[81.2259,28.7952],[81.2421,28.8109],[81.2299,28.8168],[81.232,28.8319],[81.2062,28.8504],[81.2065,28.8621],[81.199,28.8612],[81.1952,28.8331],[81.2067,28.8253],[81.2034,28.8168],[81.1818,28.8251],[81.1741,28.835],[81.153,28.8304],[81.1577,28.8444],[81.1434,28.8731],[81.1291,28.8652],[81.126,28.8517],[81.1024,28.8448],[81.0892,28.8629],[81.0729,28.8649],[81.0723,28.8768],[81.0515,28.8769],[81.0212,28.9199],[80.9811,28.9388],[81.0033,28.9572],[81.0208,28.9529],[81.0499,28.9783],[81.065,28.9703],[81.1192,28.9635],[81.1688,28.9215],[81.1945,28.9162],[81.2042,28.9081],[81.2366,28.906],[81.2457,28.9152],[81.2661,28.9027],[81.2835,28.9216],[81.3021,28.9258],[81.3163,28.9202],[81.3242,28.9081],[81.3366,28.907],[81.3423,28.8927],[81.3552,28.8898],[81.3748,28.893],[81.3944,28.9085],[81.4142,28.9142],[81.4318,28.9107],[81.4406,28.9004],[81.4649,28.8937],[81.4633,28.8528],[81.4905,28.841],[81.4982,28.8213],[81.5224,28.8033],[81.5155,28.7805],[81.5278,28.7746],[81.5351,28.7613],[81.5205,28.7491],[81.5783,28.7555],[81.5799,28.7801],[81.5569,28.7976],[81.5319,28.8561],[81.509,28.8898],[81.4917,28.8942],[81.4665,28.9289],[81.4446,28.9404],[81.444,28.9585],[81.4328,28.9571],[81.424,28.9664],[81.4251,28.9803],[81.4101,28.997],[81.419,29.0043],[81.4178,29.0214],[81.4397,29.0403],[81.4441,29.0538],[81.4668,29.0671],[81.4694,29.0781],[81.5099,29.0907],[81.5235,29.1043],[81.5656,29.1262],[81.5353,29.1369],[81.5247,29.1528],[81.4991,29.1518],[81.4953,29.1689],[81.4873,29.173],[81.4908,29.185],[81.4821,29.2006],[81.487,29.227],[81.4996,29.2389],[81.4912,29.2617],[81.4681,29.2719],[81.4839,29.2796],[81.508,29.3146],[81.5239,29.3151],[81.5585,29.3579],[81.567,29.3479],[81.5763,29.3629],[81.6137,29.3708],[81.6431,29.3562],[81.6419,29.3345],[81.6477,29.3215],[81.6685,29.3171],[81.6909,29.3206],[81.7032,29.3306],[81.7403,29.3343],[81.7523,29.3518],[81.7497,29.3666],[81.7611,29.3866],[81.7688,29.3923],[81.7893,29.389],[81.7979,29.4071],[81.8082,29.4564],[81.8039,29.4752],[81.788,29.5],[81.7625,29.5054],[81.7806,29.5092],[81.7773,29.5174],[81.7929,29.5306],[81.7986,29.576],[81.7905,29.5958],[81.7738,29.6058],[81.7385,29.6062],[81.7104,29.6263],[81.6994,29.6421],[81.7036,29.6454],[81.6971,29.6783],[81.714,29.7223],[81.727,29.7341],[81.7302,29.7692],[81.7396,29.7922],[81.7645,29.8018],[81.7737,29.7982],[81.7804,29.8071],[81.7808,29.8393],[81.7942,29.8488],[81.7936,29.8955],[81.7989,29.902],[81.78,29.9111],[81.716,29.9094],[81.7097,29.9269],[81.6975,29.9315],[81.6979,29.9415],[81.6878,29.9491],[81.6651,29.9403],[81.6456,29.9482],[81.6266,29.9384],[81.6129,29.9432],[81.6026,29.9302],[81.5849,29.9369],[81.5494,29.9232],[81.5349,29.9276],[81.5169,29.9228],[81.512,29.9162],[81.5169,29.9043],[81.504,29.8929],[81.4927,29.8872],[81.4707,29.8898],[81.4564,29.9012],[81.4627,29.921],[81.4529,29.949],[81.4687,29.9637],[81.4701,29.9751],[81.4607,29.9857],[81.4632,29.9952],[81.4126,30.0186],[81.4013,30.0228],[81.3766,30.0065],[81.272,30.0453],[81.2374,30.0318],[81.2537,30.0197],[81.2317,30.0077],[81.2175,30.0073],[81.2077,30.0204],[81.1948,30.0229],[81.184,30.0108],[81.1334,30.016],[81.0909,30.0542],[81.1081,30.088],[81.0983,30.1],[81.0812,30.1005],[81.0832,30.1482],[81.0439,30.1806],[81.0425,30.1936],[81.0336,30.197],[81.0451,30.2101],[81.0291,30.2198],[81.0289,30.233],[80.9887,30.2467],[80.9762,30.2379],[80.9275,30.2358],[80.8973,30.2123],[80.8801,30.1812],[80.8632,30.1695],[80.8714,30.1609],[80.8776,30.1285],[80.845,30.116],[80.8453,30.1023],[80.8372,30.0974],[80.8155,30.0963],[80.7795,30.0567],[80.7613,30.0495],[80.7558,30.0396],[80.7576,30.0239],[80.7447,30.004],[80.7196,30.0003],[80.6742,29.9572],[80.6487,29.9559],[80.6299,29.9651],[80.604,29.9589],[80.5743,29.9235],[80.5727,29.8953],[80.557,29.8706],[80.5617,29.8664],[80.5528,29.8504],[80.539,29.8472],[80.5218,29.827],[80.5074,29.8231],[80.4934,29.7955],[80.464,29.8023],[80.4442,29.7991],[80.4355,29.8061],[80.429,29.7981],[80.407,29.7945],[80.3976,29.7593],[80.3653,29.7463],[80.3665,29.724],[80.3756,29.7199],[80.3721,29.7153],[80.3846,29.6744],[80.3982,29.6589],[80.4146,29.654],[80.4203,29.6391],[80.421,29.6298],[80.4107,29.625],[80.4058,29.6128],[80.4081,29.5954],[80.388,29.5718],[80.3792,29.5715],[80.3789,29.5613],[80.3637,29.5641],[80.3641,29.5566],[80.3428,29.5529],[80.3419,29.5403],[80.3581,29.5325],[80.3497,29.5189],[80.3139,29.4991],[80.3131,29.4845],[80.2992,29.4906],[80.2867,29.4769],[80.3026,29.4531],[80.2806,29.4509],[80.2763,29.4586],[80.2693,29.4551],[80.2744,29.4495],[80.2582,29.4518],[80.243,29.4438],[80.2476,29.4347],[80.2417,29.4116],[80.2747,29.393],[80.279,29.3786],[80.2714,29.3737],[80.2712,29.3645],[80.2794,29.3595],[80.2802,29.3463],[80.2963,29.3242],[80.317,29.3148],[80.318,29.3017],[80.3044,29.2853],[80.3004,29.2421],[80.2908,29.2316],[80.2974,29.2051],[80.2873,29.1952],[80.2751,29.2071],[80.2609,29.2067],[80.2561,29.2195],[80.2484,29.221],[80.2409,29.2025],[80.258,29.1874],[80.2584,29.1658],[80.2718,29.1421],[80.2542,29.138],[80.2334,29.1185],[80.2098,29.1219],[80.1836,29.1371],[80.1448,29.1034],[80.1286,29.0611],[80.1366,29.0589],[80.1247,29.0131],[80.1357,29.0073],[80.1269,29.0061],[80.118,28.9817],[80.1003,28.9865],[80.0586,28.9165],[80.0648,28.8374],[80.0751,28.8244],[80.1182,28.8288],[80.171,28.7824],[80.2162,28.7554],[80.2516,28.7574],[80.2652,28.7436],[80.2563,28.7294],[80.2777,28.71],[80.2937,28.7114],[80.3174,28.6999],[80.326,28.6664],[80.3605,28.6454],[80.3608,28.6356],[80.3764,28.6284],[80.4185,28.6391],[80.4517,28.6287],[80.4644,28.615],[80.4604,28.6138],[80.4718,28.5903],[80.4683,28.5834],[80.4812,28.5854],[80.5065,28.5681],[80.5177,28.5519],[80.5308,28.5723],[80.5217,28.577],[80.5062,28.671],[80.5399,28.6907],[80.5905,28.6798],[80.5802,28.6613],[80.5976,28.656],[80.5898,28.6478],[80.6063,28.6524],[80.6116,28.6394],[80.6333,28.6374],[80.6416,28.6433],[80.6513,28.634],[80.6677,28.6419],[80.6796,28.6205],[80.6774,28.6044],[80.6958,28.6034],[80.6903,28.5871],[80.7147,28.5679],[80.7246,28.5749],[80.7388,28.5659],[80.7385,28.5743],[80.768,28.5657],[80.7696,28.5498],[80.7896,28.5434],[80.7846,28.5293],[80.7891,28.5244],[80.8155,28.5207],[80.8445,28.4955],[80.8553,28.4972],[80.8656,28.4896],[80.8616,28.5042],[80.8759,28.5098],[80.8962,28.5057],[80.9087,28.4976],[80.9015,28.4858],[80.9058,28.4658],[80.9157,28.4577],[80.9145,28.4679],[80.9176,28.4598],[80.9306,28.4577],[80.9426,28.4685],[80.9323,28.4587],[80.9517,28.4557],[80.9518,28.4476],[80.9641,28.4497],[80.9671,28.4571],[80.9799,28.4553],[80.9649,28.4448],[80.9654,28.4378],[80.9792,28.4344],[80.9779,28.4426],[80.9892,28.4417],[80.9998,28.4541],[81.0175,28.4517],[81.013,28.4383],[81.0193,28.4317],[81.0296,28.4386],[81.0338,28.428],[81.0168,28.4158],[81.0324,28.3988],[81.0349,28.4134],[81.0674,28.3945],[81.0596,28.41],[81.0686,28.4259],[81.0859,28.4384],[81.0906,28.457],[81.109,28.4615],[81.1473,28.4982],[81.1602,28.5015],[81.1681,28.5242],[81.2325,28.5776],[81.2688,28.6179],[81.2707,28.6296],[81.2877,28.6486],[81.2853,28.6733]]]}}]}