{"type":"FeatureCollection","features":[{"type":"Feature","properties":{"name":"Ice–rock detachment, Langtang Lirung north face (USGS epicentre)","role":"origin","note":null,"km":0.1,"arrival":"2026-08-26T02:52:11Z","reported":"08:37:10 NPT, M5.2 landslide signal","marker-color":"#7c2d12","marker-size":"large"},"geometry":{"type":"Point","coordinates":[85.515,28.271]}},{"type":"Feature","properties":{"name":"Main barrier lake (Chhochen Khola confluence)","role":"dam","note":null,"km":null,"arrival":null,"reported":"formed 26 Aug; overflowed 28 Aug ~15:35; drained 29–30 Aug","marker-color":"#1d4ed8","marker-size":"medium"},"geometry":{"type":"Point","coordinates":[85.4856,28.3321]}},{"type":"Feature","properties":{"name":"Rasuwagadhi / Gyirong Port","role":"town","note":null,"km":22.3,"arrival":"2026-08-26T02:59:19Z","reported":"08:40–08:50 (CCTV 08:44)","marker-color":"#111827","marker-size":"medium"},"geometry":{"type":"Point","coordinates":[85.3778,28.2778]}},{"type":"Feature","properties":{"name":"Timure dry port","role":"town","note":null,"km":25.6,"arrival":"2026-08-26T03:01:32Z","reported":"~08:45","marker-color":"#111827","marker-size":"medium"},"geometry":{"type":"Point","coordinates":[85.3667,28.2528]}},{"type":"Feature","properties":{"name":"Syabrubesi","role":"town","note":null,"km":36.7,"arrival":"2026-08-26T03:10:10Z","reported":"08:50–09:00","marker-color":"#111827","marker-size":"medium"},"geometry":{"type":"Point","coordinates":[85.3378,28.1628]}},{"type":"Feature","properties":{"name":"Betrawati","role":"town","note":null,"km":66.4,"arrival":"2026-08-26T03:40:23Z","reported":"09:20–09:30","marker-color":"#111827","marker-size":"medium"},"geometry":{"type":"Point","coordinates":[85.186,27.9731]}},{"type":"Feature","properties":{"name":"Bidur / Trishuli Bazar","role":"town","note":null,"km":77.7,"arrival":"2026-08-26T04:00:06Z","reported":"~09:30–09:45 (interpolated)","marker-color":"#111827","marker-size":"medium"},"geometry":{"type":"Point","coordinates":[85.1465,27.8953]}},{"type":"Feature","properties":{"name":"Galchhi","role":"gauge","note":null,"km":100.1,"arrival":"2026-08-26T04:40:26Z","reported":"10:20–10:30; peak 10:50 (+8.8 m)","marker-color":"#0369a1","marker-size":"medium"},"geometry":{"type":"Point","coordinates":[85.0005,27.7974]}},{"type":"Feature","properties":{"name":"Malekhu / Phurke","role":"gauge","note":null,"km":124,"arrival":"2026-08-26T06:01:00Z","reported":"bridge and gauge swept 11:43","marker-color":"#0369a1","marker-size":"medium"},"geometry":{"type":"Point","coordinates":[84.8272,27.8137]}},{"type":"Feature","properties":{"name":"Mugling","role":"town","note":null,"km":163.1,"arrival":"2026-08-26T07:10:14Z","reported":"passed by 13:00","marker-color":"#111827","marker-size":"medium"},"geometry":{"type":"Point","coordinates":[84.561,27.8562]}},{"type":"Feature","properties":{"name":"Devghat (Narayani gauge)","role":"gauge","note":null,"km":196.2,"arrival":"2026-08-26T08:49:56Z","reported":"14:30–14:40; peak 5,850 m³/s at 16:00","marker-color":"#0369a1","marker-size":"medium"},"geometry":{"type":"Point","coordinates":[84.4231,27.7429]}}]}