{"type":"FeatureCollection","features":[{"type":"Feature","properties":{"name":"Flood Extent, Observed 27 August 2026, GeoJSON","area_km2":31.7,"fill":"#92400e","fill-opacity":0.4,"stroke":"#78350f","stroke-width":0.8},"geometry":{"type":"Polygon","coordinates":[[[84.5564,27.8592],[84.55703,27.8596],[84.55824,27.85962],[84.55922,27.85885],[84.5601,27.85841],[84.56685,27.85902],[84.57148,27.86084],[84.57292,27.86159],[84.57409,27.86271],[84.57566,27.86383],[84.57677,27.86443],[84.57727,27.86556],[84.57706,27.86687],[84.57645,27.86762],[84.57625,27.86865],[84.57614,27.87007],[84.57667,27.87173],[84.57904,27.87363],[84.58094,27.87495],[84.58261,27.87584],[84.58421,27.87652],[84.58651,27.87864],[84.5877,27.87945],[84.58945,27.88041],[84.59099,27.88043],[84.59342,27.87905],[84.59574,27.87719],[84.5966,27.8767],[84.5977,27.87682],[84.59943,27.87742],[84.60105,27.87704],[84.60437,27.8755],[84.60536,27.87448],[84.60551,27.87322],[84.60562,27.87306],[84.60643,27.87261],[84.60841,27.87202],[84.60966,27.87221],[84.61227,27.87305],[84.61361,27.87401],[84.61363,27.87658],[84.61411,27.87813],[84.61498,27.87952],[84.61603,27.87973],[84.61723,27.88048],[84.6192,27.88143],[84.62062,27.88145],[84.62333,27.88098],[84.62588,27.87971],[84.62771,27.87831],[84.62799,27.87745],[84.62829,27.87459],[84.62775,27.8739],[84.6277,27.87296],[84.62816,27.87216],[84.63048,27.87068],[84.63407,27.86985],[84.63485,27.86951],[84.63504,27.86856],[84.63416,27.86606],[84.63414,27.86503],[84.63431,27.86347],[84.63505,27.86128],[84.63625,27.86067],[84.63907,27.86042],[84.64107,27.86078],[84.64275,27.86164],[84.64442,27.86194],[84.64727,27.8616],[84.64937,27.8611],[84.65033,27.8601],[84.6509,27.85895],[84.65042,27.85818],[84.64837,27.85586],[84.64744,27.85497],[84.64728,27.85418],[84.64737,27.85396],[84.64808,27.85344],[84.64922,27.85312],[84.6518,27.8529],[84.65571,27.85293],[84.65828,27.85196],[84.66014,27.85056],[84.66109,27.84914],[84.66156,27.84791],[84.6618,27.84636],[84.66229,27.84523],[84.66313,27.84413],[84.66461,27.84094],[84.66388,27.83815],[84.66382,27.8366],[84.66361,27.8354],[84.66315,27.83443],[84.66227,27.83305],[84.66181,27.83173],[84.66152,27.8298],[84.66183,27.82899],[84.66394,27.82761],[84.66626,27.82581],[84.6677,27.82399],[84.66826,27.82285],[84.66828,27.82176],[84.66772,27.81974],[84.66836,27.81888],[84.67032,27.81764],[84.67337,27.81735],[84.67451,27.8168],[84.67729,27.81603],[84.67854,27.81497],[84.68064,27.81406],[84.6837,27.81139],[84.68472,27.81096],[84.68853,27.81061],[84.69125,27.81019],[84.69411,27.80992],[84.6964,27.80895],[84.70106,27.80828],[84.70429,27.80808],[84.70631,27.8078],[84.70817,27.80726],[84.70886,27.80619],[84.70904,27.80423],[84.70884,27.80284],[84.70959,27.80178],[84.71143,27.801],[84.71417,27.80106],[84.71546,27.80219],[84.7165,27.80346],[84.71796,27.80443],[84.7187,27.80433],[84.71998,27.80387],[84.7211,27.80245],[84.72283,27.8016],[84.72778,27.80042],[84.72923,27.7983],[84.73001,27.79692],[84.73021,27.7968],[84.73163,27.79667],[84.73393,27.79711],[84.73564,27.79826],[84.73624,27.80014],[84.73652,27.80265],[84.7375,27.80416],[84.73976,27.80497],[84.74475,27.80506],[84.74653,27.8063],[84.74824,27.80605],[84.75029,27.80548],[84.75155,27.80601],[84.754,27.80751],[84.75547,27.80882],[84.75589,27.81024],[84.75583,27.81361],[84.75591,27.81486],[84.75808,27.81657],[84.76083,27.81852],[84.76479,27.81944],[84.76695,27.81862],[84.76875,27.81722],[84.77019,27.81514],[84.76996,27.81359],[84.77017,27.81219],[84.771,27.81103],[84.77373,27.80924],[84.77531,27.80957],[84.77594,27.81049],[84.77921,27.81341],[84.78101,27.81384],[84.78116,27.81473],[84.78071,27.81611],[84.78183,27.81651],[84.78377,27.8147],[84.78788,27.81503],[84.78971,27.81487],[84.79077,27.81342],[84.79258,27.81306],[84.79444,27.81365],[84.79574,27.81425],[84.79798,27.81479],[84.80066,27.81519],[84.80196,27.81563],[84.80437,27.81721],[84.80636,27.81785],[84.80931,27.81797],[84.81012,27.81741],[84.81039,27.81653],[84.81076,27.81608],[84.81177,27.81538],[84.81313,27.81474],[84.81646,27.81348],[84.8175,27.81212],[84.81746,27.81069],[84.81828,27.80878],[84.81972,27.80828],[84.82171,27.80841],[84.82192,27.80863],[84.82191,27.80953],[84.82146,27.81166],[84.82075,27.81372],[84.82146,27.81523],[84.82295,27.81799],[84.82481,27.81916],[84.82762,27.81974],[84.82944,27.81911],[84.83178,27.81776],[84.83545,27.81447],[84.83579,27.81348],[84.83562,27.81118],[84.83645,27.80882],[84.83795,27.80744],[84.83868,27.80559],[84.83945,27.80292],[84.83965,27.80276],[84.84169,27.80235],[84.84368,27.80267],[84.8462,27.80369],[84.84857,27.80803],[84.84952,27.80911],[84.85177,27.80905],[84.85586,27.80816],[84.85936,27.80777],[84.86099,27.80698],[84.86273,27.80548],[84.86377,27.80417],[84.86481,27.80309],[84.86609,27.80243],[84.86788,27.80251],[84.87009,27.80294],[84.87186,27.80388],[84.87204,27.80411],[84.87207,27.80445],[84.87081,27.80652],[84.8711,27.80714],[84.87427,27.80847],[84.87494,27.80862],[84.87582,27.80859],[84.87745,27.80894],[84.879,27.80945],[84.88015,27.81],[84.88224,27.81027],[84.883,27.81009],[84.88352,27.80955],[84.88452,27.80946],[84.88519,27.80952],[84.88584,27.81008],[84.88612,27.81014],[84.88741,27.81001],[84.89329,27.80873],[84.89362,27.80848],[84.89452,27.80811],[84.89658,27.80808],[84.89766,27.80746],[84.89876,27.80708],[84.89936,27.80706],[84.90034,27.8073],[84.90285,27.80744],[84.90461,27.80824],[84.90615,27.80827],[84.90785,27.80743],[84.90819,27.80693],[84.90822,27.80582],[84.90808,27.80547],[84.90828,27.80501],[84.90865,27.80484],[84.91041,27.80487],[84.91175,27.80554],[84.9124,27.80559],[84.91344,27.80532],[84.91428,27.80478],[84.91448,27.80451],[84.91491,27.80309],[84.91568,27.80183],[84.91766,27.80085],[84.91878,27.80051],[84.92123,27.79889],[84.9232,27.7982],[84.92531,27.79866],[84.92666,27.79938],[84.9276,27.80014],[84.93155,27.80217],[84.93385,27.80431],[84.9363,27.80553],[84.93711,27.80556],[84.93867,27.80503],[84.93945,27.80521],[84.9402,27.80612],[84.94087,27.80776],[84.94322,27.81152],[84.94518,27.8143],[84.94623,27.81557],[84.94739,27.81667],[84.94917,27.81735],[84.95065,27.81739],[84.95326,27.81652],[84.95442,27.81702],[84.95629,27.81857],[84.95658,27.8187],[84.95906,27.81866],[84.96046,27.81802],[84.96296,27.81651],[84.9645,27.8151],[84.96539,27.81284],[84.96592,27.81198],[84.96627,27.81166],[84.96704,27.81167],[84.96751,27.81213],[84.96868,27.81233],[84.96954,27.81136],[84.97017,27.80969],[84.97009,27.80735],[84.97089,27.80612],[84.97219,27.8055],[84.97261,27.80519],[84.97274,27.80488],[84.97271,27.80422],[84.97298,27.80268],[84.97317,27.80251],[84.9745,27.80208],[84.97596,27.80186],[84.97763,27.80194],[84.97871,27.80221],[84.97933,27.80262],[84.97966,27.80264],[84.98036,27.80293],[84.98193,27.80317],[84.98241,27.80345],[84.98361,27.80448],[84.98578,27.80569],[84.98794,27.80613],[84.98929,27.80587],[84.99014,27.80545],[84.99154,27.80411],[84.99192,27.80388],[84.99231,27.80385],[84.99345,27.8042],[84.99618,27.8043],[84.99781,27.80369],[84.9995,27.80269],[85.00133,27.80249],[85.00282,27.80297],[85.00366,27.80424],[85.00611,27.80558],[85.00678,27.80579],[85.0076,27.80584],[85.01093,27.80707],[85.01212,27.80775],[85.01288,27.80791],[85.01309,27.80821],[85.01316,27.80896],[85.01288,27.80933],[85.01211,27.80942],[85.01187,27.80968],[85.01152,27.81134],[85.01207,27.81318],[85.0134,27.81518],[85.01399,27.81663],[85.01492,27.8198],[85.01537,27.82046],[85.01558,27.8212],[85.01581,27.82348],[85.01608,27.82446],[85.01569,27.8259],[85.01579,27.82689],[85.01694,27.82806],[85.01898,27.82965],[85.02082,27.83351],[85.02074,27.83373],[85.02052,27.8338],[85.01985,27.8335],[85.01813,27.8332],[85.01756,27.8333],[85.0173,27.8337],[85.01746,27.83403],[85.01819,27.83486],[85.01885,27.83517],[85.02041,27.83553],[85.0208,27.83575],[85.02141,27.83635],[85.02087,27.83746],[85.01948,27.83979],[85.01859,27.84172],[85.01829,27.8434],[85.01896,27.84498],[85.02097,27.84673],[85.02386,27.84806],[85.02741,27.84911],[85.02872,27.84998],[85.02881,27.85018],[85.02889,27.85222],[85.02987,27.85384],[85.03186,27.85536],[85.03455,27.85558],[85.04129,27.85681],[85.04384,27.85744],[85.04562,27.85712],[85.04653,27.85596],[85.04741,27.85532],[85.04843,27.85526],[85.0495,27.85559],[85.05113,27.85575],[85.05197,27.85614],[85.05413,27.85767],[85.05564,27.85803],[85.05796,27.85931],[85.0595,27.86041],[85.06102,27.86035],[85.06222,27.86064],[85.06556,27.86067],[85.06613,27.86084],[85.06689,27.86148],[85.06723,27.86242],[85.06739,27.86258],[85.06765,27.86231],[85.06829,27.86086],[85.06923,27.86072],[85.06997,27.86081],[85.07129,27.86018],[85.07232,27.85801],[85.07323,27.85657],[85.07267,27.85535],[85.07268,27.85515],[85.07286,27.855],[85.07367,27.85486],[85.07612,27.8549],[85.07754,27.85567],[85.07848,27.85643],[85.0816,27.85776],[85.08497,27.85759],[85.08731,27.85819],[85.08824,27.85912],[85.08824,27.86057],[85.08893,27.8623],[85.08979,27.86261],[85.09186,27.8637],[85.09241,27.86377],[85.09298,27.86367],[85.09467,27.86223],[85.0974,27.86084],[85.10274,27.85921],[85.10629,27.85965],[85.10911,27.86357],[85.11162,27.86613],[85.11285,27.8687],[85.11432,27.8726],[85.11525,27.87364],[85.11567,27.8738],[85.11663,27.8737],[85.11804,27.87395],[85.11972,27.87487],[85.12125,27.87591],[85.12352,27.87634],[85.12464,27.87829],[85.1261,27.8825],[85.12976,27.88535],[85.13336,27.88793],[85.13529,27.8913],[85.13508,27.8948],[85.13544,27.8971],[85.1365,27.90134],[85.13721,27.90232],[85.13765,27.90466],[85.13744,27.90669],[85.13571,27.91085],[85.13343,27.91458],[85.13347,27.91565],[85.13602,27.91776],[85.13738,27.91846],[85.13769,27.91899],[85.13831,27.91963],[85.13871,27.91972],[85.13934,27.91931],[85.14042,27.91928],[85.14122,27.91972],[85.14212,27.92035],[85.14264,27.92088],[85.14315,27.92115],[85.14508,27.9214],[85.14713,27.92201],[85.14777,27.92231],[85.14809,27.92305],[85.1481,27.924],[85.14828,27.92433],[85.14815,27.92485],[85.14876,27.92595],[85.14887,27.92729],[85.14853,27.92786],[85.1477,27.92822],[85.14727,27.92886],[85.14721,27.92932],[85.14689,27.92994],[85.14722,27.93054],[85.14771,27.93231],[85.14844,27.93405],[85.14853,27.93458],[85.14878,27.93502],[85.14949,27.93487],[85.1499,27.93493],[85.15062,27.93548],[85.15282,27.93653],[85.15535,27.9385],[85.15671,27.93972],[85.1571,27.94034],[85.15708,27.94093],[85.15731,27.9414],[85.15696,27.94176],[85.15699,27.94197],[85.15742,27.94199],[85.15831,27.94245],[85.15873,27.94374],[85.15917,27.94424],[85.15927,27.94504],[85.15992,27.94604],[85.15981,27.94632],[85.15924,27.94634],[85.15916,27.94657],[85.15996,27.94701],[85.16085,27.94775],[85.16131,27.94878],[85.16131,27.94915],[85.1616,27.95017],[85.16153,27.95049],[85.16166,27.951],[85.16174,27.95264],[85.16156,27.95319],[85.1616,27.95375],[85.16125,27.95415],[85.16123,27.95455],[85.16154,27.95513],[85.16168,27.95571],[85.16109,27.95672],[85.16113,27.95702],[85.16133,27.95708],[85.16181,27.95673],[85.16228,27.95575],[85.16245,27.95565],[85.16265,27.9557],[85.16307,27.95612],[85.16307,27.95691],[85.16346,27.95744],[85.16504,27.95812],[85.16549,27.95853],[85.1666,27.95889],[85.16707,27.9592],[85.16727,27.9597],[85.16814,27.96104],[85.16828,27.96164],[85.16809,27.96196],[85.16839,27.96255],[85.16833,27.96351],[85.16842,27.96378],[85.16857,27.96395],[85.16943,27.96414],[85.16964,27.96448],[85.17015,27.9647],[85.17024,27.96508],[85.17073,27.96487],[85.17136,27.96511],[85.17157,27.96569],[85.17142,27.96627],[85.17153,27.96665],[85.17232,27.96701],[85.17302,27.96763],[85.17401,27.96764],[85.17487,27.9678],[85.17539,27.96804],[85.17564,27.96825],[85.17582,27.96864],[85.17689,27.9693],[85.17954,27.97003],[85.1803,27.97048],[85.18104,27.97151],[85.18062,27.97292],[85.18105,27.97473],[85.18101,27.97587],[85.18003,27.97821],[85.17986,27.97886],[85.17899,27.97995],[85.17935,27.98659],[85.18025,27.98901],[85.18086,27.98974],[85.18138,27.99228],[85.18255,27.9955],[85.18345,27.9967],[85.18392,27.99783],[85.18384,27.99909],[85.18319,28.00041],[85.18311,28.00545],[85.18284,28.00701],[85.18189,28.01056],[85.18175,28.01155],[85.1818,28.01198],[85.18228,28.01341],[85.18357,28.01421],[85.18414,28.01479],[85.18549,28.0175],[85.18507,28.01836],[85.18458,28.01903],[85.18406,28.02041],[85.18413,28.02242],[85.18443,28.02332],[85.18525,28.02513],[85.18573,28.02575],[85.18859,28.02755],[85.19132,28.02893],[85.19245,28.03042],[85.1929,28.03172],[85.19308,28.03314],[85.19276,28.03423],[85.19294,28.03483],[85.19267,28.03605],[85.19271,28.03713],[85.19249,28.03778],[85.1925,28.03812],[85.19282,28.03846],[85.19289,28.03878],[85.19279,28.03907],[85.19325,28.03978],[85.19327,28.0403],[85.19378,28.04107],[85.19418,28.04145],[85.19466,28.04216],[85.19712,28.04393],[85.19813,28.04447],[85.19874,28.04523],[85.20034,28.04637],[85.20073,28.04681],[85.20112,28.04773],[85.20191,28.04872],[85.20205,28.04917],[85.20264,28.05008],[85.2029,28.0509],[85.20521,28.05323],[85.20544,28.05362],[85.20601,28.05399],[85.20664,28.05478],[85.20662,28.05514],[85.20732,28.05651],[85.20741,28.05748],[85.20723,28.058],[85.20737,28.05843],[85.20728,28.05936],[85.20627,28.06076],[85.20627,28.06205],[85.20567,28.06271],[85.20602,28.06293],[85.20607,28.06336],[85.20538,28.06488],[85.20514,28.06618],[85.20477,28.0669],[85.20455,28.0676],[85.20462,28.06846],[85.20486,28.06908],[85.20529,28.0695],[85.20574,28.07045],[85.20635,28.0713],[85.20671,28.07309],[85.20768,28.07369],[85.20935,28.07508],[85.21023,28.07531],[85.21107,28.07569],[85.21118,28.0759],[85.21111,28.07635],[85.21126,28.07656],[85.2121,28.0764],[85.21384,28.07705],[85.21441,28.07778],[85.21557,28.07845],[85.21611,28.07893],[85.21617,28.07953],[85.2167,28.07956],[85.21687,28.07967],[85.21702,28.07994],[85.21698,28.08014],[85.21628,28.0805],[85.21628,28.08071],[85.21689,28.08063],[85.21715,28.08093],[85.2175,28.08086],[85.21803,28.08099],[85.21862,28.08159],[85.21863,28.08195],[85.219,28.08189],[85.21982,28.08234],[85.22058,28.08329],[85.22072,28.0833],[85.22113,28.08268],[85.22205,28.08273],[85.22282,28.08312],[85.2234,28.08383],[85.22375,28.08401],[85.22401,28.08391],[85.22444,28.08404],[85.2252,28.08464],[85.22583,28.08498],[85.22608,28.08538],[85.22614,28.08593],[85.2265,28.08648],[85.22736,28.08695],[85.22757,28.08741],[85.22812,28.08767],[85.22849,28.08771],[85.22877,28.08803],[85.22904,28.08812],[85.22928,28.08848],[85.22978,28.08881],[85.23046,28.08898],[85.23105,28.08984],[85.23155,28.09019],[85.23212,28.09045],[85.23243,28.09039],[85.23304,28.09063],[85.23314,28.09084],[85.23301,28.09124],[85.23368,28.09151],[85.23397,28.09196],[85.23416,28.09203],[85.23568,28.09187],[85.23676,28.09205],[85.23734,28.09195],[85.23878,28.09223],[85.23943,28.09276],[85.24115,28.0928],[85.24172,28.09293],[85.24364,28.09303],[85.24522,28.09281],[85.24651,28.09295],[85.24755,28.09281],[85.24854,28.09282],[85.24979,28.09325],[85.25162,28.0935],[85.25211,28.09391],[85.25301,28.09416],[85.2554,28.0954],[85.25662,28.09558],[85.25717,28.09577],[85.25875,28.09577],[85.26009,28.09626],[85.26052,28.09678],[85.26162,28.09767],[85.263,28.09832],[85.26332,28.09878],[85.26369,28.10006],[85.26453,28.10091],[85.26523,28.10121],[85.26551,28.10159],[85.26675,28.10275],[85.26772,28.10335],[85.26838,28.10353],[85.26899,28.10413],[85.26997,28.10454],[85.27069,28.1055],[85.27099,28.10623],[85.27217,28.10727],[85.27304,28.10768],[85.27349,28.10767],[85.27377,28.10779],[85.27407,28.10813],[85.2749,28.10957],[85.27556,28.10966],[85.27592,28.10946],[85.27649,28.10983],[85.27656,28.11004],[85.2764,28.1104],[85.27633,28.11122],[85.27698,28.11173],[85.27689,28.11294],[85.27711,28.11366],[85.27741,28.11397],[85.27777,28.11415],[85.27806,28.11406],[85.27819,28.11358],[85.27813,28.11318],[85.27835,28.11298],[85.27902,28.11308],[85.27914,28.11325],[85.27918,28.11369],[85.27929,28.11373],[85.27981,28.11353],[85.2802,28.11356],[85.28044,28.11388],[85.28088,28.11413],[85.28092,28.11459],[85.28137,28.11519],[85.28155,28.1158],[85.28149,28.1161],[85.28173,28.11638],[85.2818,28.11677],[85.2824,28.11663],[85.28259,28.11698],[85.28347,28.11743],[85.2839,28.11791],[85.28472,28.11789],[85.28536,28.11821],[85.28568,28.11851],[85.28672,28.11862],[85.28719,28.11884],[85.28742,28.11908],[85.28745,28.11949],[85.28782,28.12027],[85.28777,28.12066],[85.28816,28.12115],[85.28854,28.12137],[85.28925,28.12142],[85.29031,28.12192],[85.29053,28.12213],[85.29063,28.1227],[85.29092,28.12295],[85.29215,28.12348],[85.29415,28.12541],[85.29626,28.12635],[85.297,28.12685],[85.2977,28.12783],[85.29814,28.12885],[85.2991,28.12955],[85.29937,28.12987],[85.29967,28.13115],[85.29954,28.13189],[85.30012,28.13273],[85.301,28.1334],[85.30323,28.13612],[85.30419,28.13789],[85.30454,28.13892],[85.30683,28.14143],[85.30749,28.14185],[85.30842,28.14222],[85.30948,28.1431],[85.30994,28.14326],[85.31093,28.14335],[85.31137,28.14357],[85.31181,28.14442],[85.31265,28.14549],[85.31336,28.14602],[85.31744,28.1481],[85.31911,28.14915],[85.32157,28.15094],[85.32322,28.15124],[85.32436,28.15181],[85.32525,28.15247],[85.32579,28.1531],[85.328,28.15514],[85.32923,28.15609],[85.33047,28.15676],[85.33195,28.15842],[85.33314,28.15917],[85.33459,28.15983],[85.33521,28.1607],[85.33548,28.16133],[85.33667,28.1626],[85.33692,28.16354],[85.33806,28.1646],[85.34,28.16515],[85.3406,28.16553],[85.34086,28.16589],[85.34092,28.16662],[85.3415,28.1673],[85.342,28.17297],[85.34197,28.17571],[85.3421,28.17806],[85.34198,28.1788],[85.34125,28.18062],[85.34056,28.18125],[85.33955,28.18184],[85.33949,28.18226],[85.33993,28.18269],[85.34037,28.18292],[85.34131,28.18266],[85.34207,28.18262],[85.34237,28.18295],[85.34243,28.18327],[85.34307,28.18382],[85.34334,28.18437],[85.34341,28.18481],[85.3438,28.18523],[85.34421,28.1861],[85.34467,28.18651],[85.34508,28.1872],[85.34518,28.18797],[85.3456,28.18875],[85.34551,28.18923],[85.34558,28.18954],[85.34691,28.19041],[85.34727,28.1912],[85.34768,28.19166],[85.34793,28.19251],[85.34879,28.19425],[85.34872,28.19463],[85.34906,28.19527],[85.34923,28.19623],[85.34963,28.19717],[85.34997,28.19742],[85.35058,28.1976],[85.35114,28.19835],[85.35183,28.19995],[85.35171,28.20111],[85.35192,28.2016],[85.35199,28.20285],[85.35284,28.20452],[85.35323,28.2048],[85.35339,28.20517],[85.35378,28.20543],[85.354,28.20635],[85.35384,28.20706],[85.35382,28.20785],[85.35345,28.20808],[85.35319,28.20847],[85.35313,28.20918],[85.35267,28.20981],[85.35304,28.21008],[85.3533,28.21078],[85.3537,28.21117],[85.35381,28.21147],[85.35409,28.2142],[85.35403,28.21533],[85.35414,28.21634],[85.35402,28.21657],[85.35367,28.21667],[85.35367,28.21692],[85.35426,28.21713],[85.35458,28.21738],[85.35528,28.21836],[85.35614,28.21915],[85.35633,28.21952],[85.35701,28.21991],[85.35726,28.22028],[85.3573,28.22101],[85.35748,28.22145],[85.35778,28.22159],[85.35804,28.22211],[85.35906,28.22272],[85.35923,28.22312],[85.35977,28.22373],[85.35978,28.22404],[85.36005,28.22437],[85.35994,28.22481],[85.36026,28.22576],[85.36017,28.22706],[85.36027,28.22873],[85.36004,28.22902],[85.36002,28.22962],[85.3598,28.23054],[85.35983,28.23103],[85.35939,28.23155],[85.35948,28.23207],[85.35913,28.23292],[85.35882,28.23317],[85.35868,28.23365],[85.35798,28.23452],[85.35794,28.23494],[85.35765,28.23566],[85.35721,28.23583],[85.35691,28.23624],[85.35687,28.23643],[85.35711,28.23733],[85.35679,28.23777],[85.35688,28.23794],[85.35716,28.23806],[85.35724,28.23834],[85.35713,28.23916],[85.35685,28.2398],[85.35691,28.24037],[85.35668,28.24217],[85.35849,28.24444],[85.36044,28.24578],[85.36169,28.2469],[85.36246,28.24733],[85.36282,28.24795],[85.36288,28.24823],[85.36384,28.24931],[85.3637,28.2516],[85.36341,28.25195],[85.3626,28.25226],[85.36238,28.25246],[85.36237,28.25262],[85.36258,28.25273],[85.36341,28.25267],[85.36377,28.25299],[85.36388,28.25429],[85.36366,28.25554],[85.36389,28.25594],[85.36408,28.2571],[85.36431,28.25746],[85.36464,28.2577],[85.36473,28.2581],[85.36522,28.25848],[85.36571,28.25866],[85.36639,28.25908],[85.36667,28.25951],[85.36718,28.25973],[85.36763,28.2602],[85.36869,28.26031],[85.37031,28.26093],[85.37075,28.26149],[85.37198,28.26473],[85.37285,28.26587],[85.37484,28.26708],[85.37549,28.26814],[85.37598,28.27089],[85.37642,28.27231],[85.37625,28.27356],[85.37551,28.27514],[85.3754,28.27588],[85.37555,28.27652],[85.37611,28.27767],[85.37622,28.27844],[85.37558,28.27996],[85.37548,28.2807],[85.37909,28.28045],[85.37984,28.27961],[85.37976,28.27894],[85.37837,28.27743],[85.3783,28.27649],[85.37857,28.27568],[85.37873,28.27456],[85.37947,28.27275],[85.37945,28.27131],[85.37826,28.2683],[85.37745,28.26697],[85.37745,28.26649],[85.37832,28.26565],[85.37807,28.26465],[85.37516,28.26385],[85.37436,28.26315],[85.3736,28.26139],[85.37304,28.26072],[85.37092,28.26003],[85.36939,28.25863],[85.36792,28.25774],[85.36738,28.25705],[85.36709,28.25637],[85.36707,28.25586],[85.36729,28.25522],[85.36703,28.25312],[85.36719,28.25231],[85.36701,28.25138],[85.36703,28.25098],[85.36721,28.25062],[85.36694,28.25047],[85.3668,28.25],[85.36652,28.24978],[85.3659,28.24835],[85.36551,28.24782],[85.36473,28.24724],[85.36373,28.24596],[85.36337,28.2451],[85.36267,28.24492],[85.36205,28.24442],[85.36115,28.24426],[85.36068,28.24396],[85.35965,28.24284],[85.35957,28.24249],[85.35931,28.24217],[85.35955,28.24067],[85.35938,28.24019],[85.35969,28.23966],[85.35946,28.23877],[85.35983,28.23726],[85.36005,28.23699],[85.36006,28.23623],[85.3603,28.23569],[85.36021,28.23522],[85.36074,28.23443],[85.36091,28.23388],[85.36168,28.23295],[85.36167,28.23202],[85.36151,28.23142],[85.36154,28.2308],[85.36218,28.2284],[85.36217,28.2273],[85.36241,28.22693],[85.36319,28.22691],[85.36362,28.22673],[85.364,28.22627],[85.36391,28.22612],[85.3638,28.22614],[85.36295,28.2266],[85.36272,28.22652],[85.36237,28.22612],[85.36223,28.22481],[85.36244,28.22413],[85.36227,28.22394],[85.36216,28.2234],[85.36222,28.22272],[85.36192,28.22243],[85.36192,28.22204],[85.36205,28.22175],[85.36104,28.22133],[85.36084,28.22082],[85.36041,28.22093],[85.35942,28.22043],[85.35827,28.21921],[85.358,28.21908],[85.35771,28.21873],[85.35735,28.21862],[85.35713,28.21818],[85.35706,28.21763],[85.35657,28.21706],[85.35576,28.21572],[85.35584,28.21472],[85.35572,28.21427],[85.35584,28.2134],[85.3556,28.21251],[85.35597,28.21207],[85.35524,28.21135],[85.3552,28.2102],[85.35532,28.20892],[85.35564,28.20833],[85.35578,28.20775],[85.35593,28.20624],[85.35567,28.20524],[85.35516,28.20441],[85.35422,28.20324],[85.35402,28.20248],[85.35409,28.20219],[85.35362,28.20153],[85.3536,28.20126],[85.35374,28.20092],[85.35414,28.20066],[85.35414,28.2005],[85.35354,28.20013],[85.35348,28.1993],[85.3531,28.19855],[85.3531,28.19793],[85.35265,28.19768],[85.35125,28.19612],[85.35106,28.19514],[85.35122,28.1948],[85.35118,28.1946],[85.34971,28.192],[85.34888,28.19001],[85.34849,28.18961],[85.34781,28.18817],[85.34719,28.18724],[85.34659,28.18569],[85.34614,28.18556],[85.34584,28.18528],[85.34534,28.1844],[85.34515,28.18371],[85.34447,28.18223],[85.34352,28.18119],[85.34349,28.1808],[85.34384,28.17987],[85.34389,28.17742],[85.34343,28.17425],[85.34387,28.17027],[85.34367,28.1682],[85.34389,28.16648],[85.34362,28.1657],[85.34381,28.16419],[85.34371,28.16348],[85.34334,28.16296],[85.34185,28.16287],[85.34087,28.16306],[85.3406,28.16297],[85.34035,28.1626],[85.33996,28.16235],[85.33856,28.16085],[85.3373,28.16002],[85.33684,28.15936],[85.3367,28.1588],[85.33648,28.15851],[85.33605,28.15825],[85.33462,28.15789],[85.33417,28.15768],[85.33332,28.15719],[85.33199,28.15587],[85.33041,28.15529],[85.32831,28.15291],[85.32728,28.15205],[85.32629,28.15086],[85.32558,28.1503],[85.3244,28.14994],[85.32328,28.14977],[85.32205,28.14917],[85.32147,28.14839],[85.32037,28.14777],[85.31913,28.14668],[85.31579,28.14462],[85.31375,28.14365],[85.31304,28.14308],[85.31253,28.14222],[85.31151,28.14104],[85.31043,28.14079],[85.30933,28.14083],[85.30779,28.1397],[85.30719,28.13896],[85.30662,28.13731],[85.30627,28.137],[85.30558,28.13684],[85.30522,28.13624],[85.30488,28.13537],[85.30378,28.1345],[85.30281,28.13195],[85.30169,28.13138],[85.30144,28.13064],[85.30142,28.12973],[85.30125,28.12937],[85.29975,28.12859],[85.29946,28.12832],[85.29939,28.12776],[85.2996,28.12711],[85.29931,28.12677],[85.29827,28.12622],[85.29766,28.12544],[85.29709,28.12523],[85.29562,28.12438],[85.29256,28.12177],[85.29219,28.12132],[85.29166,28.12099],[85.2908,28.12067],[85.28986,28.11958],[85.28924,28.11936],[85.28899,28.11914],[85.28853,28.11821],[85.28684,28.11741],[85.28514,28.1164],[85.28465,28.11593],[85.28433,28.11523],[85.28372,28.11489],[85.28329,28.11431],[85.28271,28.11309],[85.28177,28.11216],[85.28016,28.11134],[85.27927,28.1103],[85.27912,28.10985],[85.27796,28.10919],[85.27738,28.10815],[85.2765,28.10804],[85.27603,28.10783],[85.27455,28.10663],[85.27379,28.10643],[85.27316,28.10611],[85.27279,28.10564],[85.27261,28.10515],[85.27182,28.10441],[85.27177,28.10382],[85.27114,28.10329],[85.27008,28.10272],[85.26893,28.10146],[85.26843,28.10117],[85.26785,28.10122],[85.26731,28.10151],[85.26709,28.10145],[85.26686,28.10082],[85.26623,28.10032],[85.26544,28.09989],[85.26464,28.09921],[85.26462,28.099],[85.26485,28.09859],[85.26457,28.0981],[85.26478,28.09754],[85.26464,28.09706],[85.26358,28.09715],[85.26254,28.09662],[85.26188,28.09578],[85.26117,28.09527],[85.25874,28.09431],[85.25719,28.09435],[85.25607,28.09368],[85.25275,28.09244],[85.25207,28.09256],[85.25108,28.09207],[85.24906,28.09173],[85.24681,28.09169],[85.24574,28.09178],[85.24423,28.09139],[85.24306,28.09143],[85.24156,28.09129],[85.2407,28.09088],[85.23961,28.09084],[85.23912,28.09062],[85.23818,28.09046],[85.23706,28.09047],[85.23487,28.0897],[85.2331,28.0893],[85.23231,28.08895],[85.23118,28.08795],[85.23095,28.08753],[85.23023,28.08705],[85.23014,28.08672],[85.23023,28.08619],[85.22995,28.08568],[85.22938,28.08531],[85.22919,28.08458],[85.22869,28.08405],[85.22753,28.08324],[85.22705,28.08322],[85.22684,28.08275],[85.22627,28.08256],[85.22605,28.08221],[85.22573,28.08205],[85.22519,28.08195],[85.22401,28.0821],[85.22326,28.08162],[85.22271,28.08157],[85.22214,28.08137],[85.22189,28.08091],[85.2221,28.08045],[85.22112,28.08025],[85.22065,28.08053],[85.21945,28.07993],[85.21876,28.07925],[85.21864,28.07888],[85.21821,28.07855],[85.21803,28.07819],[85.21694,28.07756],[85.2159,28.07666],[85.21528,28.07636],[85.21434,28.07553],[85.2127,28.07465],[85.21185,28.07435],[85.21109,28.07385],[85.21039,28.07314],[85.21016,28.07226],[85.20988,28.07182],[85.20959,28.07167],[85.20935,28.07119],[85.20907,28.07104],[85.2083,28.07021],[85.20818,28.06948],[85.20804,28.06926],[85.20763,28.06904],[85.20684,28.06822],[85.20677,28.06799],[85.20687,28.06742],[85.20673,28.06705],[85.20715,28.06614],[85.20741,28.06596],[85.20741,28.06568],[85.20761,28.06536],[85.20747,28.0643],[85.20755,28.06394],[85.20816,28.06266],[85.20853,28.06133],[85.20886,28.06065],[85.2094,28.06018],[85.20942,28.06005],[85.20923,28.05989],[85.20914,28.05963],[85.2091,28.05921],[85.20928,28.05827],[85.20898,28.05757],[85.20905,28.05733],[85.20964,28.05677],[85.20969,28.05656],[85.20941,28.05615],[85.20937,28.05501],[85.20909,28.05442],[85.20918,28.05408],[85.20869,28.0539],[85.20848,28.05352],[85.20873,28.05296],[85.20847,28.0528],[85.20769,28.05269],[85.20739,28.05218],[85.20655,28.05132],[85.20515,28.05029],[85.20513,28.04985],[85.20447,28.04963],[85.20382,28.04876],[85.20362,28.04801],[85.20311,28.04699],[85.20278,28.0468],[85.20246,28.04625],[85.20211,28.04608],[85.20165,28.04553],[85.20136,28.04494],[85.20105,28.04478],[85.20067,28.04431],[85.20064,28.04411],[85.20077,28.04391],[85.20067,28.04373],[85.19983,28.04385],[85.19806,28.04264],[85.19753,28.04244],[85.19686,28.04194],[85.1958,28.04088],[85.1952,28.03999],[85.19495,28.03905],[85.19515,28.03826],[85.19504,28.0374],[85.19523,28.0367],[85.19514,28.03512],[85.19534,28.03449],[85.19522,28.03414],[85.19546,28.03369],[85.19557,28.03266],[85.1954,28.03248],[85.19501,28.03099],[85.19371,28.02823],[85.19284,28.02728],[85.19082,28.02575],[85.1873,28.02426],[85.18627,28.02296],[85.18625,28.02209],[85.18692,28.02124],[85.18766,28.02059],[85.18834,28.01969],[85.18843,28.0181],[85.18827,28.01689],[85.18641,28.0151],[85.1857,28.01427],[85.18526,28.01317],[85.18519,28.01011],[85.1855,28.00795],[85.18603,28.00647],[85.18576,28.00535],[85.18663,28.00249],[85.18737,28.00048],[85.18718,27.99788],[85.18669,27.99671],[85.18544,27.99582],[85.18479,27.99441],[85.18471,27.99378],[85.18479,27.99302],[85.18463,27.99182],[85.18377,27.98974],[85.18238,27.98433],[85.18186,27.98368],[85.1816,27.98213],[85.18171,27.98121],[85.18222,27.98032],[85.18257,27.97908],[85.18303,27.97824],[85.18399,27.97536],[85.1846,27.97515],[85.18634,27.97536],[85.18802,27.9766],[85.18872,27.97688],[85.1897,27.97676],[85.19041,27.97618],[85.1906,27.97543],[85.19057,27.97463],[85.1902,27.97399],[85.18966,27.9735],[85.18896,27.97326],[85.18709,27.97298],[85.18638,27.97241],[85.18629,27.97222],[85.18629,27.97138],[85.18644,27.97097],[85.18621,27.97057],[85.18553,27.96984],[85.18428,27.96884],[85.18178,27.96817],[85.18032,27.96746],[85.17875,27.96638],[85.17719,27.96466],[85.17666,27.96425],[85.17542,27.96389],[85.17367,27.96308],[85.17262,27.96207],[85.17057,27.9594],[85.17043,27.95876],[85.1693,27.95854],[85.16921,27.9582],[85.16931,27.95771],[85.16907,27.95742],[85.1685,27.95719],[85.16831,27.95679],[85.16671,27.95603],[85.16567,27.95578],[85.16508,27.95551],[85.16484,27.95487],[85.16413,27.95383],[85.16383,27.95318],[85.16412,27.95215],[85.1641,27.95081],[85.16437,27.94851],[85.16411,27.94809],[85.1639,27.94742],[85.16316,27.94654],[85.16275,27.94586],[85.16262,27.94494],[85.16223,27.94415],[85.16178,27.94271],[85.161,27.94126],[85.1605,27.93953],[85.15986,27.93903],[85.15971,27.93879],[85.15809,27.93767],[85.15783,27.93712],[85.15779,27.93653],[85.15742,27.93518],[85.15713,27.93453],[85.15564,27.93266],[85.15541,27.93224],[85.15444,27.93146],[85.15447,27.93118],[85.15489,27.93083],[85.15453,27.93056],[85.15368,27.93033],[85.15227,27.93026],[85.152,27.9303],[85.15138,27.93072],[85.15118,27.93074],[85.15092,27.93062],[85.15075,27.93034],[85.1509,27.92882],[85.15162,27.92756],[85.15189,27.9268],[85.15221,27.92643],[85.15219,27.92611],[85.15186,27.92531],[85.15184,27.92344],[85.15166,27.92236],[85.15086,27.92171],[85.15014,27.92151],[85.14897,27.92061],[85.1482,27.92067],[85.14773,27.92042],[85.14756,27.92012],[85.1471,27.91974],[85.14362,27.91837],[85.14306,27.91792],[85.13998,27.91619],[85.13898,27.91537],[85.13784,27.91482],[85.13753,27.9133],[85.13846,27.91143],[85.14115,27.9091],[85.14226,27.90563],[85.14168,27.90241],[85.13959,27.9006],[85.13864,27.89919],[85.13849,27.89837],[85.13838,27.89632],[85.13922,27.89471],[85.13941,27.89411],[85.13941,27.89341],[85.13916,27.89267],[85.13863,27.89177],[85.13848,27.8895],[85.13835,27.88901],[85.13406,27.88568],[85.13238,27.88383],[85.13021,27.88196],[85.1284,27.87826],[85.12824,27.87594],[85.12712,27.87463],[85.12547,27.8738],[85.12286,27.87227],[85.11975,27.87095],[85.11876,27.87015],[85.11678,27.86933],[85.11581,27.86861],[85.11262,27.86309],[85.11246,27.8622],[85.1114,27.86004],[85.1115,27.85937],[85.11299,27.85852],[85.11333,27.85761],[85.1128,27.85727],[85.11255,27.85724],[85.11066,27.85804],[85.10997,27.85795],[85.10786,27.85829],[85.10694,27.85832],[85.10569,27.85804],[85.10248,27.85763],[85.09991,27.85791],[85.09375,27.85943],[85.09131,27.85808],[85.08987,27.85607],[85.08822,27.85469],[85.08711,27.85407],[85.08594,27.85401],[85.08376,27.85528],[85.08306,27.85541],[85.08054,27.85471],[85.07929,27.85395],[85.07763,27.85231],[85.07647,27.85177],[85.07562,27.85176],[85.07396,27.85211],[85.07168,27.85291],[85.0692,27.85362],[85.06332,27.85594],[85.06097,27.85727],[85.05996,27.85744],[85.05894,27.85713],[85.05807,27.85656],[85.0571,27.85536],[85.05519,27.85352],[85.05202,27.85256],[85.05038,27.85232],[85.0469,27.85116],[85.04396,27.85109],[85.04297,27.85173],[85.04243,27.85302],[85.04195,27.85334],[85.04093,27.85315],[85.03994,27.85275],[85.03917,27.85284],[85.03779,27.85331],[85.03407,27.85313],[85.03314,27.85282],[85.0328,27.85249],[85.03264,27.852],[85.0324,27.85032],[85.03101,27.8489],[85.02965,27.84806],[85.02831,27.84754],[85.02285,27.84443],[85.02228,27.84403],[85.02163,27.84315],[85.02157,27.84239],[85.02182,27.84195],[85.02253,27.84162],[85.02342,27.84085],[85.02375,27.83865],[85.02388,27.83635],[85.02382,27.83447],[85.02355,27.83334],[85.02226,27.83116],[85.02205,27.82968],[85.02185,27.82909],[85.02098,27.82767],[85.01965,27.82588],[85.01927,27.82407],[85.01876,27.8224],[85.01868,27.82149],[85.01851,27.82098],[85.01799,27.82014],[85.01776,27.81935],[85.01709,27.8187],[85.01645,27.81833],[85.0159,27.81766],[85.01497,27.81535],[85.0138,27.81376],[85.01333,27.81192],[85.01343,27.81112],[85.01369,27.81064],[85.01417,27.81034],[85.01597,27.81043],[85.01628,27.81017],[85.01623,27.80985],[85.01603,27.80957],[85.01537,27.80934],[85.0152,27.80918],[85.01512,27.80812],[85.01456,27.8072],[85.01338,27.80654],[85.01145,27.80588],[85.00936,27.80492],[85.00689,27.80434],[85.00569,27.80391],[85.00313,27.8013],[85.00097,27.80049],[84.99894,27.80096],[84.99761,27.80159],[84.9965,27.8023],[84.99501,27.80289],[84.99414,27.80277],[84.99219,27.8022],[84.99092,27.80245],[84.98892,27.80428],[84.98807,27.80467],[84.98707,27.80451],[84.98437,27.8036],[84.98343,27.80275],[84.98179,27.80181],[84.98052,27.80183],[84.9776,27.80067],[84.97603,27.80054],[84.97318,27.80126],[84.97212,27.80165],[84.97143,27.80244],[84.97119,27.80324],[84.97121,27.80355],[84.9715,27.80403],[84.97144,27.80436],[84.97109,27.80485],[84.97071,27.80503],[84.96941,27.80617],[84.96874,27.8085],[84.96823,27.80963],[84.96766,27.81006],[84.96573,27.81006],[84.96479,27.81068],[84.96437,27.81111],[84.96424,27.812],[84.96295,27.81391],[84.96256,27.8151],[84.9618,27.81603],[84.9598,27.81714],[84.95874,27.81742],[84.95692,27.81702],[84.95422,27.8154],[84.95256,27.8148],[84.95147,27.81496],[84.94972,27.81588],[84.94862,27.81556],[84.94778,27.81483],[84.94614,27.81238],[84.94564,27.81197],[84.94412,27.81137],[84.94383,27.81109],[84.9432,27.80892],[84.94178,27.80707],[84.94079,27.80547],[84.93978,27.80432],[84.9388,27.80421],[84.93728,27.80451],[84.93665,27.80448],[84.93603,27.80428],[84.93345,27.80262],[84.93158,27.80112],[84.93083,27.80089],[84.92998,27.80005],[84.92783,27.79865],[84.92525,27.79752],[84.92413,27.79719],[84.92287,27.79704],[84.92034,27.79785],[84.91813,27.79962],[84.91717,27.80019],[84.91648,27.80037],[84.9144,27.80173],[84.91329,27.80371],[84.91298,27.80408],[84.91252,27.80435],[84.91196,27.8045],[84.90858,27.80335],[84.90689,27.80336],[84.90663,27.80364],[84.90652,27.80395],[84.90674,27.80506],[84.90648,27.80567],[84.90614,27.80613],[84.90482,27.80702],[84.90416,27.80704],[84.90186,27.80592],[84.89996,27.80573],[84.89333,27.80769],[84.892,27.80766],[84.89115,27.80787],[84.89048,27.80839],[84.88933,27.80889],[84.8883,27.80903],[84.88692,27.80893],[84.88524,27.80785],[84.88472,27.80774],[84.88253,27.80826],[84.88175,27.80924],[84.88108,27.80936],[84.87956,27.80843],[84.87864,27.80814],[84.87758,27.80795],[84.87505,27.80782],[84.87278,27.80677],[84.87221,27.80635],[84.87224,27.80587],[84.87273,27.80532],[84.87377,27.80454],[84.87375,27.80431],[84.87286,27.80327],[84.87115,27.80218],[84.87005,27.8017],[84.86881,27.80136],[84.86756,27.8014],[84.86536,27.80105],[84.86392,27.80158],[84.86257,27.80346],[84.86208,27.80398],[84.86193,27.80443],[84.86101,27.80571],[84.85983,27.80643],[84.85834,27.8069],[84.85619,27.80703],[84.85308,27.80783],[84.85088,27.80815],[84.85019,27.80813],[84.84933,27.80769],[84.84921,27.80648],[84.84877,27.80495],[84.8481,27.80423],[84.84685,27.80331],[84.84408,27.80182],[84.84271,27.8015],[84.83984,27.80131],[84.83901,27.8016],[84.83711,27.80422],[84.83517,27.80594],[84.83495,27.80585],[84.83357,27.80438],[84.8324,27.80291],[84.83082,27.80403],[84.83176,27.80548],[84.83313,27.80688],[84.83311,27.8072],[84.82727,27.80942],[84.82531,27.8112],[84.82475,27.81186],[84.82504,27.81349],[84.83121,27.81407],[84.83236,27.81303],[84.83346,27.81242],[84.83363,27.81253],[84.83369,27.81273],[84.83327,27.81391],[84.83177,27.81588],[84.82983,27.81736],[84.82646,27.81804],[84.82417,27.81702],[84.82256,27.81299],[84.82316,27.81083],[84.82353,27.80864],[84.82184,27.80695],[84.81827,27.8065],[84.81669,27.80808],[84.81612,27.80963],[84.81492,27.81148],[84.81322,27.81306],[84.80808,27.81639],[84.80639,27.81585],[84.80401,27.81427],[84.80266,27.81442],[84.79901,27.8139],[84.79572,27.81271],[84.79124,27.8118],[84.78946,27.81297],[84.78745,27.81398],[84.78551,27.8132],[84.78243,27.81291],[84.77964,27.81155],[84.77766,27.80952],[84.77602,27.8082],[84.77329,27.80792],[84.77059,27.80874],[84.76872,27.81047],[84.76804,27.81261],[84.76844,27.81485],[84.76677,27.81669],[84.76373,27.81754],[84.7612,27.81684],[84.75961,27.81476],[84.75744,27.8116],[84.75699,27.80904],[84.75495,27.80653],[84.75342,27.80502],[84.75102,27.80378],[84.7496,27.8029],[84.74872,27.80213],[84.74868,27.80186],[84.74933,27.80061],[84.74425,27.79943],[84.74208,27.80092],[84.73904,27.79944],[84.73917,27.80092],[84.74053,27.80256],[84.74202,27.80292],[84.74253,27.80294],[84.74272,27.80318],[84.74257,27.80344],[84.74207,27.80354],[84.7393,27.80349],[84.73866,27.80307],[84.738,27.80191],[84.73827,27.80004],[84.73779,27.79831],[84.73577,27.79662],[84.73296,27.79526],[84.72987,27.79515],[84.72744,27.79746],[84.72608,27.79923],[84.72494,27.79982],[84.72111,27.80087],[84.72017,27.80185],[84.71898,27.80234],[84.718,27.80214],[84.71653,27.80117],[84.71378,27.7997],[84.71039,27.79959],[84.70751,27.80155],[84.706,27.8041],[84.70459,27.80475],[84.70279,27.80619],[84.69967,27.80652],[84.69677,27.80659],[84.6955,27.80607],[84.6954,27.80589],[84.69543,27.80552],[84.69415,27.80571],[84.69424,27.80628],[84.6952,27.80724],[84.69525,27.8075],[84.69307,27.80877],[84.69144,27.80862],[84.68887,27.80929],[84.68616,27.80949],[84.68379,27.80989],[84.67937,27.81309],[84.67796,27.81383],[84.67604,27.81515],[84.67263,27.81617],[84.67067,27.81643],[84.6686,27.81545],[84.66867,27.81722],[84.6667,27.81811],[84.66627,27.81926],[84.66641,27.82085],[84.66695,27.8219],[84.66642,27.82304],[84.66565,27.82417],[84.66545,27.82419],[84.66473,27.82389],[84.66439,27.82427],[84.66467,27.82477],[84.66439,27.8252],[84.6615,27.8273],[84.65995,27.82943],[84.66018,27.83105],[84.66088,27.83273],[84.66192,27.8343],[84.66295,27.83653],[84.66319,27.84067],[84.66155,27.84229],[84.66105,27.84456],[84.66094,27.84644],[84.66043,27.84855],[84.65921,27.85016],[84.65708,27.85148],[84.65351,27.85204],[84.64977,27.8521],[84.64734,27.85283],[84.64641,27.85353],[84.6461,27.85529],[84.64794,27.85728],[84.64883,27.85884],[84.64872,27.85909],[84.64746,27.85989],[84.64626,27.86002],[84.64183,27.85932],[84.64017,27.8593],[84.6351,27.85973],[84.63279,27.86203],[84.63249,27.86351],[84.63268,27.86734],[84.63264,27.86859],[84.62862,27.87016],[84.62644,27.87203],[84.62538,27.87416],[84.62406,27.87604],[84.62284,27.8768],[84.62054,27.87754],[84.61936,27.87906],[84.61829,27.87874],[84.61758,27.87796],[84.61583,27.87658],[84.61543,27.87501],[84.61513,27.87309],[84.61381,27.87217],[84.61134,27.87129],[84.60746,27.87092],[84.6053,27.87142],[84.60433,27.872],[84.60351,27.87423],[84.60247,27.87507],[84.60075,27.8758],[84.59829,27.87574],[84.59687,27.87548],[84.59505,27.87593],[84.59372,27.8768],[84.59236,27.87824],[84.59062,27.87923],[84.58953,27.87904],[84.58731,27.87792],[84.58481,27.87593],[84.58098,27.87361],[84.57784,27.87133],[84.57713,27.87011],[84.5774,27.86828],[84.57801,27.86609],[84.57765,27.86415],[84.57512,27.8621],[84.57169,27.86024],[84.56738,27.85831],[84.56013,27.85761],[84.55905,27.85667],[84.55765,27.854],[84.55789,27.85063],[84.55884,27.8477],[84.55764,27.84844],[84.55689,27.84996],[84.55641,27.85125],[84.55644,27.85365],[84.55674,27.85485],[84.55701,27.85695],[84.55778,27.8578],[84.5579,27.85862],[84.55772,27.85888],[84.5564,27.8592]],[[84.74467,27.80344],[84.74459,27.8032],[84.74473,27.803],[84.74552,27.80298],[84.7488,27.80355],[84.74911,27.80401],[84.74888,27.80425],[84.747,27.80431],[84.74513,27.80383],[84.74467,27.80344]]]}}]}