{"type":"FeatureCollection","features":[{"type":"Feature","properties":{"name":"Debris-flow front, 26 Aug 2026 (times from DHM gauges)","length_km":200,"start":"2026-08-26T02:52:10Z","end":"2026-08-26T09:01:35Z","coordTimes":["2026-08-26T02:52:10Z","2026-08-26T02:52:12Z","2026-08-26T02:52:17Z","2026-08-26T02:52:19Z","2026-08-26T02:52:26Z","2026-08-26T02:52:30Z","2026-08-26T02:52:34Z","2026-08-26T02:52:38Z","2026-08-26T02:52:40Z","2026-08-26T02:52:44Z","2026-08-26T02:52:48Z","2026-08-26T02:52:53Z","2026-08-26T02:52:57Z","2026-08-26T02:53:06Z","2026-08-26T02:53:08Z","2026-08-26T02:53:11Z","2026-08-26T02:53:15Z","2026-08-26T02:53:20Z","2026-08-26T02:53:24Z","2026-08-26T02:53:29Z","2026-08-26T02:53:32Z","2026-08-26T02:53:36Z","2026-08-26T02:53:43Z","2026-08-26T02:53:49Z","2026-08-26T02:53:53Z","2026-08-26T02:53:56Z","2026-08-26T02:54:04Z","2026-08-26T02:54:06Z","2026-08-26T02:54:10Z","2026-08-26T02:54:12Z","2026-08-26T02:54:15Z","2026-08-26T02:54:19Z","2026-08-26T02:54:25Z","2026-08-26T02:54:27Z","2026-08-26T02:54:30Z","2026-08-26T02:54:33Z","2026-08-26T02:54:36Z","2026-08-26T02:54:37Z","2026-08-26T02:54:40Z","2026-08-26T02:54:41Z","2026-08-26T02:54:45Z","2026-08-26T02:54:48Z","2026-08-26T02:54:54Z","2026-08-26T02:54:59Z","2026-08-26T02:55:04Z","2026-08-26T02:55:14Z","2026-08-26T02:55:19Z","2026-08-26T02:55:23Z","2026-08-26T02:55:29Z","2026-08-26T02:55:31Z","2026-08-26T02:55:34Z","2026-08-26T02:55:37Z","2026-08-26T02:55:40Z","2026-08-26T02:55:44Z","2026-08-26T02:55:47Z","2026-08-26T02:55:50Z","2026-08-26T02:55:57Z","2026-08-26T02:56:01Z","2026-08-26T02:56:06Z","2026-08-26T02:56:10Z","2026-08-26T02:56:17Z","2026-08-26T02:56:21Z","2026-08-26T02:56:23Z","2026-08-26T02:56:32Z","2026-08-26T02:56:37Z","2026-08-26T02:56:39Z","2026-08-26T02:56:41Z","2026-08-26T02:56:43Z","2026-08-26T02:56:47Z","2026-08-26T02:56:49Z","2026-08-26T02:56:51Z","2026-08-26T02:56:56Z","2026-08-26T02:57:00Z","2026-08-26T02:57:03Z","2026-08-26T02:57:11Z","2026-08-26T02:57:15Z","2026-08-26T02:57:16Z","2026-08-26T02:57:18Z","2026-08-26T02:57:20Z","2026-08-26T02:57:21Z","2026-08-26T02:57:22Z","2026-08-26T02:57:26Z","2026-08-26T02:57:28Z","2026-08-26T02:57:30Z","2026-08-26T02:57:48Z","2026-08-26T02:57:54Z","2026-08-26T02:57:58Z","2026-08-26T02:58:02Z","2026-08-26T02:58:05Z","2026-08-26T02:58:10Z","2026-08-26T02:58:13Z","2026-08-26T02:58:21Z","2026-08-26T02:58:26Z","2026-08-26T02:58:39Z","2026-08-26T02:58:49Z","2026-08-26T02:59:06Z","2026-08-26T02:59:21Z","2026-08-26T02:59:24Z","2026-08-26T02:59:38Z","2026-08-26T02:59:43Z","2026-08-26T02:59:50Z","2026-08-26T02:59:52Z","2026-08-26T02:59:56Z","2026-08-26T03:00:07Z","2026-08-26T03:00:15Z","2026-08-26T03:00:22Z","2026-08-26T03:00:28Z","2026-08-26T03:00:32Z","2026-08-26T03:00:45Z","2026-08-26T03:00:52Z","2026-08-26T03:01:00Z","2026-08-26T03:01:06Z","2026-08-26T03:01:18Z","2026-08-26T03:01:25Z","2026-08-26T03:01:33Z","2026-08-26T03:01:39Z","2026-08-26T03:01:47Z","2026-08-26T03:01:50Z","2026-08-26T03:02:05Z","2026-08-26T03:02:28Z","2026-08-26T03:02:36Z","2026-08-26T03:02:41Z","2026-08-26T03:02:49Z","2026-08-26T03:03:02Z","2026-08-26T03:03:13Z","2026-08-26T03:03:20Z","2026-08-26T03:03:29Z","2026-08-26T03:03:36Z","2026-08-26T03:03:45Z","2026-08-26T03:04:11Z","2026-08-26T03:04:22Z","2026-08-26T03:04:31Z","2026-08-26T03:04:43Z","2026-08-26T03:04:52Z","2026-08-26T03:05:03Z","2026-08-26T03:05:06Z","2026-08-26T03:05:18Z","2026-08-26T03:05:31Z","2026-08-26T03:05:40Z","2026-08-26T03:05:51Z","2026-08-26T03:05:55Z","2026-08-26T03:06:08Z","2026-08-26T03:06:26Z","2026-08-26T03:06:37Z","2026-08-26T03:06:47Z","2026-08-26T03:07:04Z","2026-08-26T03:07:14Z","2026-08-26T03:07:23Z","2026-08-26T03:07:33Z","2026-08-26T03:07:45Z","2026-08-26T03:07:55Z","2026-08-26T03:08:05Z","2026-08-26T03:08:14Z","2026-08-26T03:08:20Z","2026-08-26T03:08:35Z","2026-08-26T03:08:44Z","2026-08-26T03:08:53Z","2026-08-26T03:09:07Z","2026-08-26T03:09:26Z","2026-08-26T03:09:35Z","2026-08-26T03:09:38Z","2026-08-26T03:09:43Z","2026-08-26T03:09:49Z","2026-08-26T03:09:57Z","2026-08-26T03:10:10Z","2026-08-26T03:10:15Z","2026-08-26T03:10:23Z","2026-08-26T03:10:27Z","2026-08-26T03:10:37Z","2026-08-26T03:10:47Z","2026-08-26T03:10:56Z","2026-08-26T03:11:07Z","2026-08-26T03:11:33Z","2026-08-26T03:11:46Z","2026-08-26T03:11:58Z","2026-08-26T03:12:09Z","2026-08-26T03:12:31Z","2026-08-26T03:12:41Z","2026-08-26T03:12:54Z","2026-08-26T03:13:11Z","2026-08-26T03:13:18Z","2026-08-26T03:13:29Z","2026-08-26T03:13:35Z","2026-08-26T03:13:39Z","2026-08-26T03:13:49Z","2026-08-26T03:13:54Z","2026-08-26T03:14:06Z","2026-08-26T03:14:23Z","2026-08-26T03:14:40Z","2026-08-26T03:15:01Z","2026-08-26T03:15:16Z","2026-08-26T03:15:22Z","2026-08-26T03:15:32Z","2026-08-26T03:15:35Z","2026-08-26T03:15:49Z","2026-08-26T03:15:59Z","2026-08-26T03:16:20Z","2026-08-26T03:16:35Z","2026-08-26T03:16:47Z","2026-08-26T03:16:59Z","2026-08-26T03:17:06Z","2026-08-26T03:17:20Z","2026-08-26T03:17:51Z","2026-08-26T03:17:55Z","2026-08-26T03:18:05Z","2026-08-26T03:18:16Z","2026-08-26T03:18:34Z","2026-08-26T03:18:41Z","2026-08-26T03:19:10Z","2026-08-26T03:19:23Z","2026-08-26T03:19:43Z","2026-08-26T03:19:51Z","2026-08-26T03:20:00Z","2026-08-26T03:20:10Z","2026-08-26T03:20:32Z","2026-08-26T03:20:44Z","2026-08-26T03:20:54Z","2026-08-26T03:21:06Z","2026-08-26T03:21:11Z","2026-08-26T03:21:18Z","2026-08-26T03:21:28Z","2026-08-26T03:21:40Z","2026-08-26T03:21:54Z","2026-08-26T03:22:03Z","2026-08-26T03:22:25Z","2026-08-26T03:22:44Z","2026-08-26T03:22:56Z","2026-08-26T03:23:11Z","2026-08-26T03:23:42Z","2026-08-26T03:24:04Z","2026-08-26T03:24:09Z","2026-08-26T03:24:19Z","2026-08-26T03:24:31Z","2026-08-26T03:24:41Z","2026-08-26T03:24:50Z","2026-08-26T03:25:20Z","2026-08-26T03:25:28Z","2026-08-26T03:25:40Z","2026-08-26T03:26:09Z","2026-08-26T03:26:23Z","2026-08-26T03:26:43Z","2026-08-26T03:26:54Z","2026-08-26T03:26:59Z","2026-08-26T03:27:07Z","2026-08-26T03:27:13Z","2026-08-26T03:27:20Z","2026-08-26T03:27:24Z","2026-08-26T03:27:31Z","2026-08-26T03:27:44Z","2026-08-26T03:27:49Z","2026-08-26T03:27:58Z","2026-08-26T03:28:13Z","2026-08-26T03:28:24Z","2026-08-26T03:28:46Z","2026-08-26T03:28:57Z","2026-08-26T03:29:08Z","2026-08-26T03:29:17Z","2026-08-26T03:29:27Z","2026-08-26T03:29:38Z","2026-08-26T03:29:53Z","2026-08-26T03:30:06Z","2026-08-26T03:30:23Z","2026-08-26T03:30:37Z","2026-08-26T03:31:21Z","2026-08-26T03:31:32Z","2026-08-26T03:31:36Z","2026-08-26T03:31:50Z","2026-08-26T03:32:01Z","2026-08-26T03:32:09Z","2026-08-26T03:32:15Z","2026-08-26T03:32:24Z","2026-08-26T03:32:45Z","2026-08-26T03:32:51Z","2026-08-26T03:33:00Z","2026-08-26T03:33:08Z","2026-08-26T03:33:17Z","2026-08-26T03:33:26Z","2026-08-26T03:33:36Z","2026-08-26T03:33:45Z","2026-08-26T03:33:51Z","2026-08-26T03:33:56Z","2026-08-26T03:34:01Z","2026-08-26T03:34:17Z","2026-08-26T03:34:34Z","2026-08-26T03:34:40Z","2026-08-26T03:34:50Z","2026-08-26T03:34:59Z","2026-08-26T03:35:11Z","2026-08-26T03:35:22Z","2026-08-26T03:35:40Z","2026-08-26T03:35:53Z","2026-08-26T03:36:03Z","2026-08-26T03:36:23Z","2026-08-26T03:36:41Z","2026-08-26T03:36:53Z","2026-08-26T03:36:59Z","2026-08-26T03:37:11Z","2026-08-26T03:37:27Z","2026-08-26T03:37:32Z","2026-08-26T03:37:37Z","2026-08-26T03:37:47Z","2026-08-26T03:37:53Z","2026-08-26T03:37:58Z","2026-08-26T03:38:09Z","2026-08-26T03:38:14Z","2026-08-26T03:38:17Z","2026-08-26T03:38:33Z","2026-08-26T03:38:59Z","2026-08-26T03:39:27Z","2026-08-26T03:39:56Z","2026-08-26T03:40:22Z","2026-08-26T03:40:27Z","2026-08-26T03:40:34Z","2026-08-26T03:40:43Z","2026-08-26T03:40:49Z","2026-08-26T03:41:16Z","2026-08-26T03:41:28Z","2026-08-26T03:41:41Z","2026-08-26T03:42:07Z","2026-08-26T03:42:18Z","2026-08-26T03:42:33Z","2026-08-26T03:43:12Z","2026-08-26T03:43:37Z","2026-08-26T03:43:54Z","2026-08-26T03:44:28Z","2026-08-26T03:44:47Z","2026-08-26T03:45:01Z","2026-08-26T03:45:25Z","2026-08-26T03:45:39Z","2026-08-26T03:45:48Z","2026-08-26T03:46:00Z","2026-08-26T03:46:37Z","2026-08-26T03:46:55Z","2026-08-26T03:47:08Z","2026-08-26T03:47:47Z","2026-08-26T03:48:19Z","2026-08-26T03:48:47Z","2026-08-26T03:49:34Z","2026-08-26T03:49:57Z","2026-08-26T03:50:16Z","2026-08-26T03:50:22Z","2026-08-26T03:50:34Z","2026-08-26T03:50:42Z","2026-08-26T03:51:09Z","2026-08-26T03:51:14Z","2026-08-26T03:51:22Z","2026-08-26T03:51:32Z","2026-08-26T03:51:54Z","2026-08-26T03:52:12Z","2026-08-26T03:52:18Z","2026-08-26T03:52:44Z","2026-08-26T03:53:12Z","2026-08-26T03:53:29Z","2026-08-26T03:53:40Z","2026-08-26T03:53:47Z","2026-08-26T03:54:20Z","2026-08-26T03:55:03Z","2026-08-26T03:55:12Z","2026-08-26T03:55:36Z","2026-08-26T03:55:53Z","2026-08-26T03:56:45Z","2026-08-26T03:56:53Z","2026-08-26T03:57:00Z","2026-08-26T03:57:07Z","2026-08-26T03:57:15Z","2026-08-26T03:57:59Z","2026-08-26T03:58:16Z","2026-08-26T03:58:35Z","2026-08-26T03:58:58Z","2026-08-26T03:59:25Z","2026-08-26T03:59:37Z","2026-08-26T03:59:47Z","2026-08-26T03:59:56Z","2026-08-26T04:00:08Z","2026-08-26T04:00:33Z","2026-08-26T04:00:39Z","2026-08-26T04:00:46Z","2026-08-26T04:01:03Z","2026-08-26T04:01:28Z","2026-08-26T04:01:42Z","2026-08-26T04:01:57Z","2026-08-26T04:02:40Z","2026-08-26T04:02:51Z","2026-08-26T04:02:57Z","2026-08-26T04:03:07Z","2026-08-26T04:03:28Z","2026-08-26T04:04:30Z","2026-08-26T04:04:59Z","2026-08-26T04:05:10Z","2026-08-26T04:05:25Z","2026-08-26T04:05:39Z","2026-08-26T04:06:01Z","2026-08-26T04:06:19Z","2026-08-26T04:06:33Z","2026-08-26T04:06:41Z","2026-08-26T04:06:52Z","2026-08-26T04:07:23Z","2026-08-26T04:08:44Z","2026-08-26T04:09:10Z","2026-08-26T04:10:19Z","2026-08-26T04:10:55Z","2026-08-26T04:11:19Z","2026-08-26T04:11:26Z","2026-08-26T04:11:40Z","2026-08-26T04:12:15Z","2026-08-26T04:13:10Z","2026-08-26T04:13:44Z","2026-08-26T04:14:13Z","2026-08-26T04:14:24Z","2026-08-26T04:14:29Z","2026-08-26T04:14:39Z","2026-08-26T04:14:59Z","2026-08-26T04:15:13Z","2026-08-26T04:15:32Z","2026-08-26T04:16:34Z","2026-08-26T04:16:53Z","2026-08-26T04:17:27Z","2026-08-26T04:17:39Z","2026-08-26T04:17:51Z","2026-08-26T04:18:09Z","2026-08-26T04:18:21Z","2026-08-26T04:19:29Z","2026-08-26T04:19:51Z","2026-08-26T04:20:17Z","2026-08-26T04:20:28Z","2026-08-26T04:20:34Z","2026-08-26T04:20:46Z","2026-08-26T04:21:03Z","2026-08-26T04:21:35Z","2026-08-26T04:21:47Z","2026-08-26T04:22:13Z","2026-08-26T04:22:40Z","2026-08-26T04:22:59Z","2026-08-26T04:23:12Z","2026-08-26T04:23:46Z","2026-08-26T04:24:15Z","2026-08-26T04:24:25Z","2026-08-26T04:24:33Z","2026-08-26T04:24:50Z","2026-08-26T04:25:09Z","2026-08-26T04:25:20Z","2026-08-26T04:25:52Z","2026-08-26T04:26:07Z","2026-08-26T04:26:25Z","2026-08-26T04:26:32Z","2026-08-26T04:26:49Z","2026-08-26T04:27:28Z","2026-08-26T04:27:46Z","2026-08-26T04:28:23Z","2026-08-26T04:28:56Z","2026-08-26T04:29:22Z","2026-08-26T04:29:36Z","2026-08-26T04:29:41Z","2026-08-26T04:29:47Z","2026-08-26T04:30:03Z","2026-08-26T04:31:14Z","2026-08-26T04:31:42Z","2026-08-26T04:32:01Z","2026-08-26T04:33:02Z","2026-08-26T04:33:27Z","2026-08-26T04:33:33Z","2026-08-26T04:34:08Z","2026-08-26T04:34:31Z","2026-08-26T04:34:47Z","2026-08-26T04:34:55Z","2026-08-26T04:35:37Z","2026-08-26T04:36:15Z","2026-08-26T04:36:27Z","2026-08-26T04:36:38Z","2026-08-26T04:36:50Z","2026-08-26T04:36:59Z","2026-08-26T04:37:13Z","2026-08-26T04:37:21Z","2026-08-26T04:37:28Z","2026-08-26T04:37:38Z","2026-08-26T04:38:34Z","2026-08-26T04:38:59Z","2026-08-26T04:39:27Z","2026-08-26T04:40:06Z","2026-08-26T04:40:17Z","2026-08-26T04:40:44Z","2026-08-26T04:42:11Z","2026-08-26T04:42:45Z","2026-08-26T04:43:21Z","2026-08-26T04:43:32Z","2026-08-26T04:43:42Z","2026-08-26T04:44:33Z","2026-08-26T04:44:55Z","2026-08-26T04:45:06Z","2026-08-26T04:45:27Z","2026-08-26T04:45:57Z","2026-08-26T04:47:07Z","2026-08-26T04:47:26Z","2026-08-26T04:47:58Z","2026-08-26T04:48:56Z","2026-08-26T04:49:50Z","2026-08-26T04:50:20Z","2026-08-26T04:50:43Z","2026-08-26T04:50:59Z","2026-08-26T04:51:30Z","2026-08-26T04:51:38Z","2026-08-26T04:51:49Z","2026-08-26T04:52:21Z","2026-08-26T04:52:45Z","2026-08-26T04:53:05Z","2026-08-26T04:54:07Z","2026-08-26T04:54:28Z","2026-08-26T04:54:39Z","2026-08-26T04:54:51Z","2026-08-26T04:55:30Z","2026-08-26T04:55:45Z","2026-08-26T04:55:55Z","2026-08-26T04:57:02Z","2026-08-26T04:57:41Z","2026-08-26T04:58:06Z","2026-08-26T04:58:33Z","2026-08-26T04:59:23Z","2026-08-26T04:59:39Z","2026-08-26T05:00:09Z","2026-08-26T05:01:10Z","2026-08-26T05:01:42Z","2026-08-26T05:01:59Z","2026-08-26T05:02:38Z","2026-08-26T05:02:50Z","2026-08-26T05:03:37Z","2026-08-26T05:04:00Z","2026-08-26T05:04:13Z","2026-08-26T05:05:09Z","2026-08-26T05:05:58Z","2026-08-26T05:07:07Z","2026-08-26T05:08:02Z","2026-08-26T05:08:39Z","2026-08-26T05:08:59Z","2026-08-26T05:09:35Z","2026-08-26T05:09:49Z","2026-08-26T05:10:00Z","2026-08-26T05:10:39Z","2026-08-26T05:11:56Z","2026-08-26T05:14:28Z","2026-08-26T05:15:04Z","2026-08-26T05:15:24Z","2026-08-26T05:15:52Z","2026-08-26T05:17:10Z","2026-08-26T05:17:48Z","2026-08-26T05:18:12Z","2026-08-26T05:18:36Z","2026-08-26T05:19:25Z","2026-08-26T05:19:46Z","2026-08-26T05:20:08Z","2026-08-26T05:21:24Z","2026-08-26T05:21:43Z","2026-08-26T05:22:01Z","2026-08-26T05:22:39Z","2026-08-26T05:22:54Z","2026-08-26T05:23:09Z","2026-08-26T05:23:35Z","2026-08-26T05:25:02Z","2026-08-26T05:25:33Z","2026-08-26T05:26:18Z","2026-08-26T05:27:09Z","2026-08-26T05:28:10Z","2026-08-26T05:29:06Z","2026-08-26T05:29:37Z","2026-08-26T05:30:06Z","2026-08-26T05:30:49Z","2026-08-26T05:31:08Z","2026-08-26T05:31:25Z","2026-08-26T05:31:58Z","2026-08-26T05:32:15Z","2026-08-26T05:33:24Z","2026-08-26T05:34:40Z","2026-08-26T05:35:06Z","2026-08-26T05:35:27Z","2026-08-26T05:35:40Z","2026-08-26T05:36:00Z","2026-08-26T05:36:35Z","2026-08-26T05:36:46Z","2026-08-26T05:36:59Z","2026-08-26T05:38:04Z","2026-08-26T05:39:13Z","2026-08-26T05:39:28Z","2026-08-26T05:39:52Z","2026-08-26T05:41:21Z","2026-08-26T05:41:54Z","2026-08-26T05:42:14Z","2026-08-26T05:42:53Z","2026-08-26T05:43:58Z","2026-08-26T05:45:09Z","2026-08-26T05:45:44Z","2026-08-26T05:46:03Z","2026-08-26T05:46:24Z","2026-08-26T05:47:11Z","2026-08-26T05:47:24Z","2026-08-26T05:47:43Z","2026-08-26T05:48:17Z","2026-08-26T05:49:14Z","2026-08-26T05:49:38Z","2026-08-26T05:50:19Z","2026-08-26T05:50:40Z","2026-08-26T05:51:15Z","2026-08-26T05:51:38Z","2026-08-26T05:52:22Z","2026-08-26T05:53:47Z","2026-08-26T05:54:14Z","2026-08-26T05:55:08Z","2026-08-26T05:55:41Z","2026-08-26T05:56:38Z","2026-08-26T05:57:37Z","2026-08-26T05:58:09Z","2026-08-26T05:58:44Z","2026-08-26T05:59:03Z","2026-08-26T05:59:29Z","2026-08-26T05:59:49Z","2026-08-26T06:00:12Z","2026-08-26T06:00:41Z","2026-08-26T06:01:30Z","2026-08-26T06:01:48Z","2026-08-26T06:02:11Z","2026-08-26T06:02:20Z","2026-08-26T06:02:28Z","2026-08-26T06:02:38Z","2026-08-26T06:02:59Z","2026-08-26T06:03:07Z","2026-08-26T06:03:12Z","2026-08-26T06:03:25Z","2026-08-26T06:03:38Z","2026-08-26T06:04:05Z","2026-08-26T06:04:12Z","2026-08-26T06:04:22Z","2026-08-26T06:04:30Z","2026-08-26T06:04:52Z","2026-08-26T06:05:14Z","2026-08-26T06:05:24Z","2026-08-26T06:05:48Z","2026-08-26T06:06:01Z","2026-08-26T06:06:11Z","2026-08-26T06:06:46Z","2026-08-26T06:07:20Z","2026-08-26T06:07:29Z","2026-08-26T06:08:12Z","2026-08-26T06:08:58Z","2026-08-26T06:09:06Z","2026-08-26T06:09:16Z","2026-08-26T06:09:38Z","2026-08-26T06:09:49Z","2026-08-26T06:10:49Z","2026-08-26T06:11:27Z","2026-08-26T06:12:25Z","2026-08-26T06:12:33Z","2026-08-26T06:12:43Z","2026-08-26T06:12:51Z","2026-08-26T06:13:15Z","2026-08-26T06:13:29Z","2026-08-26T06:13:42Z","2026-08-26T06:13:50Z","2026-08-26T06:13:59Z","2026-08-26T06:14:20Z","2026-08-26T06:14:26Z","2026-08-26T06:14:32Z","2026-08-26T06:15:19Z","2026-08-26T06:15:30Z","2026-08-26T06:15:38Z","2026-08-26T06:16:00Z","2026-08-26T06:16:19Z","2026-08-26T06:16:38Z","2026-08-26T06:16:52Z","2026-08-26T06:17:03Z","2026-08-26T06:17:13Z","2026-08-26T06:17:47Z","2026-08-26T06:18:03Z","2026-08-26T06:18:11Z","2026-08-26T06:18:30Z","2026-08-26T06:18:56Z","2026-08-26T06:19:12Z","2026-08-26T06:19:23Z","2026-08-26T06:19:33Z","2026-08-26T06:19:53Z","2026-08-26T06:20:03Z","2026-08-26T06:20:11Z","2026-08-26T06:20:25Z","2026-08-26T06:20:35Z","2026-08-26T06:20:51Z","2026-08-26T06:21:20Z","2026-08-26T06:21:33Z","2026-08-26T06:21:46Z","2026-08-26T06:21:59Z","2026-08-26T06:22:12Z","2026-08-26T06:22:33Z","2026-08-26T06:22:43Z","2026-08-26T06:22:49Z","2026-08-26T06:23:15Z","2026-08-26T06:23:42Z","2026-08-26T06:23:51Z","2026-08-26T06:24:02Z","2026-08-26T06:24:14Z","2026-08-26T06:24:42Z","2026-08-26T06:24:52Z","2026-08-26T06:25:02Z","2026-08-26T06:25:12Z","2026-08-26T06:25:39Z","2026-08-26T06:25:58Z","2026-08-26T06:26:05Z","2026-08-26T06:26:44Z","2026-08-26T06:26:51Z","2026-08-26T06:26:56Z","2026-08-26T06:27:12Z","2026-08-26T06:27:42Z","2026-08-26T06:28:03Z","2026-08-26T06:28:23Z","2026-08-26T06:28:40Z","2026-08-26T06:28:56Z","2026-08-26T06:29:07Z","2026-08-26T06:29:35Z","2026-08-26T06:29:47Z","2026-08-26T06:29:55Z","2026-08-26T06:30:06Z","2026-08-26T06:30:43Z","2026-08-26T06:31:36Z","2026-08-26T06:32:23Z","2026-08-26T06:32:51Z","2026-08-26T06:33:19Z","2026-08-26T06:33:52Z","2026-08-26T06:34:06Z","2026-08-26T06:34:31Z","2026-08-26T06:35:07Z","2026-08-26T06:35:28Z","2026-08-26T06:35:40Z","2026-08-26T06:36:04Z","2026-08-26T06:36:42Z","2026-08-26T06:36:55Z","2026-08-26T06:37:13Z","2026-08-26T06:37:28Z","2026-08-26T06:37:37Z","2026-08-26T06:37:52Z","2026-08-26T06:38:01Z","2026-08-26T06:38:26Z","2026-08-26T06:38:41Z","2026-08-26T06:39:35Z","2026-08-26T06:39:46Z","2026-08-26T06:40:02Z","2026-08-26T06:40:23Z","2026-08-26T06:41:08Z","2026-08-26T06:41:43Z","2026-08-26T06:42:02Z","2026-08-26T06:42:09Z","2026-08-26T06:42:50Z","2026-08-26T06:43:38Z","2026-08-26T06:43:59Z","2026-08-26T06:44:26Z","2026-08-26T06:44:45Z","2026-08-26T06:45:00Z","2026-08-26T06:46:00Z","2026-08-26T06:46:12Z","2026-08-26T06:46:23Z","2026-08-26T06:46:32Z","2026-08-26T06:46:44Z","2026-08-26T06:47:21Z","2026-08-26T06:47:33Z","2026-08-26T06:47:42Z","2026-08-26T06:48:01Z","2026-08-26T06:48:15Z","2026-08-26T06:48:36Z","2026-08-26T06:49:05Z","2026-08-26T06:49:36Z","2026-08-26T06:50:02Z","2026-08-26T06:50:18Z","2026-08-26T06:50:25Z","2026-08-26T06:50:36Z","2026-08-26T06:51:22Z","2026-08-26T06:51:42Z","2026-08-26T06:51:55Z","2026-08-26T06:52:05Z","2026-08-26T06:52:39Z","2026-08-26T06:53:07Z","2026-08-26T06:53:15Z","2026-08-26T06:53:23Z","2026-08-26T06:53:42Z","2026-08-26T06:54:09Z","2026-08-26T06:54:22Z","2026-08-26T06:54:40Z","2026-08-26T06:54:57Z","2026-08-26T06:55:17Z","2026-08-26T06:55:35Z","2026-08-26T06:55:49Z","2026-08-26T06:56:01Z","2026-08-26T06:56:23Z","2026-08-26T06:56:46Z","2026-08-26T06:57:00Z","2026-08-26T06:57:09Z","2026-08-26T06:57:31Z","2026-08-26T06:57:43Z","2026-08-26T06:57:51Z","2026-08-26T06:58:12Z","2026-08-26T06:58:33Z","2026-08-26T06:58:53Z","2026-08-26T06:59:04Z","2026-08-26T06:59:16Z","2026-08-26T06:59:26Z","2026-08-26T06:59:50Z","2026-08-26T06:59:58Z","2026-08-26T07:00:09Z","2026-08-26T07:00:23Z","2026-08-26T07:00:40Z","2026-08-26T07:01:01Z","2026-08-26T07:01:08Z","2026-08-26T07:01:33Z","2026-08-26T07:02:14Z","2026-08-26T07:02:30Z","2026-08-26T07:02:38Z","2026-08-26T07:03:11Z","2026-08-26T07:03:35Z","2026-08-26T07:03:46Z","2026-08-26T07:04:29Z","2026-08-26T07:05:12Z","2026-08-26T07:05:28Z","2026-08-26T07:05:41Z","2026-08-26T07:05:51Z","2026-08-26T07:06:16Z","2026-08-26T07:06:28Z","2026-08-26T07:06:37Z","2026-08-26T07:06:49Z","2026-08-26T07:07:11Z","2026-08-26T07:07:38Z","2026-08-26T07:07:48Z","2026-08-26T07:08:52Z","2026-08-26T07:09:25Z","2026-08-26T07:10:03Z","2026-08-26T07:10:24Z","2026-08-26T07:10:53Z","2026-08-26T07:11:29Z","2026-08-26T07:12:19Z","2026-08-26T07:12:48Z","2026-08-26T07:13:48Z","2026-08-26T07:14:50Z","2026-08-26T07:15:49Z","2026-08-26T07:16:38Z","2026-08-26T07:17:05Z","2026-08-26T07:17:40Z","2026-08-26T07:18:03Z","2026-08-26T07:19:49Z","2026-08-26T07:20:27Z","2026-08-26T07:20:52Z","2026-08-26T07:21:13Z","2026-08-26T07:21:45Z","2026-08-26T07:22:34Z","2026-08-26T07:23:07Z","2026-08-26T07:23:20Z","2026-08-26T07:23:48Z","2026-08-26T07:24:35Z","2026-08-26T07:26:20Z","2026-08-26T07:27:18Z","2026-08-26T07:27:48Z","2026-08-26T07:28:34Z","2026-08-26T07:28:57Z","2026-08-26T07:29:25Z","2026-08-26T07:30:36Z","2026-08-26T07:31:14Z","2026-08-26T07:32:10Z","2026-08-26T07:33:32Z","2026-08-26T07:33:58Z","2026-08-26T07:34:22Z","2026-08-26T07:34:54Z","2026-08-26T07:35:59Z","2026-08-26T07:36:23Z","2026-08-26T07:37:15Z","2026-08-26T07:38:05Z","2026-08-26T07:38:44Z","2026-08-26T07:39:26Z","2026-08-26T07:40:18Z","2026-08-26T07:41:03Z","2026-08-26T07:41:14Z","2026-08-26T07:41:57Z","2026-08-26T07:42:14Z","2026-08-26T07:42:33Z","2026-08-26T07:43:26Z","2026-08-26T07:44:05Z","2026-08-26T07:45:35Z","2026-08-26T07:46:20Z","2026-08-26T07:47:17Z","2026-08-26T07:48:49Z","2026-08-26T07:49:28Z","2026-08-26T07:50:11Z","2026-08-26T07:50:25Z","2026-08-26T07:50:39Z","2026-08-26T07:51:18Z","2026-08-26T07:51:41Z","2026-08-26T07:52:04Z","2026-08-26T07:52:22Z","2026-08-26T07:53:02Z","2026-08-26T07:53:45Z","2026-08-26T07:54:45Z","2026-08-26T07:56:00Z","2026-08-26T07:57:10Z","2026-08-26T07:58:00Z","2026-08-26T07:58:20Z","2026-08-26T07:58:36Z","2026-08-26T07:59:36Z","2026-08-26T08:00:05Z","2026-08-26T08:00:40Z","2026-08-26T08:01:02Z","2026-08-26T08:01:41Z","2026-08-26T08:02:19Z","2026-08-26T08:02:35Z","2026-08-26T08:03:20Z","2026-08-26T08:03:41Z","2026-08-26T08:04:01Z","2026-08-26T08:04:48Z","2026-08-26T08:05:44Z","2026-08-26T08:07:12Z","2026-08-26T08:08:40Z","2026-08-26T08:10:48Z","2026-08-26T08:11:21Z","2026-08-26T08:11:52Z","2026-08-26T08:13:14Z","2026-08-26T08:13:55Z","2026-08-26T08:15:53Z","2026-08-26T08:16:26Z","2026-08-26T08:16:54Z","2026-08-26T08:18:41Z","2026-08-26T08:19:56Z","2026-08-26T08:20:30Z","2026-08-26T08:22:04Z","2026-08-26T08:22:36Z","2026-08-26T08:23:20Z","2026-08-26T08:24:26Z","2026-08-26T08:25:18Z","2026-08-26T08:25:55Z","2026-08-26T08:26:24Z","2026-08-26T08:27:07Z","2026-08-26T08:28:07Z","2026-08-26T08:30:03Z","2026-08-26T08:30:32Z","2026-08-26T08:31:05Z","2026-08-26T08:31:18Z","2026-08-26T08:31:29Z","2026-08-26T08:31:48Z","2026-08-26T08:32:12Z","2026-08-26T08:33:06Z","2026-08-26T08:33:42Z","2026-08-26T08:34:38Z","2026-08-26T08:35:49Z","2026-08-26T08:36:11Z","2026-08-26T08:36:29Z","2026-08-26T08:36:53Z","2026-08-26T08:37:15Z","2026-08-26T08:37:51Z","2026-08-26T08:38:22Z","2026-08-26T08:38:51Z","2026-08-26T08:39:13Z","2026-08-26T08:39:56Z","2026-08-26T08:41:15Z","2026-08-26T08:42:01Z","2026-08-26T08:42:27Z","2026-08-26T08:43:45Z","2026-08-26T08:44:57Z","2026-08-26T08:45:27Z","2026-08-26T08:46:09Z","2026-08-26T08:46:49Z","2026-08-26T08:47:21Z","2026-08-26T08:47:47Z","2026-08-26T08:48:13Z","2026-08-26T08:48:46Z","2026-08-26T08:49:04Z","2026-08-26T08:49:38Z","2026-08-26T08:49:57Z","2026-08-26T08:50:13Z","2026-08-26T08:50:21Z","2026-08-26T08:50:32Z","2026-08-26T08:50:48Z","2026-08-26T08:51:51Z","2026-08-26T08:52:13Z","2026-08-26T08:52:45Z","2026-08-26T08:53:09Z","2026-08-26T08:53:30Z","2026-08-26T08:53:43Z","2026-08-26T08:54:17Z","2026-08-26T08:54:27Z","2026-08-26T08:54:42Z","2026-08-26T08:55:02Z","2026-08-26T08:55:35Z","2026-08-26T08:55:57Z","2026-08-26T08:56:10Z","2026-08-26T08:56:20Z","2026-08-26T08:56:30Z","2026-08-26T08:57:18Z","2026-08-26T08:57:26Z","2026-08-26T08:57:44Z","2026-08-26T08:57:50Z","2026-08-26T08:57:55Z","2026-08-26T08:58:10Z","2026-08-26T08:58:29Z","2026-08-26T08:58:44Z","2026-08-26T08:59:33Z","2026-08-26T09:01:08Z","2026-08-26T09:01:29Z","2026-08-26T09:01:35Z"],"stroke":"#7c2d12","stroke-width":2,"stroke-opacity":0.5},"geometry":{"type":"LineString","coordinates":[[85.51571,28.27078],[85.51506,28.27129],[85.51391,28.27398],[85.5137,28.27495],[85.51344,28.27818],[85.51424,28.28011],[85.51412,28.28209],[85.51445,28.28408],[85.51444,28.28497],[85.5139,28.28683],[85.51278,28.28867],[85.51265,28.29084],[85.5121,28.29253],[85.50922,28.29646],[85.50844,28.29707],[85.50722,28.29842],[85.50632,28.30014],[85.50453,28.30168],[85.50334,28.30367],[85.50209,28.30533],[85.50076,28.3066],[85.49964,28.30799],[85.49748,28.31119],[85.49509,28.31313],[85.49293,28.31386],[85.49173,28.31453],[85.48825,28.31741],[85.488,28.3184],[85.48875,28.31996],[85.48867,28.32078],[85.48769,28.32237],[85.48621,28.32371],[85.48469,28.32604],[85.48463,28.32713],[85.48525,28.32852],[85.48563,28.33018],[85.48568,28.33137],[85.4854,28.33203],[85.48432,28.33278],[85.48337,28.33302],[85.48115,28.33279],[85.48002,28.33302],[85.47637,28.33305],[85.4738,28.33361],[85.47108,28.33382],[85.46566,28.33567],[85.46302,28.33591],[85.46095,28.33665],[85.45741,28.33657],[85.45639,28.3362],[85.4548,28.33605],[85.45321,28.33545],[85.4518,28.3354],[85.44952,28.33504],[85.4478,28.33509],[85.44616,28.33552],[85.44245,28.33522],[85.44012,28.33535],[85.43758,28.33487],[85.43541,28.33386],[85.43255,28.33155],[85.43097,28.33062],[85.42944,28.33037],[85.42467,28.33029],[85.42174,28.32976],[85.42116,28.32951],[85.42035,28.32856],[85.41938,28.32796],[85.41762,28.32724],[85.41631,28.32732],[85.41529,28.32672],[85.41365,28.32485],[85.41293,28.32319],[85.4129,28.32163],[85.4135,28.31762],[85.41345,28.31576],[85.41367,28.31529],[85.41376,28.31411],[85.41359,28.31351],[85.41322,28.31317],[85.41307,28.31255],[85.41214,28.31074],[85.41213,28.30951],[85.41178,28.30878],[85.40478,28.30283],[85.40192,28.30116],[85.40021,28.29958],[85.39855,28.29842],[85.39759,28.29705],[85.397,28.29495],[85.39628,28.2935],[85.39371,28.29089],[85.39239,28.28933],[85.38816,28.28636],[85.3847,28.28478],[85.38069,28.28074],[85.37703,28.27798],[85.37685,28.27715],[85.37748,28.27339],[85.37729,28.27209],[85.37748,28.27043],[85.37725,28.26986],[85.37653,28.26916],[85.37549,28.2667],[85.37392,28.26547],[85.37277,28.26431],[85.37241,28.26295],[85.37198,28.26223],[85.36993,28.26022],[85.36855,28.25911],[85.36691,28.25854],[85.36585,28.25774],[85.36516,28.25543],[85.36493,28.25413],[85.36494,28.25251],[85.3646,28.25134],[85.36467,28.24989],[85.36446,28.24921],[85.36294,28.24666],[85.35905,28.24368],[85.35812,28.24239],[85.35785,28.24137],[85.358,28.23991],[85.35791,28.23734],[85.35868,28.23536],[85.35951,28.23406],[85.36029,28.23238],[85.3604,28.2311],[85.3609,28.22948],[85.36107,28.22423],[85.36032,28.2222],[85.35887,28.22095],[85.35717,28.21909],[85.35599,28.21766],[85.35483,28.2159],[85.35467,28.21525],[85.35473,28.21294],[85.35417,28.21046],[85.35426,28.20868],[85.35476,28.20662],[85.3547,28.20583],[85.35324,28.2035],[85.35256,28.20011],[85.35191,28.19809],[85.35065,28.1964],[85.34923,28.19329],[85.34857,28.19146],[85.34758,28.18984],[85.34625,28.18822],[85.34554,28.18607],[85.3442,28.18447],[85.34354,28.18264],[85.34262,28.18115],[85.34252,28.17998],[85.34282,28.17722],[85.34262,28.17558],[85.34272,28.17383],[85.34242,28.17143],[85.34244,28.16797],[85.34278,28.16653],[85.34268,28.166],[85.34219,28.16514],[85.34135,28.16447],[85.33996,28.16407],[85.33799,28.16253],[85.33761,28.1619],[85.33749,28.16045],[85.33705,28.1599],[85.33549,28.15897],[85.33376,28.1584],[85.33254,28.15739],[85.33086,28.15641],[85.32752,28.15343],[85.3261,28.15191],[85.32431,28.15092],[85.32252,28.15039],[85.31953,28.14818],[85.31804,28.14766],[85.31641,28.14628],[85.31389,28.14509],[85.31306,28.14421],[85.31259,28.14265],[85.31212,28.14194],[85.31146,28.14175],[85.3098,28.14211],[85.30901,28.14173],[85.30749,28.14058],[85.30567,28.13877],[85.30435,28.13648],[85.30253,28.13379],[85.30091,28.13219],[85.30056,28.13136],[85.30033,28.12986],[85.30011,28.1294],[85.29856,28.12792],[85.29756,28.12665],[85.29465,28.1249],[85.29297,28.12332],[85.29135,28.1222],[85.29005,28.12085],[85.28905,28.12014],[85.28758,28.1186],[85.28308,28.11615],[85.28274,28.11575],[85.28215,28.1143],[85.28109,28.11296],[85.27885,28.11127],[85.27771,28.11073],[85.27443,28.10769],[85.27248,28.10664],[85.27056,28.10422],[85.26946,28.10354],[85.26842,28.10265],[85.26682,28.10197],[85.26439,28.09966],[85.26332,28.09803],[85.262,28.09707],[85.26072,28.09587],[85.25996,28.09546],[85.25882,28.09517],[85.25707,28.09505],[85.25518,28.09461],[85.25317,28.09338],[85.25187,28.09285],[85.24815,28.09223],[85.24506,28.09242],[85.24299,28.09238],[85.24061,28.09151],[85.23546,28.09085],[85.2322,28.08948],[85.23155,28.08909],[85.23033,28.08788],[85.22882,28.0868],[85.22781,28.08558],[85.22665,28.08473],[85.22235,28.08248],[85.2212,28.08172],[85.21946,28.08093],[85.21614,28.07789],[85.21419,28.07651],[85.2114,28.07499],[85.20965,28.0744],[85.20906,28.07379],[85.20849,28.07279],[85.20821,28.072],[85.20811,28.07092],[85.20783,28.0704],[85.20701,28.0696],[85.20537,28.06841],[85.20517,28.06762],[85.20526,28.06633],[85.20659,28.06435],[85.20734,28.06291],[85.20798,28.05971],[85.20851,28.0581],[85.20857,28.05648],[85.20823,28.05519],[85.20753,28.05383],[85.20654,28.05246],[85.20454,28.05112],[85.20306,28.04978],[85.202,28.04731],[85.20088,28.0455],[85.19524,28.04138],[85.19408,28.04017],[85.19382,28.03959],[85.19364,28.03753],[85.19383,28.0359],[85.19417,28.03474],[85.19416,28.03378],[85.19398,28.03246],[85.1929,28.02954],[85.19247,28.02876],[85.19147,28.02769],[85.19118,28.02653],[85.18989,28.02578],[85.18848,28.02545],[85.18703,28.02474],[85.18612,28.02373],[85.18579,28.02278],[85.18573,28.02208],[85.18591,28.02133],[85.18735,28.01937],[85.18737,28.01679],[85.18704,28.01599],[85.18577,28.01502],[85.18491,28.01393],[85.18407,28.01235],[85.18363,28.01072],[85.18359,28.00811],[85.1838,28.00621],[85.18423,28.00476],[85.18387,28.00172],[85.1849,27.99921],[85.18583,27.9976],[85.18592,27.99683],[85.18483,27.99533],[85.18292,27.99368],[85.18234,27.99299],[85.18224,27.99223],[85.1828,27.99084],[85.18278,27.99002],[85.18234,27.98944],[85.18074,27.98853],[85.18032,27.98795],[85.18019,27.98747],[85.18045,27.98517],[85.18028,27.98167],[85.18155,27.9784],[85.18241,27.97505],[85.18403,27.97259],[85.18421,27.9721],[85.18416,27.97136],[85.1836,27.97064],[85.183,27.97031],[85.18003,27.96952],[85.17885,27.96896],[85.17804,27.96803],[85.17698,27.96584],[85.17626,27.96501],[85.17505,27.96432],[85.1715,27.96321],[85.16954,27.9619],[85.16869,27.96074],[85.16761,27.95798],[85.16659,27.95669],[85.16545,27.95605],[85.16327,27.95552],[85.16226,27.95479],[85.16209,27.95405],[85.16238,27.953],[85.16237,27.94995],[85.1627,27.94843],[85.16265,27.94734],[85.16073,27.94458],[85.15972,27.94198],[85.15868,27.93985],[85.15632,27.93642],[85.15553,27.93466],[85.15526,27.93306],[85.15504,27.93256],[85.15419,27.9319],[85.15345,27.93194],[85.15147,27.93343],[85.15106,27.93356],[85.1504,27.93325],[85.14999,27.9325],[85.14969,27.93066],[85.1491,27.92919],[85.14907,27.92872],[85.15044,27.92686],[85.15124,27.92462],[85.15127,27.92322],[85.15089,27.92236],[85.15035,27.92199],[85.14751,27.92084],[85.14346,27.92025],[85.14273,27.91978],[85.14139,27.9182],[85.14019,27.91726],[85.13541,27.91594],[85.1348,27.9156],[85.13441,27.91514],[85.13428,27.91454],[85.13457,27.91393],[85.13742,27.91123],[85.13826,27.91],[85.13891,27.90844],[85.13927,27.90658],[85.14058,27.90456],[85.1409,27.90362],[85.14085,27.9028],[85.14049,27.90214],[85.13962,27.90141],[85.1375,27.90053],[85.13708,27.90013],[85.13683,27.89962],[85.13665,27.89816],[85.13595,27.89621],[85.13575,27.89497],[85.13585,27.89378],[85.13696,27.89026],[85.13696,27.88931],[85.13675,27.88891],[85.13608,27.88828],[85.13441,27.88731],[85.12976,27.88406],[85.12772,27.88248],[85.12701,27.88174],[85.12635,27.88061],[85.12594,27.87949],[85.12577,27.87768],[85.12592,27.87617],[85.12557,27.87505],[85.12511,27.8745],[85.1242,27.87402],[85.12142,27.87319],[85.11487,27.86947],[85.1133,27.86785],[85.11059,27.8625],[85.10812,27.86047],[85.10671,27.85882],[85.10614,27.85851],[85.10491,27.85829],[85.10154,27.85831],[85.09662,27.8599],[85.09342,27.8603],[85.09066,27.86039],[85.08972,27.86006],[85.08931,27.85974],[85.08888,27.85897],[85.08843,27.8574],[85.08743,27.85663],[85.08563,27.85625],[85.07978,27.85605],[85.07812,27.85539],[85.07551,27.85372],[85.07438,27.85332],[85.07329,27.85326],[85.07156,27.85351],[85.07049,27.85391],[85.06507,27.85702],[85.0632,27.85776],[85.06149,27.8594],[85.06064,27.85988],[85.06008,27.8599],[85.05905,27.85948],[85.05779,27.85849],[85.0566,27.85601],[85.05594,27.85526],[85.05387,27.85397],[85.05147,27.8532],[85.04965,27.85297],[85.04842,27.8531],[85.04571,27.85455],[85.0436,27.85611],[85.04269,27.85647],[85.04196,27.8564],[85.04062,27.85564],[85.03894,27.85498],[85.03822,27.85427],[85.03521,27.85376],[85.03379,27.85376],[85.03209,27.85399],[85.03151,27.85379],[85.03048,27.8527],[85.02928,27.8496],[85.0284,27.84824],[85.02564,27.84639],[85.0227,27.84524],[85.0209,27.84372],[85.01974,27.84315],[85.01945,27.84283],[85.01933,27.84238],[85.01968,27.84109],[85.023,27.83587],[85.02298,27.83344],[85.02228,27.83205],[85.01851,27.82812],[85.01744,27.82623],[85.0173,27.82575],[85.01738,27.82281],[85.01689,27.82092],[85.01632,27.8197],[85.01632,27.81896],[85.01472,27.81576],[85.01264,27.8131],[85.01218,27.81223],[85.01205,27.81129],[85.01231,27.8103],[85.01279,27.80966],[85.01387,27.80894],[85.01423,27.80836],[85.01419,27.80779],[85.01356,27.80713],[85.00848,27.80569],[85.00678,27.8045],[85.00472,27.80371],[85.00237,27.80236],[85.00168,27.80213],[84.99997,27.8023],[84.99527,27.80359],[84.9935,27.80357],[84.99178,27.8032],[84.99121,27.80321],[84.99076,27.8034],[84.98907,27.80506],[84.98809,27.8055],[84.98752,27.80553],[84.98652,27.80535],[84.9852,27.80474],[84.98248,27.80282],[84.98163,27.80243],[84.98006,27.80219],[84.9773,27.80145],[84.97462,27.80154],[84.97315,27.80193],[84.97222,27.80251],[84.97194,27.80314],[84.97206,27.80451],[84.97193,27.80486],[84.97159,27.80523],[84.97027,27.80603],[84.96951,27.80683],[84.96925,27.80767],[84.96927,27.81044],[84.96884,27.81126],[84.96846,27.81161],[84.96786,27.81168],[84.96625,27.81072],[84.96553,27.81075],[84.96523,27.8111],[84.96423,27.81394],[84.9633,27.81545],[84.96244,27.81624],[84.96132,27.81689],[84.95906,27.81784],[84.9583,27.81784],[84.95682,27.8175],[84.9542,27.81619],[84.95266,27.81583],[84.9518,27.81587],[84.9501,27.81669],[84.94949,27.81662],[84.94732,27.81589],[84.94649,27.8152],[84.94613,27.81469],[84.94503,27.81247],[84.94344,27.8108],[84.94234,27.80795],[84.94077,27.80592],[84.93957,27.80471],[84.93863,27.80439],[84.93693,27.80478],[84.93622,27.8048],[84.93568,27.80462],[84.93405,27.80368],[84.93128,27.80134],[84.92489,27.79777],[84.92316,27.79732],[84.92222,27.7975],[84.92098,27.79814],[84.91799,27.80027],[84.9162,27.80082],[84.91517,27.80139],[84.91449,27.80225],[84.91393,27.80435],[84.91318,27.80497],[84.91208,27.805],[84.9084,27.80414],[84.90746,27.80426],[84.90715,27.805],[84.90719,27.80665],[84.90682,27.80724],[84.90625,27.80764],[84.90492,27.8077],[84.90103,27.80608],[84.89949,27.80594],[84.89748,27.80679],[84.89508,27.80757],[84.89213,27.80822],[84.88956,27.80912],[84.88803,27.80935],[84.88658,27.80922],[84.88469,27.80832],[84.88377,27.80812],[84.88299,27.80841],[84.8817,27.80934],[84.88089,27.80939],[84.87774,27.80819],[84.87397,27.80771],[84.87273,27.80738],[84.87186,27.80687],[84.87155,27.80636],[84.8717,27.80548],[84.87257,27.80418],[84.87249,27.8037],[84.87212,27.80324],[84.86926,27.80187],[84.86591,27.8013],[84.86515,27.80136],[84.86413,27.80192],[84.8619,27.80533],[84.86075,27.80637],[84.85993,27.80684],[84.85805,27.80725],[84.85481,27.8074],[84.85144,27.80836],[84.84973,27.80837],[84.84895,27.80786],[84.8486,27.80701],[84.84838,27.80495],[84.8481,27.80441],[84.84745,27.80383],[84.84597,27.80305],[84.8434,27.80201],[84.84225,27.8018],[84.84017,27.80184],[84.83932,27.80236],[84.83829,27.80362],[84.83799,27.80456],[84.83783,27.80651],[84.83552,27.80965],[84.83525,27.81082],[84.83527,27.81321],[84.83464,27.81452],[84.83277,27.8164],[84.8305,27.81805],[84.82902,27.81862],[84.82728,27.81899],[84.82632,27.81892],[84.8249,27.81854],[84.82395,27.81798],[84.82311,27.81701],[84.82246,27.81553],[84.82194,27.81249],[84.82209,27.81125],[84.82262,27.80961],[84.82253,27.80889],[84.82209,27.80826],[84.82136,27.8078],[84.81935,27.80753],[84.81856,27.8076],[84.81814,27.80779],[84.81731,27.80864],[84.81691,27.80968],[84.81661,27.81193],[84.81637,27.81249],[84.81576,27.81319],[84.81507,27.81356],[84.81302,27.814],[84.81109,27.81472],[84.81042,27.81532],[84.8091,27.81704],[84.80802,27.8175],[84.80706,27.81742],[84.80384,27.81648],[84.80118,27.81476],[84.80044,27.81446],[84.7963,27.81389],[84.79216,27.8125],[84.7914,27.8125],[84.79053,27.81284],[84.78906,27.81412],[84.78806,27.81453],[84.78236,27.81374],[84.77908,27.81227],[84.77519,27.8088],[84.77447,27.80847],[84.77352,27.80845],[84.77277,27.8087],[84.7708,27.80979],[84.76982,27.81054],[84.76901,27.81146],[84.76873,27.81204],[84.76875,27.81282],[84.76942,27.81449],[84.76933,27.81502],[84.76905,27.81544],[84.76551,27.81798],[84.76457,27.81835],[84.76375,27.8184],[84.76175,27.81775],[84.76034,27.81677],[84.75913,27.81556],[84.75797,27.81494],[84.75719,27.8143],[84.75684,27.81353],[84.75674,27.81062],[84.75648,27.80928],[84.75616,27.80868],[84.75494,27.80741],[84.75311,27.80597],[84.75185,27.80523],[84.75078,27.80498],[84.74978,27.80501],[84.74801,27.80552],[84.74702,27.80559],[84.74633,27.80536],[84.74525,27.80457],[84.74436,27.8042],[84.74288,27.80414],[84.74013,27.80435],[84.73889,27.80405],[84.73794,27.80336],[84.73732,27.8024],[84.73706,27.80128],[84.73707,27.79947],[84.73667,27.79873],[84.73622,27.79837],[84.73407,27.79735],[84.73215,27.79569],[84.73136,27.79544],[84.73037,27.79536],[84.72954,27.79614],[84.72873,27.79842],[84.7283,27.79915],[84.72766,27.79981],[84.72679,27.80021],[84.72433,27.80092],[84.72248,27.80099],[84.72189,27.80114],[84.71903,27.80336],[84.71843,27.80345],[84.71792,27.8033],[84.71686,27.80229],[84.7146,27.80079],[84.7126,27.80039],[84.71065,27.8005],[84.70931,27.80126],[84.70834,27.80233],[84.70814,27.80329],[84.70827,27.80567],[84.70784,27.80661],[84.70726,27.80698],[84.70619,27.80721],[84.70261,27.80737],[84.6976,27.80827],[84.69332,27.80941],[84.69065,27.80955],[84.68803,27.81024],[84.68489,27.8104],[84.68366,27.81095],[84.68183,27.81233],[84.67893,27.81404],[84.67741,27.81525],[84.67644,27.81579],[84.6743,27.81637],[84.6707,27.81695],[84.66957,27.81746],[84.66816,27.81836],[84.66737,27.81942],[84.66729,27.82019],[84.66757,27.82144],[84.66757,27.82221],[84.66676,27.82422],[84.66584,27.82522],[84.66196,27.82823],[84.66136,27.82907],[84.66131,27.83037],[84.66166,27.83221],[84.66339,27.83571],[84.66355,27.83868],[84.66407,27.84018],[84.66408,27.84077],[84.66236,27.84394],[84.6611,27.84788],[84.66022,27.84949],[84.65841,27.85115],[84.65677,27.85192],[84.65535,27.8522],[84.64967,27.85263],[84.6485,27.85286],[84.64755,27.85329],[84.64709,27.85396],[84.64721,27.85496],[84.64935,27.85746],[84.64972,27.85843],[84.64931,27.85912],[84.6478,27.85993],[84.6465,27.86035],[84.64444,27.86035],[84.6418,27.85979],[84.63875,27.8598],[84.6363,27.86012],[84.63497,27.86079],[84.63457,27.86132],[84.63424,27.86216],[84.63362,27.86602],[84.63353,27.86776],[84.63319,27.86883],[84.6325,27.86943],[84.62936,27.87033],[84.62759,27.87211],[84.62722,27.87273],[84.62709,27.87336],[84.62753,27.8749],[84.62735,27.87724],[84.6268,27.87818],[84.62543,27.87914],[84.62396,27.87989],[84.62216,27.88042],[84.62043,27.8807],[84.61912,27.88054],[84.6182,27.87986],[84.61709,27.87833],[84.61528,27.87714],[84.61444,27.87626],[84.61414,27.87549],[84.61415,27.87364],[84.61359,27.87271],[84.61295,27.87242],[84.61098,27.87211],[84.60901,27.87156],[84.60707,27.87139],[84.6061,27.87165],[84.60515,27.87221],[84.6046,27.8729],[84.60366,27.87484],[84.6032,27.87536],[84.60235,27.87588],[84.601,27.8762],[84.59938,27.87615],[84.59737,27.87581],[84.5967,27.8759],[84.59463,27.87689],[84.59181,27.87932],[84.59033,27.87969],[84.58953,27.87949],[84.58693,27.878],[84.58529,27.8765],[84.58443,27.87593],[84.58082,27.87418],[84.57783,27.87166],[84.57712,27.87048],[84.57688,27.86932],[84.57695,27.8685],[84.57758,27.86642],[84.5776,27.86542],[84.57744,27.86469],[84.57683,27.86383],[84.5751,27.86267],[84.57327,27.86107],[84.57246,27.86065],[84.56695,27.85867],[84.56435,27.85814],[84.56149,27.85807],[84.55997,27.85784],[84.55821,27.85702],[84.55741,27.85504],[84.5571,27.85237],[84.55728,27.85087],[84.55823,27.84798],[84.55824,27.84491],[84.55747,27.84205],[84.55718,27.83966],[84.55683,27.83833],[84.55598,27.83677],[84.55514,27.83592],[84.55021,27.83296],[84.54834,27.83212],[84.54697,27.83175],[84.54578,27.83174],[84.54403,27.83203],[84.54157,27.83311],[84.53976,27.83355],[84.53907,27.83353],[84.53754,27.83314],[84.5349,27.83304],[84.52906,27.83355],[84.52581,27.83344],[84.52419,27.83307],[84.52184,27.83214],[84.52092,27.83131],[84.52046,27.82999],[84.52044,27.82643],[84.52071,27.82456],[84.5205,27.82183],[84.51892,27.818],[84.51814,27.81687],[84.51713,27.81613],[84.51538,27.8157],[84.51175,27.81541],[84.51049,27.81577],[84.50785,27.81689],[84.50559,27.81833],[84.50365,27.81928],[84.50142,27.81991],[84.4985,27.82023],[84.49606,27.82068],[84.49545,27.82049],[84.49349,27.81925],[84.49258,27.81914],[84.49157,27.81945],[84.48896,27.82074],[84.4868,27.82105],[84.48174,27.82127],[84.47938,27.82193],[84.47646,27.82312],[84.47138,27.82406],[84.46924,27.82404],[84.4668,27.82425],[84.46607,27.82405],[84.46581,27.82338],[84.46637,27.82149],[84.46636,27.82036],[84.46575,27.81936],[84.46486,27.81891],[84.46268,27.81929],[84.46027,27.8193],[84.45692,27.81956],[84.45295,27.8208],[84.44937,27.82223],[84.4467,27.82298],[84.44556,27.82302],[84.44482,27.82258],[84.44249,27.82045],[84.44175,27.81919],[84.44133,27.81749],[84.44063,27.81656],[84.43874,27.81562],[84.43662,27.81549],[84.43573,27.81529],[84.43355,27.81417],[84.43283,27.81337],[84.43249,27.81241],[84.43218,27.81008],[84.43157,27.80736],[84.43101,27.803],[84.43116,27.79866],[84.42994,27.79239],[84.43005,27.79076],[84.43041,27.78928],[84.43235,27.78555],[84.43361,27.78385],[84.43786,27.7794],[84.43922,27.77826],[84.44075,27.77809],[84.44677,27.77845],[84.45093,27.77786],[84.45275,27.7774],[84.45752,27.77541],[84.45908,27.77461],[84.46102,27.7733],[84.46331,27.77069],[84.46552,27.76902],[84.46686,27.76761],[84.46768,27.76641],[84.46855,27.76441],[84.47042,27.76191],[84.47196,27.75632],[84.47215,27.75491],[84.4721,27.75328],[84.4719,27.75265],[84.47156,27.75219],[84.47063,27.75172],[84.4693,27.75171],[84.46631,27.75226],[84.46462,27.75316],[84.46217,27.75496],[84.45946,27.75749],[84.45882,27.75842],[84.45801,27.75901],[84.45675,27.75944],[84.45553,27.75959],[84.45353,27.7596],[84.45179,27.75936],[84.45031,27.75885],[84.44928,27.75828],[84.44764,27.75671],[84.44567,27.75315],[84.44394,27.75151],[84.4431,27.75046],[84.44078,27.74718],[84.43899,27.74397],[84.43795,27.74281],[84.43588,27.74173],[84.43379,27.74112],[84.43199,27.74114],[84.43051,27.74136],[84.42915,27.74172],[84.42751,27.74249],[84.42652,27.74268],[84.42466,27.74241],[84.42373,27.74189],[84.42296,27.74156],[84.42257,27.74129],[84.42232,27.74084],[84.42227,27.74003],[84.42298,27.73698],[84.42341,27.73592],[84.42448,27.73469],[84.42511,27.73362],[84.42576,27.73276],[84.42589,27.7321],[84.42583,27.73045],[84.42602,27.72997],[84.4264,27.72931],[84.42662,27.72835],[84.42657,27.72668],[84.42648,27.7256],[84.42671,27.72499],[84.42703,27.7246],[84.42725,27.72415],[84.42824,27.72189],[84.42853,27.72164],[84.42891,27.72081],[84.42891,27.72052],[84.4288,27.72025],[84.42889,27.71951],[84.42915,27.71859],[84.4291,27.71786],[84.42922,27.71542],[84.43024,27.71084],[84.43026,27.70976],[84.43021,27.70949]]}}]}