{"type":"FeatureCollection","features":[{"type":"Feature","properties":{"name":"Bhotekoshi at Rasuwagadhi","station":4913,"warning_m":6,"danger_m":7,"last_reading":"1.62 m at 08:40","telemetry_ceased":"08:50","arrival_window":"08:40–08:50","peak":null,"fate":"destroyed","marker-color":"#7f1d1d","marker-symbol":"water"},"geometry":{"type":"Point","coordinates":[85.37765,28.2713]}},{"type":"Feature","properties":{"name":"Bhote Koshi at Syabrubesi","station":191,"warning_m":5.5,"danger_m":null,"last_reading":"3.8 m at 08:50","telemetry_ceased":"09:00","arrival_window":"08:50–09:00","peak":null,"fate":"destroyed","marker-color":"#7f1d1d","marker-symbol":"water"},"geometry":{"type":"Point","coordinates":[85.34255,28.17065]}},{"type":"Feature","properties":{"name":"Trishuli at Betrawati","station":52,"warning_m":4.1,"danger_m":5,"last_reading":"3.55 m at 09:20","telemetry_ceased":"09:30","arrival_window":"09:20–09:30","peak":null,"fate":"destroyed","marker-color":"#7f1d1d","marker-symbol":"water"},"geometry":{"type":"Point","coordinates":[85.18,27.97]}},{"type":"Feature","properties":{"name":"Phalakhu Khola at Betrawati","station":4658,"warning_m":2.6,"danger_m":3.1,"last_reading":"1.93 m at 09:20","telemetry_ceased":"09:30","arrival_window":"09:20–09:30","peak":null,"fate":"destroyed","marker-color":"#7f1d1d","marker-symbol":"water"},"geometry":{"type":"Point","coordinates":[85.18583,27.97426]}},{"type":"Feature","properties":{"name":"Trishuli at Galchi","station":5705,"warning_m":367,"danger_m":null,"last_reading":null,"telemetry_ceased":null,"arrival_window":"10:20–10:30","peak":"369.45 m at 10:50","fate":"survived","marker-color":"#0369a1","marker-symbol":"water"},"geometry":{"type":"Point","coordinates":[85.00305,27.80233]}},{"type":"Feature","properties":{"name":"Trishuli at Phurke Khola (Malekhu)","station":5611,"warning_m":7,"danger_m":8,"last_reading":"10.48 m at 11:40","telemetry_ceased":null,"arrival_window":null,"peak":null,"fate":"washed away","marker-color":"#0369a1","marker-symbol":"water"},"geometry":{"type":"Point","coordinates":[84.8272,27.8137]}},{"type":"Feature","properties":{"name":"Trishuli River at Kali Khola","station":4781,"warning_m":10.8,"danger_m":12.1,"last_reading":null,"telemetry_ceased":null,"arrival_window":"13:10–13:20","peak":"12.35 m at 14:20","fate":"survived","marker-color":"#0369a1","marker-symbol":"water"},"geometry":{"type":"Point","coordinates":[84.546,27.833]}},{"type":"Feature","properties":{"name":"Narayani at Devghat","station":265,"warning_m":7.3,"danger_m":9,"last_reading":null,"telemetry_ceased":null,"arrival_window":"14:30–14:40","peak":"6.57 m at 16:00","fate":"survived","marker-color":"#0369a1","marker-symbol":"water"},"geometry":{"type":"Point","coordinates":[84.43,27.71]}},{"type":"Feature","properties":{"name":"Trishuli Khola at Dhunche","station":4657,"warning_m":3.2,"danger_m":null,"last_reading":null,"telemetry_ceased":null,"arrival_window":null,"peak":"2.44 m at 20:20","fate":"survived","marker-color":"#0369a1","marker-symbol":"water"},"geometry":{"type":"Point","coordinates":[85.31859,28.09816]}}]}