{"type":"FeatureCollection","features":[{"type":"Feature","properties":{"name":"热匈","place":"locality","arrival":"2026-08-26T02:54:37Z","km_downstream":8,"dist_m":850,"marker-color":"#dc2626","marker-size":"small"},"geometry":{"type":"Point","coordinates":[85.49172,28.33728]}},{"type":"Feature","properties":{"name":"得订","place":"locality","arrival":"2026-08-26T02:54:44Z","km_downstream":8.4,"dist_m":128,"marker-color":"#dc2626","marker-size":"small"},"geometry":{"type":"Point","coordinates":[85.48178,28.33401]}},{"type":"Feature","properties":{"name":"本波","place":"hamlet","arrival":"2026-08-26T02:55:18Z","km_downstream":10.2,"dist_m":120,"marker-color":"#dc2626","marker-size":"small"},"geometry":{"type":"Point","coordinates":[85.46393,28.33691]}},{"type":"Feature","properties":{"name":"嘎隆","place":"hamlet","arrival":"2026-08-26T02:55:23Z","km_downstream":10.5,"dist_m":542,"marker-color":"#dc2626","marker-size":"small"},"geometry":{"type":"Point","coordinates":[85.46225,28.34138]}},{"type":"Feature","properties":{"name":"Baxuequ’an","place":"hamlet","arrival":"2026-08-26T02:55:34Z","km_downstream":11.1,"dist_m":977,"marker-color":"#dc2626","marker-size":"small"},"geometry":{"type":"Point","coordinates":[85.4522,28.34454]}},{"type":"Feature","properties":{"name":"林底奶搞","place":"locality","arrival":"2026-08-26T02:55:35Z","km_downstream":11.1,"dist_m":196,"marker-color":"#dc2626","marker-size":"small"},"geometry":{"type":"Point","coordinates":[85.45377,28.33758]}},{"type":"Feature","properties":{"name":"Sêrqung","place":"village","arrival":"2026-08-26T02:56:12Z","km_downstream":13.2,"dist_m":797,"marker-color":"#dc2626","marker-size":"small"},"geometry":{"type":"Point","coordinates":[85.42913,28.33851]}},{"type":"Feature","properties":{"name":"Labi","place":"village","arrival":"2026-08-26T02:57:03Z","km_downstream":15.9,"dist_m":1023,"marker-color":"#dc2626","marker-size":"small"},"geometry":{"type":"Point","coordinates":[85.40256,28.32031]}},{"type":"Feature","properties":{"name":"Resuo","place":"village","arrival":"2026-08-26T02:59:13Z","km_downstream":22.1,"dist_m":122,"marker-color":"#dc2626","marker-size":"small"},"geometry":{"type":"Point","coordinates":[85.37822,28.28032]}},{"type":"Feature","properties":{"name":"Rasuwa Gadhi","place":"hamlet","arrival":"2026-08-26T02:59:20Z","km_downstream":22.3,"dist_m":65,"marker-color":"#dc2626","marker-size":"small"},"geometry":{"type":"Point","coordinates":[85.37778,28.27777]}},{"type":"Feature","properties":{"name":"Timure","place":"suburb","arrival":"2026-08-26T03:01:32Z","km_downstream":25.6,"dist_m":170,"marker-color":"#dc2626","marker-size":"small"},"geometry":{"type":"Point","coordinates":[85.36667,28.25285]}},{"type":"Feature","properties":{"name":"Dalphedi","place":"hamlet","arrival":"2026-08-26T03:03:38Z","km_downstream":28.4,"dist_m":745,"marker-color":"#dc2626","marker-size":"small"},"geometry":{"type":"Point","coordinates":[85.35316,28.22901]}},{"type":"Feature","properties":{"name":"Lingling","place":"hamlet","arrival":"2026-08-26T03:05:26Z","km_downstream":30.7,"dist_m":330,"marker-color":"#dc2626","marker-size":"small"},"geometry":{"type":"Point","coordinates":[85.3577,28.21085]}},{"type":"Feature","properties":{"name":"Syabru Bensi","place":"suburb","arrival":"2026-08-26T03:10:09Z","km_downstream":36.7,"dist_m":142,"marker-color":"#dc2626","marker-size":"small"},"geometry":{"type":"Point","coordinates":[85.33725,28.16367]}},{"type":"Feature","properties":{"name":"Sano Bharkhu","place":"hamlet","arrival":"2026-08-26T03:13:35Z","km_downstream":40.2,"dist_m":897,"marker-color":"#dc2626","marker-size":"small"},"geometry":{"type":"Point","coordinates":[85.31971,28.13744]}},{"type":"Feature","properties":{"name":"Gre","place":"hamlet","arrival":"2026-08-26T03:14:28Z","km_downstream":41.1,"dist_m":1070,"marker-color":"#dc2626","marker-size":"small"},"geometry":{"type":"Point","coordinates":[85.29557,28.1425]}},{"type":"Feature","properties":{"name":"Sano Bharkhu","place":"hamlet","arrival":"2026-08-26T03:14:55Z","km_downstream":41.6,"dist_m":1036,"marker-color":"#dc2626","marker-size":"small"},"geometry":{"type":"Point","coordinates":[85.31212,28.12978]}},{"type":"Feature","properties":{"name":"Dhunche","place":"suburb","arrival":"2026-08-26T03:17:18Z","km_downstream":43.9,"dist_m":1052,"marker-color":"#dc2626","marker-size":"small"},"geometry":{"type":"Point","coordinates":[85.29606,28.11279]}},{"type":"Feature","properties":{"name":"Haku Besi","place":"hamlet","arrival":"2026-08-26T03:17:58Z","km_downstream":44.6,"dist_m":366,"marker-color":"#dc2626","marker-size":"small"},"geometry":{"type":"Point","coordinates":[85.27907,28.11648]}},{"type":"Feature","properties":{"name":"Gogne","place":"hamlet","arrival":"2026-08-26T03:24:58Z","km_downstream":51.5,"dist_m":615,"marker-color":"#dc2626","marker-size":"small"},"geometry":{"type":"Point","coordinates":[85.22226,28.08887]}},{"type":"Feature","properties":{"name":"Mailung","place":"hamlet","arrival":"2026-08-26T03:27:15Z","km_downstream":53.8,"dist_m":116,"marker-color":"#dc2626","marker-size":"small"},"geometry":{"type":"Point","coordinates":[85.207,28.07177]}},{"type":"Feature","properties":{"name":"Siruchet","place":"hamlet","arrival":"2026-08-26T03:27:44Z","km_downstream":54.3,"dist_m":747,"marker-color":"#dc2626","marker-size":"small"},"geometry":{"type":"Point","coordinates":[85.19857,28.07144]}},{"type":"Feature","properties":{"name":"Dharna bhadaure","place":"hamlet","arrival":"2026-08-26T03:27:55Z","km_downstream":54.4,"dist_m":498,"marker-color":"#dc2626","marker-size":"small"},"geometry":{"type":"Point","coordinates":[85.20017,28.06642]}},{"type":"Feature","properties":{"name":"Chipleti","place":"hamlet","arrival":"2026-08-26T03:28:05Z","km_downstream":54.6,"dist_m":722,"marker-color":"#dc2626","marker-size":"small"},"geometry":{"type":"Point","coordinates":[85.19955,28.06211]}},{"type":"Feature","properties":{"name":"Dandagaun","place":"suburb","arrival":"2026-08-26T03:31:50Z","km_downstream":58.3,"dist_m":683,"marker-color":"#dc2626","marker-size":"small"},"geometry":{"type":"Point","coordinates":[85.18672,28.03688]}},{"type":"Feature","properties":{"name":"Simle","place":"hamlet","arrival":"2026-08-26T03:32:53Z","km_downstream":59.4,"dist_m":127,"marker-color":"#dc2626","marker-size":"small"},"geometry":{"type":"Point","coordinates":[85.1912,28.0292]}},{"type":"Feature","properties":{"name":"Salim Bhitta","place":"hamlet","arrival":"2026-08-26T03:33:51Z","km_downstream":60.3,"dist_m":408,"marker-color":"#dc2626","marker-size":"small"},"geometry":{"type":"Point","coordinates":[85.18173,28.02356]}},{"type":"Feature","properties":{"name":"Laharepauwa","place":"suburb","arrival":"2026-08-26T03:34:36Z","km_downstream":61,"dist_m":1029,"marker-color":"#dc2626","marker-size":"small"},"geometry":{"type":"Point","coordinates":[85.19715,28.01347]}},{"type":"Feature","properties":{"name":"Uttargaya","place":"village","arrival":"2026-08-26T03:34:40Z","km_downstream":61.1,"dist_m":934,"marker-color":"#dc2626","marker-size":"small"},"geometry":{"type":"Point","coordinates":[85.19517,28.01161]}},{"type":"Feature","properties":{"name":"Shanti Bazar","place":"hamlet","arrival":"2026-08-26T03:34:53Z","km_downstream":61.3,"dist_m":485,"marker-color":"#dc2626","marker-size":"small"},"geometry":{"type":"Point","coordinates":[85.18146,28.0172]}},{"type":"Feature","properties":{"name":"Archale","place":"hamlet","arrival":"2026-08-26T03:35:01Z","km_downstream":61.5,"dist_m":894,"marker-color":"#dc2626","marker-size":"small"},"geometry":{"type":"Point","coordinates":[85.1765,28.01704]}},{"type":"Feature","properties":{"name":"Karki Gaun","place":"hamlet","arrival":"2026-08-26T03:36:23Z","km_downstream":62.8,"dist_m":1111,"marker-color":"#dc2626","marker-size":"small"},"geometry":{"type":"Point","coordinates":[85.17269,28.00017]}},{"type":"Feature","properties":{"name":"Manakamana","place":"suburb","arrival":"2026-08-26T03:37:32Z","km_downstream":64,"dist_m":828,"marker-color":"#dc2626","marker-size":"small"},"geometry":{"type":"Point","coordinates":[85.17499,27.99665]}},{"type":"Feature","properties":{"name":"Naubisephat","place":"hamlet","arrival":"2026-08-26T03:38:36Z","km_downstream":65,"dist_m":209,"marker-color":"#dc2626","marker-size":"small"},"geometry":{"type":"Point","coordinates":[85.18256,27.98469]}},{"type":"Feature","properties":{"name":"Betrawati","place":"hamlet","arrival":"2026-08-26T03:40:23Z","km_downstream":66.4,"dist_m":197,"marker-color":"#dc2626","marker-size":"small"},"geometry":{"type":"Point","coordinates":[85.18595,27.97311]}},{"type":"Feature","properties":{"name":"Bhainse","place":"hamlet","arrival":"2026-08-26T03:43:48Z","km_downstream":68.5,"dist_m":158,"marker-color":"#dc2626","marker-size":"small"},"geometry":{"type":"Point","coordinates":[85.17033,27.96037]}},{"type":"Feature","properties":{"name":"Batār Bāzār","place":"neighbourhood","arrival":"2026-08-26T03:59:56Z","km_downstream":77.6,"dist_m":720,"marker-color":"#dc2626","marker-size":"small"},"geometry":{"type":"Point","coordinates":[85.14635,27.89825]}},{"type":"Feature","properties":{"name":"Bidur","place":"town","arrival":"2026-08-26T04:00:07Z","km_downstream":77.7,"dist_m":957,"marker-color":"#dc2626","marker-size":"small"},"geometry":{"type":"Point","coordinates":[85.14645,27.89526]}},{"type":"Feature","properties":{"name":"Pipaltar","place":"hamlet","arrival":"2026-08-26T04:06:52Z","km_downstream":81.5,"dist_m":1015,"marker-color":"#dc2626","marker-size":"small"},"geometry":{"type":"Point","coordinates":[85.12812,27.86558]}},{"type":"Feature","properties":{"name":"Devighat","place":"hamlet","arrival":"2026-08-26T04:10:43Z","km_downstream":83.7,"dist_m":166,"marker-color":"#dc2626","marker-size":"small"},"geometry":{"type":"Point","coordinates":[85.11006,27.86003]}},{"type":"Feature","properties":{"name":"Ratmate","place":"suburb","arrival":"2026-08-26T04:19:45Z","km_downstream":88.7,"dist_m":554,"marker-color":"#dc2626","marker-size":"small"},"geometry":{"type":"Point","coordinates":[85.06138,27.85302]}},{"type":"Feature","properties":{"name":"Kalleri","place":"suburb","arrival":"2026-08-26T04:36:01Z","km_downstream":97.9,"dist_m":940,"marker-color":"#dc2626","marker-size":"small"},"geometry":{"type":"Point","coordinates":[85.00553,27.81887]}},{"type":"Feature","properties":{"name":"Galchhi","place":"town","arrival":"2026-08-26T04:40:27Z","km_downstream":100.1,"dist_m":536,"marker-color":"#dc2626","marker-size":"small"},"geometry":{"type":"Point","coordinates":[85.00046,27.7974]}},{"type":"Feature","properties":{"name":"Gardo Khola","place":"neighbourhood","arrival":"2026-08-26T04:41:05Z","km_downstream":100.4,"dist_m":804,"marker-color":"#dc2626","marker-size":"small"},"geometry":{"type":"Point","coordinates":[84.99637,27.79572]}},{"type":"Feature","properties":{"name":"Baireni","place":"suburb","arrival":"2026-08-26T04:43:32Z","km_downstream":101.1,"dist_m":330,"marker-color":"#dc2626","marker-size":"small"},"geometry":{"type":"Point","coordinates":[84.98991,27.80047]}},{"type":"Feature","properties":{"name":"MaheshDovan","place":"hamlet","arrival":"2026-08-26T04:48:06Z","km_downstream":102.5,"dist_m":121,"marker-color":"#dc2626","marker-size":"small"},"geometry":{"type":"Point","coordinates":[84.98004,27.80105]}},{"type":"Feature","properties":{"name":"Mastar","place":"hamlet","arrival":"2026-08-26T04:56:28Z","km_downstream":104.9,"dist_m":307,"marker-color":"#dc2626","marker-size":"small"},"geometry":{"type":"Point","coordinates":[84.96175,27.81169]}},{"type":"Feature","properties":{"name":"Adamghat","place":"hamlet","arrival":"2026-08-26T05:07:18Z","km_downstream":108.1,"dist_m":111,"marker-color":"#dc2626","marker-size":"small"},"geometry":{"type":"Point","coordinates":[84.94295,27.80697]}},{"type":"Feature","properties":{"name":"Pida","place":"suburb","arrival":"2026-08-26T05:07:21Z","km_downstream":108.1,"dist_m":385,"marker-color":"#dc2626","marker-size":"small"},"geometry":{"type":"Point","coordinates":[84.94517,27.80548]}},{"type":"Feature","properties":{"name":"Ghatbesi","place":"hamlet","arrival":"2026-08-26T05:22:01Z","km_downstream":112.4,"dist_m":194,"marker-color":"#dc2626","marker-size":"small"},"geometry":{"type":"Point","coordinates":[84.90527,27.8045]}},{"type":"Feature","properties":{"name":"Gajuri","place":"village","arrival":"2026-08-26T05:33:47Z","km_downstream":115.9,"dist_m":378,"marker-color":"#dc2626","marker-size":"small"},"geometry":{"type":"Point","coordinates":[84.87712,27.80468]}},{"type":"Feature","properties":{"name":"Purano Malekhu","place":"hamlet","arrival":"2026-08-26T05:52:34Z","km_downstream":121.4,"dist_m":151,"marker-color":"#dc2626","marker-size":"small"},"geometry":{"type":"Point","coordinates":[84.83621,27.80622]}},{"type":"Feature","properties":{"name":"Malekhu","place":"hamlet","arrival":"2026-08-26T06:00:59Z","km_downstream":124,"dist_m":495,"marker-color":"#dc2626","marker-size":"small"},"geometry":{"type":"Point","coordinates":[84.82724,27.81371]}},{"type":"Feature","properties":{"name":"Salanghat","place":"hamlet","arrival":"2026-08-26T06:05:52Z","km_downstream":126.7,"dist_m":101,"marker-color":"#dc2626","marker-size":"small"},"geometry":{"type":"Point","coordinates":[84.80835,27.81636]}},{"type":"Feature","properties":{"name":"Ghyalchok","place":"village","arrival":"2026-08-26T06:13:06Z","km_downstream":130.8,"dist_m":167,"marker-color":"#dc2626","marker-size":"small"},"geometry":{"type":"Point","coordinates":[84.77247,27.81064]}},{"type":"Feature","properties":{"name":"Benighat Rorang","place":"village","arrival":"2026-08-26T06:13:10Z","km_downstream":130.8,"dist_m":281,"marker-color":"#dc2626","marker-size":"small"},"geometry":{"type":"Point","coordinates":[84.76971,27.80742]}},{"type":"Feature","properties":{"name":"Bishaltar","place":"hamlet","arrival":"2026-08-26T06:13:59Z","km_downstream":131.3,"dist_m":457,"marker-color":"#dc2626","marker-size":"small"},"geometry":{"type":"Point","coordinates":[84.76412,27.81313]}},{"type":"Feature","properties":{"name":"Surenitar","place":"neighbourhood","arrival":"2026-08-26T06:14:26Z","km_downstream":131.5,"dist_m":585,"marker-color":"#dc2626","marker-size":"small"},"geometry":{"type":"Point","coordinates":[84.77507,27.81639]}},{"type":"Feature","properties":{"name":"Dhussa","place":"village","arrival":"2026-08-26T06:19:18Z","km_downstream":134.3,"dist_m":142,"marker-color":"#dc2626","marker-size":"small"},"geometry":{"type":"Point","coordinates":[84.75163,27.80386]}},{"type":"Feature","properties":{"name":"Ghyalchok","place":"village","arrival":"2026-08-26T06:21:20Z","km_downstream":135.4,"dist_m":802,"marker-color":"#dc2626","marker-size":"small"},"geometry":{"type":"Point","coordinates":[84.73807,27.81133]}},{"type":"Feature","properties":{"name":"Charaudhi","place":"neighbourhood","arrival":"2026-08-26T06:22:19Z","km_downstream":136,"dist_m":292,"marker-color":"#dc2626","marker-size":"small"},"geometry":{"type":"Point","coordinates":[84.74003,27.80074]}},{"type":"Feature","properties":{"name":"Majhimtar","place":"neighbourhood","arrival":"2026-08-26T06:30:18Z","km_downstream":140.5,"dist_m":201,"marker-color":"#dc2626","marker-size":"small"},"geometry":{"type":"Point","coordinates":[84.70499,27.80545]}},{"type":"Feature","properties":{"name":"Thumka","place":"locality","arrival":"2026-08-26T06:35:40Z","km_downstream":143.6,"dist_m":473,"marker-color":"#dc2626","marker-size":"small"},"geometry":{"type":"Point","coordinates":[84.67809,27.81979]}},{"type":"Feature","properties":{"name":"Phishling","place":"hamlet","arrival":"2026-08-26T06:42:41Z","km_downstream":147.6,"dist_m":111,"marker-color":"#dc2626","marker-size":"small"},"geometry":{"type":"Point","coordinates":[84.66172,27.84281]}},{"type":"Feature","properties":{"name":"Kurintar","place":"hamlet","arrival":"2026-08-26T06:53:20Z","km_downstream":153.6,"dist_m":433,"marker-color":"#dc2626","marker-size":"small"},"geometry":{"type":"Point","coordinates":[84.62281,27.87243]}},{"type":"Feature","properties":{"name":"Ichchhakamana","place":"village","arrival":"2026-08-26T06:53:15Z","km_downstream":153.6,"dist_m":625,"marker-color":"#dc2626","marker-size":"small"},"geometry":{"type":"Point","coordinates":[84.62156,27.87017]}},{"type":"Feature","properties":{"name":"Silintar","place":"hamlet","arrival":"2026-08-26T07:02:30Z","km_downstream":158.8,"dist_m":263,"marker-color":"#dc2626","marker-size":"small"},"geometry":{"type":"Point","coordinates":[84.59081,27.88203]}},{"type":"Feature","properties":{"name":"Gyajhadada","place":"hamlet","arrival":"2026-08-26T07:05:12Z","km_downstream":160.4,"dist_m":972,"marker-color":"#dc2626","marker-size":"small"},"geometry":{"type":"Point","coordinates":[84.57,27.877]}},{"type":"Feature","properties":{"name":"Mugling","place":"hamlet","arrival":"2026-08-26T07:10:15Z","km_downstream":163.1,"dist_m":200,"marker-color":"#dc2626","marker-size":"small"},"geometry":{"type":"Point","coordinates":[84.56095,27.85616]}},{"type":"Feature","properties":{"name":"Jalbire","place":"hamlet","arrival":"2026-08-26T07:31:10Z","km_downstream":170.1,"dist_m":92,"marker-color":"#dc2626","marker-size":"small"},"geometry":{"type":"Point","coordinates":[84.52161,27.82486]}},{"type":"Feature","properties":{"name":"Simaltal","place":"isolated_dwelling","arrival":"2026-08-26T07:45:08Z","km_downstream":174.7,"dist_m":103,"marker-color":"#dc2626","marker-size":"small"},"geometry":{"type":"Point","coordinates":[84.4832,27.82028]}},{"type":"Feature","properties":{"name":"Ghumaune","place":"locality","arrival":"2026-08-26T07:50:06Z","km_downstream":176.4,"dist_m":101,"marker-color":"#dc2626","marker-size":"small"},"geometry":{"type":"Point","coordinates":[84.46697,27.82332]}},{"type":"Feature","properties":{"name":"Dashdhunga","place":"hamlet","arrival":"2026-08-26T08:20:30Z","km_downstream":186.4,"dist_m":327,"marker-color":"#dc2626","marker-size":"small"},"geometry":{"type":"Point","coordinates":[84.45372,27.78021]}},{"type":"Feature","properties":{"name":"Kabilas","place":"suburb","arrival":"2026-08-26T08:26:27Z","km_downstream":188.4,"dist_m":471,"marker-color":"#dc2626","marker-size":"small"},"geometry":{"type":"Point","coordinates":[84.47221,27.76779]}},{"type":"Feature","properties":{"name":"Devghat","place":"hamlet","arrival":"2026-08-26T08:51:16Z","km_downstream":196.6,"dist_m":285,"marker-color":"#dc2626","marker-size":"small"},"geometry":{"type":"Point","coordinates":[84.42543,27.73919]}},{"type":"Feature","properties":{"name":"Aaptari","place":"locality","arrival":"2026-08-26T09:01:12Z","km_downstream":199.9,"dist_m":962,"marker-color":"#dc2626","marker-size":"small"},"geometry":{"type":"Point","coordinates":[84.44002,27.7108]}},{"type":"Feature","properties":{"name":"Ganesh Chowk","place":"neighbourhood","arrival":"2026-08-26T09:01:35Z","km_downstream":200,"dist_m":930,"marker-color":"#dc2626","marker-size":"small"},"geometry":{"type":"Point","coordinates":[84.42904,27.70119]}}]}