{"type":"FeatureCollection","features":[{"type":"Feature","properties":{"kind":"hydropower","name":"The Chilime Hydro Power Plant","osm_id":"node/982602383","dist_m":75,"arrival":"2026-08-26T03:10:59Z","km_downstream":37.6,"marker-color":"#7c3aed","marker-symbol":"dam"},"geometry":{"type":"Point","coordinates":[85.33167,28.15769]}},{"type":"Feature","properties":{"kind":"headworks","name":"headworks","osm_id":"node/2532475226","dist_m":187,"arrival":"2026-08-26T03:48:00Z","km_downstream":70.9,"marker-color":"#7c3aed","marker-symbol":"dam"},"geometry":{"type":"Point","coordinates":[85.15851,27.94404]}},{"type":"Feature","properties":{"kind":"school","name":"Gosaikunda English Reading School","osm_id":"node/2857847363","dist_m":93,"arrival":"2026-08-26T03:10:00Z","km_downstream":36.5,"marker-color":"#0369a1","marker-symbol":"school"},"geometry":{"type":"Point","coordinates":[85.33886,28.16433]}},{"type":"Feature","properties":{"kind":"health","name":"Highway Community Hospital","osm_id":"node/3408490712","dist_m":175,"arrival":"2026-08-26T05:54:21Z","km_downstream":121.9,"marker-color":"#be123c","marker-symbol":"hospital"},"geometry":{"type":"Point","coordinates":[84.83347,27.81111]}},{"type":"Feature","properties":{"kind":"hydropower","name":"Trishuli Hydropower Station","osm_id":"node/3492358494","dist_m":97,"arrival":"2026-08-26T03:54:34Z","km_downstream":74.6,"marker-color":"#7c3aed","marker-symbol":"dam"},"geometry":{"type":"Point","coordinates":[85.14606,27.92151]}},{"type":"Feature","properties":{"kind":"school","name":"Rising Star English Boarding School","osm_id":"node/3494632842","dist_m":249,"arrival":"2026-08-26T06:22:06Z","km_downstream":135.9,"marker-color":"#0369a1","marker-symbol":"school"},"geometry":{"type":"Point","coordinates":[84.73965,27.80131]}},{"type":"Feature","properties":{"kind":"headworks","name":"headworks","osm_id":"node/3503962448","dist_m":52,"arrival":"2026-08-26T03:48:33Z","km_downstream":71.2,"marker-color":"#7c3aed","marker-symbol":"dam"},"geometry":{"type":"Point","coordinates":[85.1587,27.94107]}},{"type":"Feature","properties":{"kind":"headworks","name":"headworks","osm_id":"node/3503962450","dist_m":186,"arrival":"2026-08-26T03:47:57Z","km_downstream":70.9,"marker-color":"#7c3aed","marker-symbol":"dam"},"geometry":{"type":"Point","coordinates":[85.15859,27.94425]}},{"type":"Feature","properties":{"kind":"hydropower","name":"Trishuli Hydropower Station","osm_id":"node/3520028029","dist_m":88,"arrival":"2026-08-26T03:54:38Z","km_downstream":74.6,"marker-color":"#7c3aed","marker-symbol":"dam"},"geometry":{"type":"Point","coordinates":[85.14568,27.92138]}},{"type":"Feature","properties":{"kind":"hydropower","name":"Trishuli Hydropower Station","osm_id":"node/3520028030","dist_m":93,"arrival":"2026-08-26T03:54:35Z","km_downstream":74.6,"marker-color":"#7c3aed","marker-symbol":"dam"},"geometry":{"type":"Point","coordinates":[85.14589,27.92145]}},{"type":"Feature","properties":{"kind":"hydropower","name":"Trishuli Hydropower Station","osm_id":"node/3520028031","dist_m":95,"arrival":"2026-08-26T03:54:34Z","km_downstream":74.6,"marker-color":"#7c3aed","marker-symbol":"dam"},"geometry":{"type":"Point","coordinates":[85.14598,27.92148]}},{"type":"Feature","properties":{"kind":"school","name":"Dibyaratna boarding school","osm_id":"node/4563086889","dist_m":286,"arrival":"2026-08-26T03:54:50Z","km_downstream":74.7,"marker-color":"#0369a1","marker-symbol":"school"},"geometry":{"type":"Point","coordinates":[85.14519,27.91789]}},{"type":"Feature","properties":{"kind":"school","name":"Shree Neelkanta Higher Sec School","osm_id":"node/4706138525","dist_m":246,"arrival":"2026-08-26T03:39:30Z","km_downstream":65.8,"marker-color":"#0369a1","marker-symbol":"school"},"geometry":{"type":"Point","coordinates":[85.18407,27.97857]}},{"type":"Feature","properties":{"kind":"school","name":"Shree Shankha Higher Secondary School","osm_id":"node/4858981422","dist_m":193,"arrival":"2026-08-26T06:30:19Z","km_downstream":140.6,"marker-color":"#0369a1","marker-symbol":"school"},"geometry":{"type":"Point","coordinates":[84.70489,27.80553]}},{"type":"Feature","properties":{"kind":"school","name":"Shri Janajagriti Primary School","osm_id":"node/4878209122","dist_m":272,"arrival":"2026-08-26T06:49:14Z","km_downstream":151.3,"marker-color":"#0369a1","marker-symbol":"school"},"geometry":{"type":"Point","coordinates":[84.64095,27.86224]}},{"type":"Feature","properties":{"kind":"school","name":"Shri Shilingtar Pra V","osm_id":"node/4912228426","dist_m":226,"arrival":"2026-08-26T07:02:28Z","km_downstream":158.8,"marker-color":"#0369a1","marker-symbol":"school"},"geometry":{"type":"Point","coordinates":[84.59115,27.8816]}},{"type":"Feature","properties":{"kind":"school","name":"Shri Golma Rani Pra V","osm_id":"node/4934940717","dist_m":264,"arrival":"2026-08-26T05:54:51Z","km_downstream":122.1,"marker-color":"#0369a1","marker-symbol":"school"},"geometry":{"type":"Point","coordinates":[84.83795,27.81244]}},{"type":"Feature","properties":{"kind":"school","name":"Shri Belinitar Pra Vi","osm_id":"node/4936634947","dist_m":172,"arrival":"2026-08-26T05:04:27Z","km_downstream":107.3,"marker-color":"#0369a1","marker-symbol":"school"},"geometry":{"type":"Point","coordinates":[84.94426,27.81477]}},{"type":"Feature","properties":{"kind":"school","name":"Shri Chandrodaya Ma Vi","osm_id":"node/4939797039","dist_m":123,"arrival":"2026-08-26T06:11:04Z","km_downstream":129.6,"marker-color":"#0369a1","marker-symbol":"school"},"geometry":{"type":"Point","coordinates":[84.78162,27.81217]}},{"type":"Feature","properties":{"kind":"school","name":"Shri Buddhi Bikash Pra V","osm_id":"node/4941662039","dist_m":193,"arrival":"2026-08-26T06:19:39Z","km_downstream":134.5,"marker-color":"#0369a1","marker-symbol":"school"},"geometry":{"type":"Point","coordinates":[84.74868,27.8035]}},{"type":"Feature","properties":{"kind":"school","name":"Shri Adarsha Uchha Ma V","osm_id":"node/4941743504","dist_m":124,"arrival":"2026-08-26T05:33:00Z","km_downstream":115.7,"marker-color":"#0369a1","marker-symbol":"school"},"geometry":{"type":"Point","coordinates":[84.87933,27.80759]}},{"type":"Feature","properties":{"kind":"school","name":"Shri Aadarsha Bahumukhi Campus","osm_id":"node/4941869402","dist_m":116,"arrival":"2026-08-26T05:33:35Z","km_downstream":115.8,"marker-color":"#0369a1","marker-symbol":"school"},"geometry":{"type":"Point","coordinates":[84.87734,27.80708]}},{"type":"Feature","properties":{"kind":"school","name":"Shree Haku Besi Ni.Ma.V","osm_id":"node/4967821159","dist_m":235,"arrival":"2026-08-26T03:18:12Z","km_downstream":44.8,"marker-color":"#0369a1","marker-symbol":"school"},"geometry":{"type":"Point","coordinates":[85.27947,28.11461]}},{"type":"Feature","properties":{"kind":"school","name":"Shree Chipleti Pra Vi","osm_id":"node/4969579345","dist_m":35,"arrival":"2026-08-26T03:29:09Z","km_downstream":55.7,"marker-color":"#0369a1","marker-symbol":"school"},"geometry":{"type":"Point","coordinates":[85.20818,28.05639]}},{"type":"Feature","properties":{"kind":"school","name":"Shree Simle Pra Vi","osm_id":"node/4969595164","dist_m":196,"arrival":"2026-08-26T03:32:49Z","km_downstream":59.3,"marker-color":"#0369a1","marker-symbol":"school"},"geometry":{"type":"Point","coordinates":[85.19079,28.02976]}},{"type":"Feature","properties":{"kind":"school","name":"Shri Ganeshman Singh Memorial Primary School","osm_id":"node/5055276919","dist_m":112,"arrival":"2026-08-26T04:27:41Z","km_downstream":93.2,"marker-color":"#0369a1","marker-symbol":"school"},"geometry":{"type":"Point","coordinates":[85.02767,27.84914]}},{"type":"Feature","properties":{"kind":"school","name":"Shri Chandi Ni.Ma.Vi.","osm_id":"node/5055300883","dist_m":174,"arrival":"2026-08-26T04:16:24Z","km_downstream":86.8,"marker-color":"#0369a1","marker-symbol":"school"},"geometry":{"type":"Point","coordinates":[85.08063,27.85765]}},{"type":"Feature","properties":{"kind":"school","name":"Shree Pimaltar Uchcha Ma.Vi.","osm_id":"node/5055527657","dist_m":144,"arrival":"2026-08-26T04:30:22Z","km_downstream":94.7,"marker-color":"#0369a1","marker-symbol":"school"},"geometry":{"type":"Point","coordinates":[85.0193,27.83904]}},{"type":"Feature","properties":{"kind":"school","name":"Shree Mandredhunga Pra V","osm_id":"node/5055871471","dist_m":203,"arrival":"2026-08-26T04:04:11Z","km_downstream":80,"marker-color":"#0369a1","marker-symbol":"school"},"geometry":{"type":"Point","coordinates":[85.1299,27.88648]}},{"type":"Feature","properties":{"kind":"school","name":"Shree Mahadev Uchha Ma V","osm_id":"node/5057829568","dist_m":154,"arrival":"2026-08-26T04:37:04Z","km_downstream":98.5,"marker-color":"#0369a1","marker-symbol":"school"},"geometry":{"type":"Point","coordinates":[85.01409,27.81053]}},{"type":"Feature","properties":{"kind":"school","name":"Shri Mahalaxmi Pra.Vi.","osm_id":"node/5063398787","dist_m":218,"arrival":"2026-08-26T04:03:14Z","km_downstream":79.4,"marker-color":"#0369a1","marker-symbol":"school"},"geometry":{"type":"Point","coordinates":[85.13673,27.88631]}},{"type":"Feature","properties":{"kind":"school","name":"Shree Chetana Primary School","osm_id":"node/5063613276","dist_m":110,"arrival":"2026-08-26T03:43:22Z","km_downstream":68.3,"marker-color":"#0369a1","marker-symbol":"school"},"geometry":{"type":"Point","coordinates":[85.17137,27.96187]}},{"type":"Feature","properties":{"kind":"health","name":"Primary Health Center, Gajuri","osm_id":"node/5633699314","dist_m":262,"arrival":"2026-08-26T05:32:58Z","km_downstream":115.7,"marker-color":"#be123c","marker-symbol":"hospital"},"geometry":{"type":"Point","coordinates":[84.87998,27.80648]}},{"type":"Feature","properties":{"kind":"school","name":"Shree Pioneer secondary boarding school","osm_id":"node/7940743986","dist_m":262,"arrival":"2026-08-26T03:43:18Z","km_downstream":68.3,"marker-color":"#0369a1","marker-symbol":"school"},"geometry":{"type":"Point","coordinates":[85.1694,27.96475]}},{"type":"Feature","properties":{"kind":"health","name":"Benighat Health Cllinic","osm_id":"node/9510297618","dist_m":194,"arrival":"2026-08-26T06:11:34Z","km_downstream":129.9,"marker-color":"#be123c","marker-symbol":"hospital"},"geometry":{"type":"Point","coordinates":[84.78001,27.81062]}},{"type":"Feature","properties":{"kind":"school","name":"श्री जनता प्राथमिक विद्यालय","osm_id":"node/9789677599","dist_m":239,"arrival":"2026-08-26T08:01:26Z","km_downstream":180.1,"marker-color":"#0369a1","marker-symbol":"school"},"geometry":{"type":"Point","coordinates":[84.43829,27.81787]}},{"type":"Feature","properties":{"kind":"school","name":"Shree Rastriya Aardharbhut School, Fishling","osm_id":"node/9794119187","dist_m":147,"arrival":"2026-08-26T06:42:38Z","km_downstream":147.6,"marker-color":"#0369a1","marker-symbol":"school"},"geometry":{"type":"Point","coordinates":[84.66148,27.84249]}},{"type":"Feature","properties":{"kind":"school","name":"Green Field Secondary English School, Muglin","osm_id":"node/9794119213","dist_m":42,"arrival":"2026-08-26T07:10:03Z","km_downstream":163,"marker-color":"#0369a1","marker-symbol":"school"},"geometry":{"type":"Point","coordinates":[84.56153,27.85769]}},{"type":"Feature","properties":{"kind":"school","name":"राष्टिय आधारभूत बिध्यालय पैरेनि","osm_id":"node/9794127017","dist_m":194,"arrival":"2026-08-26T07:26:14Z","km_downstream":168.5,"marker-color":"#0369a1","marker-symbol":"school"},"geometry":{"type":"Point","coordinates":[84.52921,27.83178]}},{"type":"Feature","properties":{"kind":"school","name":"Shree Bakulahari Rastriya Adharbhut School, Lewatar","osm_id":"node/9794127019","dist_m":214,"arrival":"2026-08-26T06:59:10Z","km_downstream":156.9,"marker-color":"#0369a1","marker-symbol":"school"},"geometry":{"type":"Point","coordinates":[84.60442,27.87032]}},{"type":"Feature","properties":{"kind":"school","name":"Jaldevi Rastriya Basic School","osm_id":"node/11977595256","dist_m":281,"arrival":"2026-08-26T08:31:05Z","km_downstream":189.9,"marker-color":"#0369a1","marker-symbol":"school"},"geometry":{"type":"Point","coordinates":[84.47495,27.75318]}},{"type":"Feature","properties":{"kind":"school","name":"Rastriya Aadharbhut Vidyalaya, Bhorle","osm_id":"node/11977604118","dist_m":290,"arrival":"2026-08-26T08:02:52Z","km_downstream":180.6,"marker-color":"#0369a1","marker-symbol":"school"},"geometry":{"type":"Point","coordinates":[84.4364,27.81262]}},{"type":"Feature","properties":{"kind":"school","name":"Dumregaun Basic School","osm_id":"node/11977617817","dist_m":90,"arrival":"2026-08-26T07:45:19Z","km_downstream":174.8,"marker-color":"#0369a1","marker-symbol":"school"},"geometry":{"type":"Point","coordinates":[84.48261,27.82042]}},{"type":"Feature","properties":{"kind":"school","name":"Lamagaun Basic School","osm_id":"node/11977617818","dist_m":95,"arrival":"2026-08-26T07:44:47Z","km_downstream":174.6,"marker-color":"#0369a1","marker-symbol":"school"},"geometry":{"type":"Point","coordinates":[84.4844,27.8203]}},{"type":"Feature","properties":{"kind":"bridge","name":"Trishuli Bridge","osm_id":"way/26951332","dist_m":12,"arrival":"2026-08-26T07:11:48Z","km_downstream":163.7,"marker-color":"#0f172a","marker-symbol":"bridge"},"geometry":{"type":"Point","coordinates":[84.55718,27.85404]}},{"type":"Feature","properties":{"kind":"bridge","name":"Bridge (primary)","osm_id":"way/84566285","dist_m":1,"arrival":"2026-08-26T03:10:56Z","km_downstream":37.5,"marker-color":"#0f172a","marker-symbol":"bridge"},"geometry":{"type":"Point","coordinates":[85.33252,28.15739]}},{"type":"Feature","properties":{"kind":"bridge","name":"Bhorle Bridge","osm_id":"way/140332458","dist_m":167,"arrival":"2026-08-26T07:59:11Z","km_downstream":179.4,"marker-color":"#0f172a","marker-symbol":"bridge"},"geometry":{"type":"Point","coordinates":[84.44468,27.82029]}},{"type":"Feature","properties":{"kind":"bridge","name":"Charaudi Khola","osm_id":"way/140332459","dist_m":229,"arrival":"2026-08-26T06:19:31Z","km_downstream":134.4,"marker-color":"#0f172a","marker-symbol":"bridge"},"geometry":{"type":"Point","coordinates":[84.74994,27.80294]}},{"type":"Feature","properties":{"kind":"bridge","name":"Chinsengi khola Bridge","osm_id":"way/140332460","dist_m":88,"arrival":"2026-08-26T07:14:00Z","km_downstream":164.4,"marker-color":"#0f172a","marker-symbol":"bridge"},"geometry":{"type":"Point","coordinates":[84.55913,27.84739]}},{"type":"Feature","properties":{"kind":"bridge","name":"Prithvi Highway","osm_id":"way/140332461","dist_m":116,"arrival":"2026-08-26T04:52:50Z","km_downstream":103.9,"marker-color":"#0f172a","marker-symbol":"bridge"},"geometry":{"type":"Point","coordinates":[84.96832,27.80675]}},{"type":"Feature","properties":{"kind":"bridge","name":"Dahki khola","osm_id":"way/140332462","dist_m":76,"arrival":"2026-08-26T06:50:25Z","km_downstream":152,"marker-color":"#0f172a","marker-symbol":"bridge"},"geometry":{"type":"Point","coordinates":[84.63394,27.86093]}},{"type":"Feature","properties":{"kind":"bridge","name":"Dasdhunga Bridge","osm_id":"way/140332464","dist_m":200,"arrival":"2026-08-26T08:20:29Z","km_downstream":186.4,"marker-color":"#0f172a","marker-symbol":"bridge"},"geometry":{"type":"Point","coordinates":[84.45326,27.77913]}},{"type":"Feature","properties":{"kind":"bridge","name":"Dumpe khola","osm_id":"way/140332465","dist_m":94,"arrival":"2026-08-26T07:52:04Z","km_downstream":177,"marker-color":"#0f172a","marker-symbol":"bridge"},"geometry":{"type":"Point","coordinates":[84.46657,27.81893]}},{"type":"Feature","properties":{"kind":"bridge","name":"Galaundi khola","osm_id":"way/140332466","dist_m":169,"arrival":"2026-08-26T05:28:45Z","km_downstream":114.4,"marker-color":"#0f172a","marker-symbol":"bridge"},"geometry":{"type":"Point","coordinates":[84.88986,27.80738]}},{"type":"Feature","properties":{"kind":"bridge","name":"Prithvi Rajmarga","osm_id":"way/140332470","dist_m":225,"arrival":"2026-08-26T06:09:30Z","km_downstream":128.7,"marker-color":"#0f172a","marker-symbol":"bridge"},"geometry":{"type":"Point","coordinates":[84.78794,27.81225]}},{"type":"Feature","properties":{"kind":"bridge","name":"Khahare Bridge","osm_id":"way/140332471","dist_m":209,"arrival":"2026-08-26T08:24:07Z","km_downstream":187.6,"marker-color":"#0f172a","marker-symbol":"bridge"},"geometry":{"type":"Point","coordinates":[84.46432,27.77261]}},{"type":"Feature","properties":{"kind":"bridge","name":"Jalbire Bridge","osm_id":"way/140332472","dist_m":88,"arrival":"2026-08-26T07:30:59Z","km_downstream":170,"marker-color":"#0f172a","marker-symbol":"bridge"},"geometry":{"type":"Point","coordinates":[84.52149,27.82542]}},{"type":"Feature","properties":{"kind":"bridge","name":"Kali khola","osm_id":"way/140332474","dist_m":73,"arrival":"2026-08-26T07:19:03Z","km_downstream":166.1,"marker-color":"#0f172a","marker-symbol":"bridge"},"geometry":{"type":"Point","coordinates":[84.55279,27.83371]}},{"type":"Feature","properties":{"kind":"bridge","name":"Khani khola","osm_id":"way/140332475","dist_m":61,"arrival":"2026-08-26T08:07:30Z","km_downstream":182.1,"marker-color":"#0f172a","marker-symbol":"bridge"},"geometry":{"type":"Point","coordinates":[84.43166,27.80214]}},{"type":"Feature","properties":{"kind":"bridge","name":"Khor","osm_id":"way/140332477","dist_m":152,"arrival":"2026-08-26T08:17:04Z","km_downstream":185.3,"marker-color":"#0f172a","marker-symbol":"bridge"},"geometry":{"type":"Point","coordinates":[84.4412,27.77949]}},{"type":"Feature","properties":{"kind":"bridge","name":"Lamnbauluwa Bridge","osm_id":"way/140332480","dist_m":82,"arrival":"2026-08-26T08:08:41Z","km_downstream":182.5,"marker-color":"#0f172a","marker-symbol":"bridge"},"geometry":{"type":"Point","coordinates":[84.43197,27.79849]}},{"type":"Feature","properties":{"kind":"bridge","name":"Prithvi Rajmarg","osm_id":"way/140332481","dist_m":170,"arrival":"2026-08-26T05:52:59Z","km_downstream":121.5,"marker-color":"#0f172a","marker-symbol":"bridge"},"geometry":{"type":"Point","coordinates":[84.83537,27.80705]}},{"type":"Feature","properties":{"kind":"bridge","name":"Mauree Bridge","osm_id":"way/140332482","dist_m":172,"arrival":"2026-08-26T07:52:51Z","km_downstream":177.3,"marker-color":"#0f172a","marker-symbol":"bridge"},"geometry":{"type":"Point","coordinates":[84.46297,27.81767]}},{"type":"Feature","properties":{"kind":"bridge","name":"Nagdi khola","osm_id":"way/140332484","dist_m":37,"arrival":"2026-08-26T07:06:53Z","km_downstream":161.3,"marker-color":"#0f172a","marker-symbol":"bridge"},"geometry":{"type":"Point","coordinates":[84.57673,27.86334]}},{"type":"Feature","properties":{"kind":"bridge","name":"Namsi khola","osm_id":"way/140332485","dist_m":99,"arrival":"2026-08-26T07:20:52Z","km_downstream":166.7,"marker-color":"#0f172a","marker-symbol":"bridge"},"geometry":{"type":"Point","coordinates":[84.54706,27.83086]}},{"type":"Feature","properties":{"kind":"bridge","name":"Pokhare khola","osm_id":"way/140332488","dist_m":80,"arrival":"2026-08-26T05:17:30Z","km_downstream":111.1,"marker-color":"#0f172a","marker-symbol":"bridge"},"geometry":{"type":"Point","coordinates":[84.91674,27.79989]}},{"type":"Feature","properties":{"kind":"bridge","name":"Prithvi Rajmarg","osm_id":"way/140332492","dist_m":182,"arrival":"2026-08-26T06:52:21Z","km_downstream":153.1,"marker-color":"#0f172a","marker-symbol":"bridge"},"geometry":{"type":"Point","coordinates":[84.63043,27.8683]}},{"type":"Feature","properties":{"kind":"bridge","name":"Mowa Khola Bridge","osm_id":"way/140332495","dist_m":56,"arrival":"2026-08-26T06:38:49Z","km_downstream":145.4,"marker-color":"#0f172a","marker-symbol":"bridge"},"geometry":{"type":"Point","coordinates":[84.66485,27.82531]}},{"type":"Feature","properties":{"kind":"bridge","name":"Belkhu Khola Bridge","osm_id":"way/140332496","dist_m":278,"arrival":"2026-08-26T05:01:59Z","km_downstream":106.6,"marker-color":"#0f172a","marker-symbol":"bridge"},"geometry":{"type":"Point","coordinates":[84.95118,27.81343]}},{"type":"Feature","properties":{"kind":"bridge","name":"Hugdi Khola Bridge","osm_id":"way/140332497","dist_m":132,"arrival":"2026-08-26T06:31:40Z","km_downstream":141.3,"marker-color":"#0f172a","marker-symbol":"bridge"},"geometry":{"type":"Point","coordinates":[84.69684,27.80723]}},{"type":"Feature","properties":{"kind":"bridge","name":"Soti khola","osm_id":"way/140332519","dist_m":260,"arrival":"2026-08-26T05:37:12Z","km_downstream":116.9,"marker-color":"#0f172a","marker-symbol":"bridge"},"geometry":{"type":"Point","coordinates":[84.87281,27.80091]}},{"type":"Feature","properties":{"kind":"bridge","name":"Tope khola","osm_id":"way/140332520","dist_m":120,"arrival":"2026-08-26T07:20:25Z","km_downstream":166.5,"marker-color":"#0f172a","marker-symbol":"bridge"},"geometry":{"type":"Point","coordinates":[84.54899,27.83121]}},{"type":"Feature","properties":{"kind":"bridge","name":"Bharatpur-Mugling Highway","osm_id":"way/140332530","dist_m":220,"arrival":"2026-08-26T08:26:41Z","km_downstream":188.5,"marker-color":"#0f172a","marker-symbol":"bridge"},"geometry":{"type":"Point","coordinates":[84.47011,27.76633]}},{"type":"Feature","properties":{"kind":"bridge","name":"Bridge (trunk)","osm_id":"way/140332531","dist_m":59,"arrival":"2026-08-26T07:15:22Z","km_downstream":164.9,"marker-color":"#0f172a","marker-symbol":"bridge"},"geometry":{"type":"Point","coordinates":[84.55842,27.84326]}},{"type":"Feature","properties":{"kind":"bridge","name":"Bridge (trunk)","osm_id":"way/140332532","dist_m":99,"arrival":"2026-08-26T07:13:05Z","km_downstream":164.1,"marker-color":"#0f172a","marker-symbol":"bridge"},"geometry":{"type":"Point","coordinates":[84.55851,27.85031]}},{"type":"Feature","properties":{"kind":"bridge","name":"devighat-Tadi bridge","osm_id":"way/168199206","dist_m":205,"arrival":"2026-08-26T04:11:06Z","km_downstream":83.9,"marker-color":"#0f172a","marker-symbol":"bridge"},"geometry":{"type":"Point","coordinates":[85.10914,27.8586]}},{"type":"Feature","properties":{"kind":"bridge","name":"Bridge (primary)","osm_id":"way/209012932","dist_m":215,"arrival":"2026-08-26T04:40:24Z","km_downstream":100.1,"marker-color":"#0f172a","marker-symbol":"bridge"},"geometry":{"type":"Point","coordinates":[85.00097,27.80025]}},{"type":"Feature","properties":{"kind":"bridge","name":"trishuli bridge","osm_id":"way/237590767","dist_m":27,"arrival":"2026-08-26T03:53:56Z","km_downstream":74.2,"marker-color":"#0f172a","marker-symbol":"bridge"},"geometry":{"type":"Point","coordinates":[85.14943,27.92189]}},{"type":"Feature","properties":{"kind":"bridge","name":"Bridge (unclassified)","osm_id":"way/237590778","dist_m":279,"arrival":"2026-08-26T03:48:20Z","km_downstream":71.1,"marker-color":"#0f172a","marker-symbol":"bridge"},"geometry":{"type":"Point","coordinates":[85.15706,27.94286]}},{"type":"Feature","properties":{"kind":"bridge","name":"Bridge (primary)","osm_id":"way/245248450","dist_m":48,"arrival":"2026-08-26T03:06:24Z","km_downstream":32,"marker-color":"#0f172a","marker-symbol":"bridge"},"geometry":{"type":"Point","coordinates":[85.3531,28.20032]}},{"type":"Feature","properties":{"kind":"headworks","name":"headworks","osm_id":"way/246173472","dist_m":81,"arrival":"2026-08-26T03:43:19Z","km_downstream":68.3,"marker-color":"#7c3aed","marker-symbol":"dam"},"geometry":{"type":"Point","coordinates":[85.17042,27.9634]}},{"type":"Feature","properties":{"kind":"bridge","name":"Bridge (primary)","osm_id":"way/248646102","dist_m":90,"arrival":"2026-08-26T03:00:07Z","km_downstream":23.6,"marker-color":"#0f172a","marker-symbol":"bridge"},"geometry":{"type":"Point","coordinates":[85.37605,28.26606]}},{"type":"Feature","properties":{"kind":"school","name":"Tribhuwan Trishuli Higher School","osm_id":"way/258871200","dist_m":125,"arrival":"2026-08-26T03:53:22Z","km_downstream":73.9,"marker-color":"#0369a1","marker-symbol":"school"},"geometry":{"type":"Point","coordinates":[85.14999,27.92374]}},{"type":"Feature","properties":{"kind":"school","name":"Shri Sahid J P Jang Shah Sanskrit Ma V","osm_id":"way/278201422","dist_m":198,"arrival":"2026-08-26T04:09:56Z","km_downstream":83.2,"marker-color":"#0369a1","marker-symbol":"school"},"geometry":{"type":"Point","coordinates":[85.11335,27.8636]}},{"type":"Feature","properties":{"kind":"bridge","name":"Tupche Aama ko pool","osm_id":"way/281810148","dist_m":16,"arrival":"2026-08-26T03:42:50Z","km_downstream":68,"marker-color":"#0f172a","marker-symbol":"bridge"},"geometry":{"type":"Point","coordinates":[85.17344,27.96397]}},{"type":"Feature","properties":{"kind":"bridge","name":"Bridge (unclassified)","osm_id":"way/298744773","dist_m":5,"arrival":"2026-08-26T03:37:09Z","km_downstream":63.6,"marker-color":"#0f172a","marker-symbol":"bridge"},"geometry":{"type":"Point","coordinates":[85.185,27.99549]}},{"type":"Feature","properties":{"kind":"bridge","name":"Suspension Bridge","osm_id":"way/302554531","dist_m":43,"arrival":"2026-08-26T04:32:10Z","km_downstream":95.7,"marker-color":"#0f172a","marker-symbol":"bridge"},"geometry":{"type":"Point","coordinates":[85.02135,27.83168]}},{"type":"Feature","properties":{"kind":"bridge","name":"Bridge (unclassified)","osm_id":"way/302582602","dist_m":31,"arrival":"2026-08-26T07:50:39Z","km_downstream":176.6,"marker-color":"#0f172a","marker-symbol":"bridge"},"geometry":{"type":"Point","coordinates":[84.4655,27.82337]}},{"type":"Feature","properties":{"kind":"bridge","name":"Suspension Bridge","osm_id":"way/302755357","dist_m":59,"arrival":"2026-08-26T04:31:16Z","km_downstream":95.2,"marker-color":"#0f172a","marker-symbol":"bridge"},"geometry":{"type":"Point","coordinates":[85.0224,27.83568]}},{"type":"Feature","properties":{"kind":"bridge","name":"Bridge (tertiary)","osm_id":"way/303036276","dist_m":7,"arrival":"2026-08-26T04:02:15Z","km_downstream":78.9,"marker-color":"#0f172a","marker-symbol":"bridge"},"geometry":{"type":"Point","coordinates":[85.13639,27.89232]}},{"type":"Feature","properties":{"kind":"bridge","name":"Narayanghat-Muglin Highway","osm_id":"way/334583513","dist_m":145,"arrival":"2026-08-26T08:02:04Z","km_downstream":180.3,"marker-color":"#0f172a","marker-symbol":"bridge"},"geometry":{"type":"Point","coordinates":[84.43753,27.81425]}},{"type":"Feature","properties":{"kind":"bridge","name":"Narayanghat-Muglin Highway","osm_id":"way/334583516","dist_m":173,"arrival":"2026-08-26T08:00:18Z","km_downstream":179.7,"marker-color":"#0f172a","marker-symbol":"bridge"},"geometry":{"type":"Point","coordinates":[84.44331,27.8182]}},{"type":"Feature","properties":{"kind":"bridge","name":"Bridge (unclassified)","osm_id":"way/340465627","dist_m":72,"arrival":"2026-08-26T03:31:27Z","km_downstream":57.9,"marker-color":"#0f172a","marker-symbol":"bridge"},"geometry":{"type":"Point","coordinates":[85.19399,28.04107]}},{"type":"Feature","properties":{"kind":"bridge","name":"Bridge (unclassified)","osm_id":"way/340465628","dist_m":51,"arrival":"2026-08-26T03:29:36Z","km_downstream":56.1,"marker-color":"#0f172a","marker-symbol":"bridge"},"geometry":{"type":"Point","coordinates":[85.20631,28.053]}},{"type":"Feature","properties":{"kind":"bridge","name":"Bridge (unclassified)","osm_id":"way/340503483","dist_m":59,"arrival":"2026-08-26T03:45:17Z","km_downstream":69.4,"marker-color":"#0f172a","marker-symbol":"bridge"},"geometry":{"type":"Point","coordinates":[85.16414,27.95518]}},{"type":"Feature","properties":{"kind":"bridge","name":"Bridge (unclassified)","osm_id":"way/340503487","dist_m":119,"arrival":"2026-08-26T03:46:54Z","km_downstream":70.3,"marker-color":"#0f172a","marker-symbol":"bridge"},"geometry":{"type":"Point","coordinates":[85.16387,27.94871]}},{"type":"Feature","properties":{"kind":"bridge","name":"Trishuli River Old Bridge","osm_id":"way/340581850","dist_m":9,"arrival":"2026-08-26T03:58:23Z","km_downstream":76.7,"marker-color":"#0f172a","marker-symbol":"bridge"},"geometry":{"type":"Point","coordinates":[85.1386,27.90942]}},{"type":"Feature","properties":{"kind":"bridge","name":"Keurintar Hanging Bridge","osm_id":"way/340856784","dist_m":6,"arrival":"2026-08-26T04:58:20Z","km_downstream":105.5,"marker-color":"#0f172a","marker-symbol":"bridge"},"geometry":{"type":"Point","coordinates":[84.96185,27.81652]}},{"type":"Feature","properties":{"kind":"school","name":"Shree Chandeswori Uchha Ma.Vi.","osm_id":"way/341049859","dist_m":277,"arrival":"2026-08-26T03:43:26Z","km_downstream":68.3,"marker-color":"#0369a1","marker-symbol":"school"},"geometry":{"type":"Point","coordinates":[85.16873,27.96448]}},{"type":"Feature","properties":{"kind":"school","name":"Marsyangdi Shikshya Sadan English Boarding School","osm_id":"way/341125947","dist_m":103,"arrival":"2026-08-26T07:10:41Z","km_downstream":163.2,"marker-color":"#0369a1","marker-symbol":"school"},"geometry":{"type":"Point","coordinates":[84.55942,27.85653]}},{"type":"Feature","properties":{"kind":"bridge","name":"Bridge (unclassified)","osm_id":"way/341170660","dist_m":13,"arrival":"2026-08-26T03:45:20Z","km_downstream":69.4,"marker-color":"#0f172a","marker-symbol":"bridge"},"geometry":{"type":"Point","coordinates":[85.16374,27.95575]}},{"type":"Feature","properties":{"kind":"bridge","name":"Bridge (unclassified)","osm_id":"way/341174340","dist_m":78,"arrival":"2026-08-26T03:45:20Z","km_downstream":69.4,"marker-color":"#0f172a","marker-symbol":"bridge"},"geometry":{"type":"Point","coordinates":[85.16356,27.95631]}},{"type":"Feature","properties":{"kind":"school","name":"Shri Rana Bhuwaneswari Uccha Madhyamik Prabidhik Bidyalaya","osm_id":"way/341439784","dist_m":181,"arrival":"2026-08-26T04:10:43Z","km_downstream":83.7,"marker-color":"#0369a1","marker-symbol":"school"},"geometry":{"type":"Point","coordinates":[85.10769,27.86235]}},{"type":"Feature","properties":{"kind":"bridge","name":"Falaakhu River Bridge","osm_id":"way/341461646","dist_m":237,"arrival":"2026-08-26T03:40:17Z","km_downstream":66.4,"marker-color":"#0f172a","marker-symbol":"bridge"},"geometry":{"type":"Point","coordinates":[85.18577,27.97419]}},{"type":"Feature","properties":{"kind":"bridge","name":"Bridge (primary)","osm_id":"way/341557606","dist_m":60,"arrival":"2026-08-26T03:08:13Z","km_downstream":34.3,"marker-color":"#0f172a","marker-symbol":"bridge"},"geometry":{"type":"Point","coordinates":[85.3422,28.1816]}},{"type":"Feature","properties":{"kind":"bridge","name":"Bridge (primary)","osm_id":"way/341557608","dist_m":1,"arrival":"2026-08-26T03:08:05Z","km_downstream":34.2,"marker-color":"#0f172a","marker-symbol":"bridge"},"geometry":{"type":"Point","coordinates":[85.34352,28.18258]}},{"type":"Feature","properties":{"kind":"headworks","name":"headworks","osm_id":"way/341587493","dist_m":9,"arrival":"2026-08-26T03:43:22Z","km_downstream":68.3,"marker-color":"#7c3aed","marker-symbol":"dam"},"geometry":{"type":"Point","coordinates":[85.17066,27.96274]}},{"type":"Feature","properties":{"kind":"bridge","name":"Pasang Lhamu Highway","osm_id":"way/341766306","dist_m":176,"arrival":"2026-08-26T04:21:49Z","km_downstream":89.9,"marker-color":"#0f172a","marker-symbol":"bridge"},"geometry":{"type":"Point","coordinates":[85.0568,27.85386]}},{"type":"Feature","properties":{"kind":"bridge","name":"Pasang Lhamu Highway","osm_id":"way/341768633","dist_m":179,"arrival":"2026-08-26T04:16:20Z","km_downstream":86.8,"marker-color":"#0f172a","marker-symbol":"bridge"},"geometry":{"type":"Point","coordinates":[85.08113,27.85449]}},{"type":"Feature","properties":{"kind":"bridge","name":"Bridge (unclassified)","osm_id":"way/341806759","dist_m":187,"arrival":"2026-08-26T04:49:15Z","km_downstream":102.8,"marker-color":"#0f172a","marker-symbol":"bridge"},"geometry":{"type":"Point","coordinates":[84.97643,27.80316]}},{"type":"Feature","properties":{"kind":"bridge","name":"Bridge (unclassified)","osm_id":"way/341889629","dist_m":124,"arrival":"2026-08-26T03:46:57Z","km_downstream":70.3,"marker-color":"#0f172a","marker-symbol":"bridge"},"geometry":{"type":"Point","coordinates":[85.16143,27.94832]}},{"type":"Feature","properties":{"kind":"bridge","name":"Out of order","osm_id":"way/342039410","dist_m":2,"arrival":"2026-08-26T03:05:30Z","km_downstream":30.8,"marker-color":"#0f172a","marker-symbol":"bridge"},"geometry":{"type":"Point","coordinates":[85.35424,28.21065]}},{"type":"Feature","properties":{"kind":"bridge","name":"Suspension Bridge","osm_id":"way/342147151","dist_m":8,"arrival":"2026-08-26T03:48:54Z","km_downstream":71.4,"marker-color":"#0f172a","marker-symbol":"bridge"},"geometry":{"type":"Point","coordinates":[85.15826,27.93936]}},{"type":"Feature","properties":{"kind":"bridge","name":"Bridge (unclassified)","osm_id":"way/342320930","dist_m":78,"arrival":"2026-08-26T04:08:27Z","km_downstream":82.4,"marker-color":"#0f172a","marker-symbol":"bridge"},"geometry":{"type":"Point","coordinates":[85.11583,27.87085]}},{"type":"Feature","properties":{"kind":"bridge","name":"Bridge (unclassified)","osm_id":"way/342320931","dist_m":24,"arrival":"2026-08-26T04:08:26Z","km_downstream":82.4,"marker-color":"#0f172a","marker-symbol":"bridge"},"geometry":{"type":"Point","coordinates":[85.11619,27.87047]}},{"type":"Feature","properties":{"kind":"bridge","name":"Bridge (unclassified)","osm_id":"way/342320932","dist_m":56,"arrival":"2026-08-26T04:08:25Z","km_downstream":82.4,"marker-color":"#0f172a","marker-symbol":"bridge"},"geometry":{"type":"Point","coordinates":[85.11671,27.86992]}},{"type":"Feature","properties":{"kind":"bridge","name":"Prithvi Highway","osm_id":"way/342372009","dist_m":243,"arrival":"2026-08-26T04:47:07Z","km_downstream":102.2,"marker-color":"#0f172a","marker-symbol":"bridge"},"geometry":{"type":"Point","coordinates":[84.98359,27.80087]}},{"type":"Feature","properties":{"kind":"headworks","name":"headworks","osm_id":"way/342505749","dist_m":198,"arrival":"2026-08-26T04:03:24Z","km_downstream":79.5,"marker-color":"#7c3aed","marker-symbol":"dam"},"geometry":{"type":"Point","coordinates":[85.13364,27.88899]}},{"type":"Feature","properties":{"kind":"bridge","name":"Bridge (unclassified)","osm_id":"way/343903499","dist_m":11,"arrival":"2026-08-26T06:11:55Z","km_downstream":130.1,"marker-color":"#0f172a","marker-symbol":"bridge"},"geometry":{"type":"Point","coordinates":[84.77725,27.81049]}},{"type":"Feature","properties":{"kind":"bridge","name":"Prithvi Rajmarga","osm_id":"way/345107841","dist_m":62,"arrival":"2026-08-26T06:07:29Z","km_downstream":127.6,"marker-color":"#0f172a","marker-symbol":"bridge"},"geometry":{"type":"Point","coordinates":[84.80053,27.81391]}},{"type":"Feature","properties":{"kind":"bridge","name":"Pasang Lhamu Highway","osm_id":"way/345313942","dist_m":113,"arrival":"2026-08-26T03:40:38Z","km_downstream":66.6,"marker-color":"#0f172a","marker-symbol":"bridge"},"geometry":{"type":"Point","coordinates":[85.18483,27.97042]}},{"type":"Feature","properties":{"kind":"bridge","name":"Simaltal Bridge","osm_id":"way/378605396","dist_m":121,"arrival":"2026-08-26T07:45:04Z","km_downstream":174.7,"marker-color":"#0f172a","marker-symbol":"bridge"},"geometry":{"type":"Point","coordinates":[84.48344,27.8201]}},{"type":"Feature","properties":{"kind":"bridge","name":"Pasang Lhamu Highway","osm_id":"way/379104231","dist_m":135,"arrival":"2026-08-26T03:50:34Z","km_downstream":72.3,"marker-color":"#0f172a","marker-symbol":"bridge"},"geometry":{"type":"Point","coordinates":[85.15489,27.93085]}},{"type":"Feature","properties":{"kind":"bridge","name":"Furke Khola Bridge","osm_id":"way/435417464","dist_m":8,"arrival":"2026-08-26T05:48:56Z","km_downstream":120.4,"marker-color":"#0f172a","marker-symbol":"bridge"},"geometry":{"type":"Point","coordinates":[84.84418,27.80241]}},{"type":"Feature","properties":{"kind":"school","name":"Shree Rakta Bachchhala Ni Ma Vi","osm_id":"way/448813338","dist_m":152,"arrival":"2026-08-26T04:54:51Z","km_downstream":104.5,"marker-color":"#0369a1","marker-symbol":"school"},"geometry":{"type":"Point","coordinates":[84.96732,27.81296]}},{"type":"Feature","properties":{"kind":"school","name":"Madrassa Islamiyafaijul Ulum","osm_id":"way/497989248","dist_m":107,"arrival":"2026-08-26T06:12:20Z","km_downstream":130.3,"marker-color":"#0369a1","marker-symbol":"school"},"geometry":{"type":"Point","coordinates":[84.77475,27.80977]}},{"type":"Feature","properties":{"kind":"school","name":"Shree Mahakali Ma V","osm_id":"way/503155978","dist_m":280,"arrival":"2026-08-26T05:20:08Z","km_downstream":111.9,"marker-color":"#0369a1","marker-symbol":"school"},"geometry":{"type":"Point","coordinates":[84.91138,27.80745]}},{"type":"Feature","properties":{"kind":"school","name":"Shree Barahi Pra Vi","osm_id":"way/503534896","dist_m":221,"arrival":"2026-08-26T04:39:27Z","km_downstream":99.7,"marker-color":"#0369a1","marker-symbol":"school"},"geometry":{"type":"Point","coordinates":[85.00377,27.8055]}},{"type":"Feature","properties":{"kind":"school","name":"Shree Bageshwori Pra V","osm_id":"way/503947539","dist_m":117,"arrival":"2026-08-26T05:38:51Z","km_downstream":117.4,"marker-color":"#0369a1","marker-symbol":"school"},"geometry":{"type":"Point","coordinates":[84.86721,27.80045]}},{"type":"Feature","properties":{"kind":"school","name":"Shree Shyamey Wangphel Uchha Ma. VI.","osm_id":"way/507472570","dist_m":119,"arrival":"2026-08-26T03:09:57Z","km_downstream":36.4,"marker-color":"#0369a1","marker-symbol":"school"},"geometry":{"type":"Point","coordinates":[85.33932,28.16499]}},{"type":"Feature","properties":{"kind":"school","name":"Tribhuwan Trisuli Multiple Campus","osm_id":"way/512730541","dist_m":146,"arrival":"2026-08-26T03:52:57Z","km_downstream":73.7,"marker-color":"#0369a1","marker-symbol":"school"},"geometry":{"type":"Point","coordinates":[85.1494,27.92541]}},{"type":"Feature","properties":{"kind":"school","name":"Shree Ramchandra Ni Ma Vi","osm_id":"way/516998502","dist_m":64,"arrival":"2026-08-26T03:40:36Z","km_downstream":66.6,"marker-color":"#0369a1","marker-symbol":"school"},"geometry":{"type":"Point","coordinates":[85.18459,27.97091]}},{"type":"Feature","properties":{"kind":"health","name":"health","osm_id":"way/589973190","dist_m":266,"arrival":"2026-08-26T05:32:57Z","km_downstream":115.7,"marker-color":"#be123c","marker-symbol":"hospital"},"geometry":{"type":"Point","coordinates":[84.88003,27.80646]}},{"type":"Feature","properties":{"kind":"school","name":"Shree Aadarsha HS School","osm_id":"way/590141153","dist_m":116,"arrival":"2026-08-26T05:32:58Z","km_downstream":115.7,"marker-color":"#0369a1","marker-symbol":"school"},"geometry":{"type":"Point","coordinates":[84.87939,27.80769]}},{"type":"Feature","properties":{"kind":"school","name":"Shree Bhadrakali Gurukul Saskriti Bidhyalaya","osm_id":"way/594084567","dist_m":123,"arrival":"2026-08-26T05:52:54Z","km_downstream":121.5,"marker-color":"#0369a1","marker-symbol":"school"},"geometry":{"type":"Point","coordinates":[84.83591,27.80709]}},{"type":"Feature","properties":{"kind":"school","name":"shree satyawati higher secondary school","osm_id":"way/639113707","dist_m":219,"arrival":"2026-08-26T05:07:17Z","km_downstream":108.1,"marker-color":"#0369a1","marker-symbol":"school"},"geometry":{"type":"Point","coordinates":[84.94022,27.80868]}},{"type":"Feature","properties":{"kind":"bridge","name":"Bharatpur-Mugling Highway","osm_id":"way/671340085","dist_m":105,"arrival":"2026-08-26T07:54:51Z","km_downstream":177.9,"marker-color":"#0f172a","marker-symbol":"bridge"},"geometry":{"type":"Point","coordinates":[84.45622,27.81877]}},{"type":"Feature","properties":{"kind":"bridge","name":"Bridge (unclassified)","osm_id":"way/695709585","dist_m":6,"arrival":"2026-08-26T08:19:06Z","km_downstream":186,"marker-color":"#0f172a","marker-symbol":"bridge"},"geometry":{"type":"Point","coordinates":[84.44811,27.7782]}},{"type":"Feature","properties":{"kind":"bridge","name":"Bridge (primary)","osm_id":"way/897866243","dist_m":79,"arrival":"2026-08-26T03:04:00Z","km_downstream":28.8,"marker-color":"#0f172a","marker-symbol":"bridge"},"geometry":{"type":"Point","coordinates":[85.3618,28.22656]}},{"type":"Feature","properties":{"kind":"bridge","name":"Bridge (unclassified)","osm_id":"way/912360483","dist_m":24,"arrival":"2026-08-26T03:28:07Z","km_downstream":54.6,"marker-color":"#0f172a","marker-symbol":"bridge"},"geometry":{"type":"Point","coordinates":[85.20627,28.06524]}},{"type":"Feature","properties":{"kind":"bridge","name":"Bridge (unclassified)","osm_id":"way/937405880","dist_m":49,"arrival":"2026-08-26T03:01:36Z","km_downstream":25.7,"marker-color":"#0f172a","marker-symbol":"bridge"},"geometry":{"type":"Point","coordinates":[85.36428,28.25201]}},{"type":"Feature","properties":{"kind":"bridge","name":"Bridge (unclassified)","osm_id":"way/1017959928","dist_m":16,"arrival":"2026-08-26T03:09:56Z","km_downstream":36.4,"marker-color":"#0f172a","marker-symbol":"bridge"},"geometry":{"type":"Point","coordinates":[85.33998,28.16423]}},{"type":"Feature","properties":{"kind":"bridge","name":"Jalbire Bridge","osm_id":"way/1187533976","dist_m":213,"arrival":"2026-08-26T07:31:04Z","km_downstream":170.1,"marker-color":"#0f172a","marker-symbol":"bridge"},"geometry":{"type":"Point","coordinates":[84.52278,27.82531]}},{"type":"Feature","properties":{"kind":"bridge","name":"Trishuli River Bridge","osm_id":"way/1219434228","dist_m":12,"arrival":"2026-08-26T03:58:23Z","km_downstream":76.7,"marker-color":"#0f172a","marker-symbol":"bridge"},"geometry":{"type":"Point","coordinates":[85.13861,27.90948]}},{"type":"Feature","properties":{"kind":"bridge","name":"Khani khola","osm_id":"way/1265212911","dist_m":73,"arrival":"2026-08-26T08:07:30Z","km_downstream":182.1,"marker-color":"#0f172a","marker-symbol":"bridge"},"geometry":{"type":"Point","coordinates":[84.43178,27.80215]}},{"type":"Feature","properties":{"kind":"bridge","name":"Bridge (unclassified)","osm_id":"way/1266664498","dist_m":41,"arrival":"2026-08-26T04:44:01Z","km_downstream":101.3,"marker-color":"#0f172a","marker-symbol":"bridge"},"geometry":{"type":"Point","coordinates":[84.99046,27.80426]}},{"type":"Feature","properties":{"kind":"bridge","name":"Bridge (residential)","osm_id":"way/1307424609","dist_m":7,"arrival":"2026-08-26T08:42:08Z","km_downstream":193.6,"marker-color":"#0f172a","marker-symbol":"bridge"},"geometry":{"type":"Point","coordinates":[84.44365,27.75125]}},{"type":"Feature","properties":{"kind":"bridge","name":"Bridge (unclassified)","osm_id":"way/1378017630","dist_m":14,"arrival":"2026-08-26T05:14:38Z","km_downstream":110.3,"marker-color":"#0f172a","marker-symbol":"bridge"},"geometry":{"type":"Point","coordinates":[84.92436,27.79776]}},{"type":"Feature","properties":{"kind":"bridge","name":"Trisuli Bridge","osm_id":"way/1408714154","dist_m":9,"arrival":"2026-08-26T06:42:58Z","km_downstream":147.7,"marker-color":"#0f172a","marker-symbol":"bridge"},"geometry":{"type":"Point","coordinates":[84.66206,27.84458]}},{"type":"Feature","properties":{"kind":"bridge","name":"Bridge (unclassified)","osm_id":"way/1408714157","dist_m":9,"arrival":"2026-08-26T05:23:47Z","km_downstream":113,"marker-color":"#0f172a","marker-symbol":"bridge"},"geometry":{"type":"Point","coordinates":[84.90445,27.80741]}},{"type":"Feature","properties":{"kind":"bridge","name":"Bridge (unclassified)","osm_id":"way/1422414758","dist_m":24,"arrival":"2026-08-26T03:02:45Z","km_downstream":27.2,"marker-color":"#0f172a","marker-symbol":"bridge"},"geometry":{"type":"Point","coordinates":[85.35816,28.24073]}},{"type":"Feature","properties":{"kind":"bridge","name":"Bridge (unclassified)","osm_id":"way/1422422619","dist_m":10,"arrival":"2026-08-26T03:01:17Z","km_downstream":25.3,"marker-color":"#0f172a","marker-symbol":"bridge"},"geometry":{"type":"Point","coordinates":[85.36536,28.25573]}},{"type":"Feature","properties":{"kind":"bridge","name":"Bharatpur-Mugling Highway","osm_id":"way/1426817350","dist_m":244,"arrival":"2026-08-26T08:26:38Z","km_downstream":188.5,"marker-color":"#0f172a","marker-symbol":"bridge"},"geometry":{"type":"Point","coordinates":[84.47029,27.76652]}},{"type":"Feature","properties":{"kind":"bridge","name":"Khahare Bridge","osm_id":"way/1426817363","dist_m":227,"arrival":"2026-08-26T08:24:06Z","km_downstream":187.6,"marker-color":"#0f172a","marker-symbol":"bridge"},"geometry":{"type":"Point","coordinates":[84.46444,27.77273]}},{"type":"Feature","properties":{"kind":"bridge","name":"Bridge (unclassified)","osm_id":"way/1432603259","dist_m":33,"arrival":"2026-08-26T04:56:12Z","km_downstream":104.9,"marker-color":"#0f172a","marker-symbol":"bridge"},"geometry":{"type":"Point","coordinates":[84.96529,27.81192]}},{"type":"Feature","properties":{"kind":"bridge","name":"Bridge (primary)","osm_id":"way/1443180803","dist_m":2,"arrival":"2026-08-26T02:59:17Z","km_downstream":22.2,"marker-color":"#0f172a","marker-symbol":"bridge"},"geometry":{"type":"Point","coordinates":[85.37804,28.27871]}},{"type":"Feature","properties":{"kind":"hydropower","name":"Hydropower","capacity":"yes","osm_id":"way/1443565890","dist_m":18,"arrival":"2026-08-26T03:28:17Z","km_downstream":54.8,"marker-color":"#7c3aed","marker-symbol":"dam"},"geometry":{"type":"Point","coordinates":[85.20666,28.06382]}},{"type":"Feature","properties":{"kind":"bridge","name":"Bridge (tertiary)","osm_id":"way/1463147997","dist_m":20,"arrival":"2026-08-26T03:54:14Z","km_downstream":74.4,"marker-color":"#0f172a","marker-symbol":"bridge"},"geometry":{"type":"Point","coordinates":[85.14796,27.92122]}},{"type":"Feature","properties":{"kind":"bridge","name":"Bridge (residential)","osm_id":"way/1484953717","dist_m":14,"arrival":"2026-08-26T05:24:38Z","km_downstream":113.2,"marker-color":"#0f172a","marker-symbol":"bridge"},"geometry":{"type":"Point","coordinates":[84.90201,27.80663]}},{"type":"Feature","properties":{"kind":"bridge","name":"Pokhare khola","osm_id":"way/1485331752","dist_m":68,"arrival":"2026-08-26T05:17:30Z","km_downstream":111.1,"marker-color":"#0f172a","marker-symbol":"bridge"},"geometry":{"type":"Point","coordinates":[84.91679,27.79999]}},{"type":"Feature","properties":{"kind":"bridge","name":"Khor","osm_id":"way/1485643961","dist_m":139,"arrival":"2026-08-26T08:17:03Z","km_downstream":185.3,"marker-color":"#0f172a","marker-symbol":"bridge"},"geometry":{"type":"Point","coordinates":[84.44118,27.77936]}},{"type":"Feature","properties":{"kind":"bridge","name":"Lamnbauluwa Bridge","osm_id":"way/1485643964","dist_m":71,"arrival":"2026-08-26T08:08:40Z","km_downstream":182.5,"marker-color":"#0f172a","marker-symbol":"bridge"},"geometry":{"type":"Point","coordinates":[84.43187,27.79853]}},{"type":"Feature","properties":{"kind":"bridge","name":"Dumpe khola","osm_id":"way/1485643969","dist_m":82,"arrival":"2026-08-26T07:52:04Z","km_downstream":177,"marker-color":"#0f172a","marker-symbol":"bridge"},"geometry":{"type":"Point","coordinates":[84.46646,27.81899]}},{"type":"Feature","properties":{"kind":"bridge","name":"Simaltal Bridge","osm_id":"way/1485643973","dist_m":132,"arrival":"2026-08-26T07:45:04Z","km_downstream":174.7,"marker-color":"#0f172a","marker-symbol":"bridge"},"geometry":{"type":"Point","coordinates":[84.48346,27.82]}},{"type":"Feature","properties":{"kind":"bridge","name":"Bridge (trunk)","osm_id":"way/1485643976","dist_m":127,"arrival":"2026-08-26T07:40:53Z","km_downstream":173.3,"marker-color":"#0f172a","marker-symbol":"bridge"},"geometry":{"type":"Point","coordinates":[84.49636,27.81946]}},{"type":"Feature","properties":{"kind":"hydropower","name":"Trishuli Hydropower Station","capacity":"24 MW","osm_id":"relation/5143911","dist_m":94,"arrival":"2026-08-26T03:54:34Z","km_downstream":74.6,"marker-color":"#7c3aed","marker-symbol":"dam"},"geometry":{"type":"Point","coordinates":[85.14599,27.92148]}}]}