{"type":"FeatureCollection","features":[{"type":"Feature","properties":{"name":"Copernicus EMS mapped area: Syapru Besi","fill":"#ffffff","fill-opacity":0,"stroke":"#0f172a","stroke-width":1.2},"geometry":{"type":"Polygon","coordinates":[[[85.33471,28.16376],[85.34191,28.18502],[85.34203,28.18533],[85.34515,28.18819],[85.34827,28.18766],[85.34749,28.18274],[85.34749,28.18258],[85.34749,28.18237],[85.34791,28.17285],[85.34527,28.16392],[85.34131,28.16064],[85.33501,28.15541],[85.32572,28.14912],[85.3232,28.15208],[85.33471,28.16376]]]}},{"type":"Feature","properties":{"name":"Copernicus EMS mapped area: Timure","fill":"#ffffff","fill-opacity":0,"stroke":"#0f172a","stroke-width":1.2},"geometry":{"type":"Polygon","coordinates":[[[85.3783,28.26615],[85.37426,28.26082],[85.3695,28.25627],[85.36795,28.25221],[85.36672,28.24873],[85.36438,28.24479],[85.36118,28.24301],[85.35939,28.24237],[85.35708,28.24345],[85.36692,28.26392],[85.37528,28.27895],[85.37648,28.27994],[85.37699,28.27885],[85.37687,28.27835],[85.37696,28.27793],[85.37797,28.27841],[85.37902,28.27911],[85.37967,28.27832],[85.38058,28.27831],[85.3797,28.27434],[85.37972,28.27087],[85.3783,28.26615]]]}},{"type":"Feature","properties":{"name":"Copernicus EMS mapped area: Bidur","fill":"#ffffff","fill-opacity":0,"stroke":"#0f172a","stroke-width":1.2},"geometry":{"type":"Polygon","coordinates":[[[85.17276,27.98143],[85.17249,27.98225],[85.17422,27.98425],[85.17786,27.98452],[85.17819,27.98794],[85.1801,27.99408],[85.18201,27.99635],[85.18192,28.00648],[85.18119,28.0091],[85.1859,28.00902],[85.18711,28.00362],[85.18747,27.99874],[85.18735,27.99596],[85.18419,27.98909],[85.18261,27.98286],[85.1848,27.97591],[85.18596,27.97633],[85.1883,27.97751],[85.18977,27.97757],[85.19236,27.97636],[85.19287,27.97549],[85.19277,27.97445],[85.19107,27.97311],[85.18712,27.9697],[85.1774,27.963],[85.17505,27.96196],[85.17271,27.96029],[85.16682,27.95373],[85.16714,27.9512],[85.16678,27.94858],[85.16532,27.94436],[85.1604,27.93663],[85.15842,27.93209],[85.15746,27.93073],[85.15435,27.92892],[85.15439,27.92517],[85.15342,27.92215],[85.15198,27.92072],[85.14908,27.91953],[85.14696,27.919],[85.14433,27.91638],[85.14375,27.91542],[85.14533,27.91168],[85.14854,27.90727],[85.15078,27.90203],[85.15071,27.89699],[85.14868,27.88902],[85.14484,27.88378],[85.14022,27.87959],[85.12129,27.86553],[85.11723,27.86188],[85.10899,27.85674],[85.10189,27.85698],[85.09925,27.85939],[85.10626,27.86926],[85.11084,27.87353],[85.11796,27.87756],[85.12128,27.8823],[85.12707,27.88663],[85.12894,27.8877],[85.13342,27.89174],[85.13419,27.89371],[85.1341,27.89921],[85.13234,27.90499],[85.13389,27.91005],[85.1337,27.91184],[85.13259,27.91396],[85.13263,27.91541],[85.13336,27.92177],[85.13403,27.92366],[85.13882,27.92375],[85.14208,27.92792],[85.14458,27.92958],[85.14712,27.93756],[85.15428,27.94323],[85.15835,27.95006],[85.16002,27.95558],[85.16027,27.95763],[85.16426,27.95987],[85.16647,27.96442],[85.17015,27.96815],[85.17497,27.97004],[85.17846,27.97191],[85.17944,27.97346],[85.17985,27.97614],[85.17837,27.97991],[85.17802,27.98084],[85.17276,27.98143]]]}},{"type":"Feature","properties":{"name":"Copernicus EMS mapped area: Phosretar","fill":"#ffffff","fill-opacity":0,"stroke":"#0f172a","stroke-width":1.2},"geometry":{"type":"Polygon","coordinates":[[[85.10189,27.85698],[85.109,27.85674],[85.09796,27.85282],[85.09014,27.85214],[85.07332,27.84734],[85.06013,27.85218],[85.05772,27.8505],[85.05412,27.84823],[85.04724,27.84856],[85.04086,27.85087],[85.03483,27.84864],[85.02682,27.84189],[85.02615,27.83497],[85.02253,27.82363],[85.02042,27.81577],[85.01311,27.80234],[85.00794,27.79803],[85.00931,27.79549],[85.00687,27.79309],[85.00474,27.79681],[85.00223,27.79509],[84.99851,27.7947],[84.99325,27.79566],[84.98481,27.79609],[84.97823,27.797],[84.97273,27.79917],[84.96798,27.805],[84.95973,27.80625],[84.95639,27.81284],[84.94906,27.81092],[84.9455,27.80433],[84.94131,27.81425],[84.94581,27.81725],[84.95473,27.82025],[84.96718,27.81858],[84.97398,27.81617],[84.97373,27.809],[84.98256,27.80617],[84.99264,27.80883],[84.9984,27.80984],[85.00696,27.81062],[85.01261,27.81935],[85.01397,27.84369],[85.01925,27.85034],[85.02862,27.8562],[85.04034,27.85959],[85.05242,27.85825],[85.05673,27.86234],[85.06626,27.86149],[85.06932,27.86114],[85.07546,27.85935],[85.07819,27.86054],[85.08337,27.86077],[85.08426,27.86482],[85.09322,27.86701],[85.09988,27.86706],[85.10293,27.86457],[85.09925,27.85939],[85.10189,27.85698]]]}}]}