{"type":"FeatureCollection","features":[{"type":"Feature","properties":{"name":"USGS epicentre (Ms 5.2 “landslide”)","kind":"source","note":"us7000tbwb, 08:37:10 NPT","marker-color":"#7c2d12","marker-size":"medium"},"geometry":{"type":"Point","coordinates":[85.515,28.271]}},{"type":"Feature","properties":{"name":"Source estimate from Planet imagery","kind":"source","note":"research dossier","marker-color":"#7c2d12","marker-size":"medium"},"geometry":{"type":"Point","coordinates":[85.5194,28.2765]}},{"type":"Feature","properties":{"name":"Glaciological source estimate","kind":"source","note":"research dossier","marker-color":"#7c2d12","marker-size":"medium"},"geometry":{"type":"Point","coordinates":[85.5252,28.2853]}},{"type":"Feature","properties":{"name":"GFZ source estimate (Mw 5.7)","kind":"source","note":"research dossier","marker-color":"#7c2d12","marker-size":"medium"},"geometry":{"type":"Point","coordinates":[85.5,28.3]}},{"type":"Feature","properties":{"name":"UNOSAT possible triggering location","kind":"source","note":"Inside the 1.96 km² detachment zone (UNOSAT)","marker-color":"#7c2d12","marker-size":"medium"},"geometry":{"type":"Point","coordinates":[85.52168,28.28958]}},{"type":"Feature","properties":{"name":"Main barrier lake (≈2 Mm³, 11.9 ha)","kind":"lake","note":"Overflowed 28 Aug ~15:35 NPT; drained 29–30 Aug (UNOSAT area, 28 Aug)","marker-color":"#0369a1","marker-size":"medium"},"geometry":{"type":"Point","coordinates":[85.482,28.3327]}},{"type":"Feature","properties":{"name":"Barrier lake below the source (19.5 ha)","kind":"lake","note":"Assessed as low risk (UNOSAT area, 28 Aug)","marker-color":"#0369a1","marker-size":"medium"},"geometry":{"type":"Point","coordinates":[85.5108,28.2928]}},{"type":"Feature","properties":{"name":"Second failure, 11:45:35 (USGS, relocated)","kind":"source","note":"us7000tc90, M4.2; relocated beside the lower lake on 21 Sep — interpretation uncertain","marker-color":"#7c2d12","marker-size":"medium"},"geometry":{"type":"Point","coordinates":[85.4798,28.3281]}},{"type":"Feature","properties":{"name":"Tiru, Uttargaya-1","kind":"report","note":"More than 500 unaccounted for; first reached by helicopter 9 Sep","marker-color":"#6d28d9","marker-size":"small"},"geometry":{"type":"Point","coordinates":[85.2096,28.0907]}},{"type":"Feature","properties":{"name":"Haku Besi","kind":"report","note":"km 44.5","marker-color":"#6d28d9","marker-size":"small"},"geometry":{"type":"Point","coordinates":[85.2791,28.1165]}},{"type":"Feature","properties":{"name":"Krishnabhir, Prithvi Highway","kind":"report","note":"70 m of highway lost to river erosion; closed 30 Aug–17 Sep","marker-color":"#6d28d9","marker-size":"small"},"geometry":{"type":"Point","coordinates":[84.7499,27.8029]}}]}