{"type":"FeatureCollection","features":[{"type":"Feature","properties":{"name":"Detachment zone (UNOSAT, Landsat 9, 26 Aug)","area_km2":1.96,"source":"UNOSAT (FL20260826NPL), CC BY-SA 4.0","fill":"#7c2d12","fill-opacity":0.45,"stroke":"#431407","stroke-width":1.6},"geometry":{"type":"Polygon","coordinates":[[[85.52884,28.2854],[85.52924,28.28601],[85.52981,28.28658],[85.52993,28.28966],[85.52978,28.29155],[85.52952,28.29342],[85.52836,28.29417],[85.52668,28.29485],[85.52491,28.29547],[85.52316,28.2958],[85.52165,28.29575],[85.52022,28.29576],[85.51833,28.29522],[85.51675,28.29439],[85.51559,28.29371],[85.51518,28.29234],[85.51481,28.29067],[85.51399,28.28938],[85.51299,28.28834],[85.51197,28.28747],[85.51088,28.28643],[85.51234,28.28482],[85.51428,28.28364],[85.5163,28.2834],[85.51863,28.28321],[85.51939,28.28219],[85.52133,28.28299],[85.52223,28.28293],[85.52337,28.28307],[85.52441,28.28389],[85.52485,28.28441],[85.52603,28.28493],[85.52732,28.28535],[85.52884,28.2854]]]}}]}