{"type":"FeatureCollection","features":[{"type":"Feature","properties":{"name":"Barrier lake at the Chhochen–Purepu confluence (Tibet)","area_ha":11.9,"observed":"2026-08-28 (Cartosat-3)","note":"≈2–2.5 Mm³ (China MWR); overflowed 28 Aug ~15:35 NPT, drained 29–30 Aug","source":"UNOSAT (FL20260826NPL), CC BY-SA 4.0","fill":"#0369a1","fill-opacity":0.6,"stroke":"#0c4a6e","stroke-width":1.4},"geometry":{"type":"Polygon","coordinates":[[[85.48332,28.3341],[85.4833,28.33411],[85.48328,28.33412],[85.48324,28.33414],[85.48319,28.33415],[85.48312,28.33416],[85.48308,28.33416],[85.48303,28.33416],[85.48301,28.33416],[85.48298,28.33415],[85.48288,28.33412],[85.48282,28.3341],[85.48278,28.33409],[85.48274,28.33407],[85.48266,28.33402],[85.48264,28.33401],[85.48262,28.33401],[85.4826,28.334],[85.48255,28.33399],[85.48253,28.33399],[85.48249,28.33397],[85.48247,28.33397],[85.48244,28.33396],[85.48241,28.33396],[85.4824,28.33398],[85.48239,28.33399],[85.48238,28.334],[85.48236,28.334],[85.48235,28.33401],[85.48233,28.33401],[85.48231,28.33401],[85.4823,28.334],[85.48229,28.334],[85.48229,28.33399],[85.48228,28.33399],[85.48226,28.33398],[85.48225,28.33397],[85.48224,28.33397],[85.48223,28.33396],[85.48222,28.33393],[85.48222,28.33392],[85.48221,28.3339],[85.4822,28.33383],[85.4822,28.33381],[85.48218,28.33379],[85.48215,28.33375],[85.48214,28.33373],[85.48212,28.3337],[85.48209,28.33363],[85.48209,28.33364],[85.48208,28.33363],[85.48207,28.33363],[85.48206,28.33362],[85.48205,28.3336],[85.48204,28.33357],[85.48204,28.33355],[85.48202,28.33353],[85.482,28.33352],[85.48199,28.3335],[85.48197,28.33348],[85.48196,28.33347],[85.48195,28.33345],[85.48194,28.33343],[85.48193,28.33343],[85.48191,28.33341],[85.4819,28.3334],[85.48187,28.33339],[85.48186,28.33338],[85.48185,28.33335],[85.48184,28.33334],[85.48182,28.33333],[85.48179,28.33332],[85.48177,28.33331],[85.48168,28.33329],[85.48162,28.33329],[85.48157,28.33328],[85.48154,28.33327],[85.4815,28.33326],[85.48148,28.33325],[85.48146,28.33324],[85.48144,28.33324],[85.48142,28.33323],[85.4814,28.33323],[85.48135,28.33324],[85.48126,28.33325],[85.48122,28.33326],[85.48119,28.33326],[85.48115,28.33326],[85.48113,28.33325],[85.48112,28.33325],[85.4811,28.33324],[85.48108,28.33321],[85.48106,28.3332],[85.48102,28.33318],[85.48099,28.33317],[85.48094,28.33316],[85.48089,28.33316],[85.48085,28.33316],[85.48083,28.33316],[85.48078,28.33314],[85.48075,28.33313],[85.48072,28.33313],[85.48065,28.33314],[85.48062,28.33313],[85.4806,28.33313],[85.48054,28.3331],[85.48051,28.33309],[85.48047,28.33308],[85.48042,28.33307],[85.4804,28.33307],[85.48038,28.33307],[85.48035,28.33307],[85.48031,28.33307],[85.48027,28.33307],[85.48017,28.33307],[85.48014,28.33307],[85.4801,28.33306],[85.48007,28.33305],[85.48005,28.33304],[85.48004,28.33304],[85.48003,28.33304],[85.47999,28.33304],[85.47995,28.33304],[85.47989,28.33305],[85.47979,28.33304],[85.47976,28.33304],[85.47974,28.33305],[85.47971,28.33305],[85.47967,28.33306],[85.47963,28.33307],[85.4796,28.33307],[85.47956,28.33308],[85.47952,28.33308],[85.47947,28.3331],[85.47943,28.33311],[85.4794,28.33311],[85.47936,28.33311],[85.47926,28.33311],[85.4792,28.3331],[85.47914,28.33309],[85.47909,28.33309],[85.47904,28.33308],[85.47898,28.33307],[85.47892,28.33306],[85.47887,28.33305],[85.47882,28.33304],[85.47877,28.33302],[85.47872,28.33302],[85.47869,28.33302],[85.47867,28.33302],[85.47865,28.33301],[85.47864,28.33301],[85.47861,28.33301],[85.4786,28.33301],[85.47859,28.333],[85.47858,28.333],[85.47857,28.333],[85.4785,28.33299],[85.47844,28.33299],[85.47837,28.33299],[85.47831,28.333],[85.47825,28.33301],[85.47813,28.33303],[85.47807,28.33303],[85.47798,28.33304],[85.47794,28.33304],[85.47791,28.33303],[85.47784,28.33302],[85.47781,28.33301],[85.47773,28.33298],[85.47767,28.33299],[85.47764,28.33299],[85.47761,28.33299],[85.47757,28.33299],[85.47746,28.33297],[85.47742,28.33297],[85.47739,28.33297],[85.47732,28.33298],[85.47727,28.33299],[85.47723,28.33301],[85.47719,28.33302],[85.47716,28.33303],[85.47714,28.33305],[85.47713,28.33306],[85.47711,28.33309],[85.4771,28.3331],[85.47708,28.33311],[85.47707,28.33311],[85.47705,28.33311],[85.47703,28.33311],[85.47702,28.33312],[85.47699,28.33312],[85.47696,28.33313],[85.47692,28.33312],[85.47686,28.33312],[85.47678,28.33311],[85.47674,28.3331],[85.47671,28.33309],[85.47668,28.33308],[85.47667,28.33307],[85.47667,28.33306],[85.47667,28.33305],[85.47668,28.33302],[85.47668,28.33301],[85.47669,28.33299],[85.47669,28.33298],[85.47669,28.33296],[85.47669,28.33294],[85.4767,28.33292],[85.47671,28.33291],[85.47674,28.33289],[85.47675,28.33289],[85.47676,28.33287],[85.47677,28.33282],[85.47678,28.33281],[85.4768,28.33279],[85.47681,28.33277],[85.47683,28.33276],[85.47685,28.33275],[85.47692,28.33273],[85.47695,28.33272],[85.47698,28.3327],[85.47702,28.33266],[85.47704,28.33265],[85.47706,28.33264],[85.47708,28.33263],[85.47709,28.33263],[85.47711,28.33263],[85.47716,28.33264],[85.4772,28.33266],[85.47723,28.33268],[85.47727,28.3327],[85.47729,28.33273],[85.47731,28.33276],[85.47732,28.33277],[85.47734,28.33279],[85.47737,28.3328],[85.47739,28.3328],[85.47742,28.33281],[85.47744,28.33281],[85.47748,28.33281],[85.4775,28.3328],[85.47752,28.3328],[85.47755,28.3328],[85.47758,28.33278],[85.47761,28.33276],[85.47764,28.33276],[85.47766,28.33274],[85.47768,28.33272],[85.4777,28.33268],[85.47771,28.33264],[85.47772,28.33262],[85.47772,28.33257],[85.47772,28.33256],[85.47773,28.33255],[85.47773,28.33253],[85.47774,28.33252],[85.47777,28.3325],[85.47778,28.33249],[85.4778,28.33248],[85.47785,28.33245],[85.47789,28.33244],[85.47797,28.33242],[85.478,28.33241],[85.47807,28.33238],[85.4781,28.33237],[85.47815,28.33236],[85.47816,28.33236],[85.47818,28.33235],[85.47823,28.33233],[85.47828,28.33231],[85.47833,28.3323],[85.47836,28.3323],[85.4784,28.3323],[85.47843,28.33231],[85.47847,28.33232],[85.47847,28.33231],[85.47849,28.33231],[85.4785,28.33231],[85.47851,28.33231],[85.47853,28.33231],[85.47854,28.33232],[85.47856,28.33234],[85.47858,28.33234],[85.47861,28.33235],[85.47863,28.33235],[85.47868,28.33234],[85.4787,28.33234],[85.47872,28.33234],[85.47876,28.33234],[85.47879,28.33233],[85.47882,28.33232],[85.4789,28.33228],[85.47893,28.33227],[85.47895,28.33225],[85.47898,28.33223],[85.479,28.33221],[85.47902,28.3322],[85.47905,28.33218],[85.47909,28.33217],[85.47912,28.33216],[85.47915,28.33216],[85.47917,28.33216],[85.47919,28.33216],[85.47921,28.33216],[85.47923,28.33216],[85.47925,28.33216],[85.47935,28.33216],[85.47939,28.33216],[85.47949,28.33214],[85.47954,28.33214],[85.47957,28.33214],[85.47959,28.33214],[85.47962,28.33215],[85.47963,28.33215],[85.47966,28.33218],[85.47968,28.33218],[85.4797,28.33219],[85.47972,28.33219],[85.47974,28.33218],[85.4798,28.33217],[85.47981,28.33217],[85.47983,28.33217],[85.47983,28.33216],[85.47989,28.33214],[85.47991,28.33213],[85.47993,28.33212],[85.47995,28.33212],[85.47997,28.33212],[85.48002,28.33212],[85.48006,28.33213],[85.48011,28.33215],[85.48017,28.33217],[85.48021,28.33219],[85.48024,28.3322],[85.4803,28.33226],[85.48032,28.33227],[85.48034,28.33228],[85.48036,28.33228],[85.48038,28.33228],[85.48039,28.33226],[85.4804,28.33225],[85.48041,28.33225],[85.48045,28.33224],[85.48047,28.33224],[85.48049,28.33223],[85.48053,28.33221],[85.48054,28.3322],[85.48056,28.3322],[85.48061,28.3322],[85.48063,28.3322],[85.48067,28.33219],[85.48069,28.33218],[85.4807,28.33219],[85.48071,28.33219],[85.48073,28.33221],[85.48074,28.33222],[85.48077,28.33222],[85.48081,28.33223],[85.48085,28.33224],[85.48086,28.33223],[85.48088,28.33223],[85.48089,28.33223],[85.48089,28.33222],[85.4809,28.33222],[85.4809,28.33221],[85.48091,28.33216],[85.48091,28.33215],[85.48092,28.33214],[85.48093,28.33214],[85.48099,28.33213],[85.48101,28.33213],[85.48102,28.33212],[85.48103,28.33211],[85.48105,28.3321],[85.4811,28.33205],[85.48111,28.33203],[85.48113,28.33202],[85.48115,28.33202],[85.48119,28.33201],[85.48121,28.33201],[85.48122,28.33199],[85.48125,28.33196],[85.48126,28.33195],[85.48128,28.33194],[85.48132,28.33192],[85.48137,28.33189],[85.48144,28.33186],[85.4815,28.33184],[85.48152,28.33184],[85.48154,28.33183],[85.48156,28.33183],[85.48157,28.33183],[85.48158,28.33184],[85.48159,28.33185],[85.48159,28.33186],[85.48158,28.33189],[85.48158,28.3319],[85.48158,28.33191],[85.48159,28.33193],[85.4816,28.33193],[85.48161,28.33194],[85.48162,28.33194],[85.48163,28.33194],[85.48164,28.33193],[85.48166,28.33191],[85.48167,28.33191],[85.48168,28.3319],[85.48171,28.3319],[85.48173,28.33189],[85.48174,28.33188],[85.48175,28.33184],[85.48176,28.33183],[85.48177,28.33183],[85.48179,28.33183],[85.48181,28.33184],[85.48183,28.33184],[85.48185,28.33186],[85.48187,28.33187],[85.48189,28.33189],[85.4819,28.33191],[85.48191,28.33192],[85.48192,28.33194],[85.48192,28.33195],[85.48193,28.33196],[85.48192,28.33201],[85.48193,28.33202],[85.48193,28.33203],[85.48196,28.33201],[85.48198,28.332],[85.48199,28.33199],[85.482,28.33195],[85.48201,28.33195],[85.48201,28.33194],[85.48203,28.33194],[85.48206,28.33193],[85.48207,28.33193],[85.48208,28.33191],[85.48209,28.33191],[85.48209,28.3319],[85.48209,28.33188],[85.4821,28.33187],[85.48212,28.33187],[85.48214,28.33187],[85.48216,28.33187],[85.48217,28.33188],[85.4822,28.33189],[85.48226,28.33192],[85.48231,28.33195],[85.48235,28.33198],[85.48239,28.33202],[85.48242,28.33205],[85.48244,28.33207],[85.48246,28.33208],[85.4825,28.3321],[85.48252,28.33211],[85.48252,28.33212],[85.48255,28.3321],[85.48258,28.33209],[85.48261,28.33208],[85.48265,28.33207],[85.48269,28.33206],[85.48274,28.33206],[85.48275,28.33206],[85.48277,28.33206],[85.4828,28.33209],[85.48282,28.33209],[85.48283,28.33209],[85.48288,28.33209],[85.48291,28.33209],[85.48293,28.33209],[85.48294,28.33208],[85.48297,28.33206],[85.48299,28.33206],[85.48303,28.33206],[85.48304,28.33206],[85.48305,28.33206],[85.48306,28.33205],[85.48308,28.33201],[85.4831,28.33198],[85.48313,28.33195],[85.48316,28.33193],[85.48319,28.33192],[85.48323,28.33191],[85.48329,28.3319],[85.48332,28.3319],[85.48338,28.33191],[85.4834,28.33191],[85.48343,28.33191],[85.48344,28.3319],[85.48346,28.33189],[85.48348,28.33188],[85.48349,28.33187],[85.48351,28.33184],[85.48352,28.33183],[85.48354,28.33182],[85.48356,28.33182],[85.48358,28.33182],[85.4836,28.33183],[85.48361,28.33184],[85.48363,28.33185],[85.48363,28.33186],[85.48364,28.3319],[85.48364,28.33191],[85.48365,28.33192],[85.48366,28.33193],[85.4837,28.33194],[85.48371,28.33194],[85.48372,28.33195],[85.48372,28.33196],[85.48372,28.33197],[85.48372,28.33198],[85.48372,28.33203],[85.48372,28.33204],[85.48373,28.33205],[85.48374,28.33206],[85.48376,28.33208],[85.48377,28.33209],[85.48377,28.3321],[85.48377,28.33212],[85.48378,28.33213],[85.48379,28.33214],[85.4838,28.33216],[85.48385,28.33217],[85.48386,28.33218],[85.48388,28.3322],[85.48389,28.33221],[85.48389,28.33222],[85.4839,28.33223],[85.48389,28.33229],[85.4839,28.3323],[85.4839,28.33231],[85.48391,28.33233],[85.48391,28.33234],[85.48392,28.33235],[85.48394,28.33235],[85.48396,28.33236],[85.484,28.33236],[85.48401,28.33236],[85.48402,28.33236],[85.48405,28.33235],[85.48408,28.33233],[85.4841,28.33232],[85.48412,28.33232],[85.48416,28.33231],[85.48417,28.3323],[85.48419,28.33231],[85.4842,28.33231],[85.48423,28.33234],[85.48424,28.33235],[85.48426,28.33235],[85.48431,28.33236],[85.48432,28.33237],[85.48433,28.33237],[85.48435,28.3324],[85.48435,28.33242],[85.48436,28.33245],[85.48437,28.33245],[85.48439,28.33245],[85.48441,28.33244],[85.48444,28.33245],[85.48446,28.33245],[85.48448,28.33245],[85.48451,28.33246],[85.48453,28.33247],[85.48454,28.33247],[85.48457,28.3325],[85.48459,28.3325],[85.48462,28.3325],[85.48465,28.3325],[85.48468,28.33249],[85.48471,28.33249],[85.48474,28.33247],[85.48477,28.33246],[85.48484,28.33242],[85.48485,28.33241],[85.48487,28.3324],[85.4849,28.3324],[85.48493,28.33239],[85.48494,28.33236],[85.48494,28.33235],[85.48495,28.33233],[85.48497,28.33231],[85.48499,28.33228],[85.48504,28.33224],[85.48506,28.33222],[85.48508,28.33219],[85.48509,28.33217],[85.48511,28.33215],[85.48512,28.33212],[85.48513,28.33208],[85.48514,28.33205],[85.48514,28.33202],[85.48514,28.33199],[85.48513,28.33189],[85.48513,28.33186],[85.48513,28.33182],[85.48514,28.3318],[85.48515,28.33177],[85.48517,28.33175],[85.48519,28.33173],[85.4852,28.33173],[85.48521,28.33173],[85.48525,28.33173],[85.48526,28.33172],[85.48528,28.33172],[85.4853,28.33171],[85.48532,28.3317],[85.48533,28.33168],[85.48536,28.33164],[85.48542,28.33155],[85.48544,28.33153],[85.48545,28.33152],[85.48547,28.3315],[85.48549,28.33149],[85.4855,28.33149],[85.48552,28.33148],[85.48556,28.33147],[85.48557,28.33148],[85.48558,28.33148],[85.48558,28.33149],[85.48558,28.3315],[85.48558,28.33151],[85.48558,28.33152],[85.48557,28.33154],[85.48556,28.33155],[85.48551,28.33159],[85.4855,28.3316],[85.4855,28.33161],[85.48548,28.33165],[85.48548,28.33167],[85.48547,28.33168],[85.48547,28.33171],[85.48547,28.33173],[85.48547,28.33175],[85.48548,28.33176],[85.48549,28.33176],[85.4855,28.33177],[85.48553,28.33179],[85.48555,28.33179],[85.48558,28.3318],[85.48562,28.3318],[85.4857,28.33181],[85.48573,28.33181],[85.48575,28.33182],[85.48578,28.33183],[85.4858,28.33184],[85.48582,28.33186],[85.48583,28.33187],[85.48584,28.33189],[85.48585,28.33191],[85.48589,28.33192],[85.48591,28.33193],[85.48593,28.33195],[85.48595,28.33196],[85.48596,28.33197],[85.48597,28.33196],[85.48598,28.33196],[85.486,28.33196],[85.48601,28.33196],[85.48603,28.33196],[85.48604,28.33197],[85.48605,28.33198],[85.48609,28.33202],[85.4861,28.33203],[85.48611,28.33204],[85.48612,28.33205],[85.48615,28.33206],[85.48617,28.33206],[85.48618,28.33207],[85.48618,28.33208],[85.48619,28.3321],[85.48619,28.33211],[85.48619,28.33213],[85.48618,28.33216],[85.48617,28.33217],[85.48617,28.33218],[85.48613,28.33222],[85.48611,28.33224],[85.4861,28.33228],[85.48609,28.33231],[85.48608,28.33233],[85.48608,28.33235],[85.48608,28.33241],[85.48608,28.33245],[85.48607,28.33248],[85.48606,28.3325],[85.48605,28.33252],[85.48604,28.33254],[85.48603,28.33256],[85.486,28.33259],[85.48598,28.33261],[85.48596,28.33262],[85.48594,28.33264],[85.48589,28.33266],[85.48588,28.33268],[85.48587,28.3327],[85.48585,28.33271],[85.48581,28.33274],[85.48579,28.33275],[85.48572,28.33278],[85.4857,28.33279],[85.48568,28.3328],[85.48567,28.33282],[85.48564,28.33286],[85.48561,28.33291],[85.48558,28.33293],[85.48558,28.33296],[85.48557,28.33298],[85.48556,28.33299],[85.48556,28.333],[85.48554,28.33301],[85.48553,28.33301],[85.48551,28.33301],[85.48548,28.33301],[85.48544,28.333],[85.48543,28.33303],[85.48542,28.33309],[85.48542,28.33312],[85.4854,28.33315],[85.48539,28.33318],[85.48538,28.33321],[85.48536,28.33323],[85.48533,28.33326],[85.48532,28.33328],[85.4853,28.33329],[85.48526,28.33331],[85.48524,28.33332],[85.48519,28.33336],[85.48517,28.33338],[85.48515,28.33339],[85.48511,28.3334],[85.48509,28.33341],[85.48508,28.33342],[85.48504,28.33345],[85.48503,28.33346],[85.48501,28.33347],[85.48495,28.3335],[85.48493,28.33351],[85.48491,28.33353],[85.48481,28.3336],[85.48478,28.33362],[85.48476,28.33363],[85.4847,28.33365],[85.48468,28.33366],[85.48466,28.33366],[85.48457,28.33366],[85.48453,28.33367],[85.48447,28.33368],[85.48443,28.33369],[85.4844,28.3337],[85.48437,28.33371],[85.48435,28.33373],[85.48429,28.33378],[85.48427,28.33379],[85.48421,28.33382],[85.48419,28.33383],[85.48418,28.33384],[85.48416,28.33387],[85.48414,28.33389],[85.48414,28.3339],[85.48413,28.33394],[85.48412,28.33395],[85.48412,28.33396],[85.48411,28.33396],[85.48406,28.33397],[85.48405,28.33398],[85.48404,28.334],[85.48404,28.33401],[85.48403,28.33402],[85.48401,28.33403],[85.48399,28.33404],[85.48398,28.33404],[85.48396,28.33404],[85.48391,28.33404],[85.48389,28.33404],[85.48388,28.33405],[85.48386,28.33406],[85.48382,28.33409],[85.4838,28.3341],[85.48377,28.33411],[85.48374,28.3341],[85.48371,28.3341],[85.48369,28.33409],[85.48365,28.33406],[85.48364,28.33405],[85.48363,28.33405],[85.48361,28.33404],[85.48359,28.33405],[85.48358,28.33406],[85.48356,28.33408],[85.48356,28.33409],[85.48354,28.3341],[85.48352,28.33411],[85.48348,28.33413],[85.48344,28.33413],[85.48341,28.33414],[85.48339,28.33413],[85.48338,28.33413],[85.48335,28.33412],[85.48333,28.33411],[85.48332,28.3341]]]}},{"type":"Feature","properties":{"name":"Barrier lake below the source","area_ha":19.5,"observed":"2026-08-28 (Cartosat-3)","note":"Assessed as low risk","source":"UNOSAT (FL20260826NPL), CC BY-SA 4.0","fill":"#0369a1","fill-opacity":0.6,"stroke":"#0c4a6e","stroke-width":1.4},"geometry":{"type":"Polygon","coordinates":[[[85.511,28.29553],[85.511,28.29555],[85.511,28.29557],[85.51101,28.29567],[85.51101,28.29571],[85.511,28.29573],[85.511,28.29575],[85.51099,28.29576],[85.51098,28.29577],[85.51097,28.29578],[85.51096,28.29579],[85.51094,28.2958],[85.51092,28.29579],[85.51089,28.29579],[85.51087,28.29578],[85.51085,28.29577],[85.51082,28.29574],[85.51081,28.29573],[85.51079,28.29573],[85.51076,28.29572],[85.51073,28.29573],[85.51071,28.29574],[85.51069,28.29575],[85.51067,28.29577],[85.51066,28.29578],[85.51065,28.29578],[85.51064,28.29578],[85.51061,28.29578],[85.5106,28.29578],[85.51058,28.29577],[85.51052,28.29573],[85.51051,28.29572],[85.5105,28.29572],[85.51048,28.29572],[85.51046,28.29572],[85.51039,28.29572],[85.51037,28.29572],[85.5103,28.29572],[85.51027,28.29572],[85.51024,28.29571],[85.51022,28.2957],[85.5102,28.29569],[85.51018,28.29568],[85.51016,28.29565],[85.51015,28.29563],[85.51013,28.2956],[85.51013,28.29558],[85.51013,28.29555],[85.51013,28.29552],[85.51013,28.29551],[85.51013,28.2955],[85.51014,28.2955],[85.51015,28.2955],[85.51018,28.2955],[85.51019,28.2955],[85.51021,28.2955],[85.51022,28.29549],[85.51023,28.29548],[85.51023,28.29546],[85.51024,28.29545],[85.51024,28.29543],[85.51024,28.29541],[85.51022,28.29541],[85.51021,28.2954],[85.5102,28.29537],[85.51018,28.29534],[85.51017,28.29534],[85.51016,28.29534],[85.51015,28.29534],[85.51013,28.29535],[85.51012,28.29536],[85.5101,28.29536],[85.51007,28.29536],[85.51004,28.29536],[85.50997,28.29538],[85.50994,28.29539],[85.50992,28.29539],[85.50988,28.29538],[85.50986,28.29538],[85.50985,28.29538],[85.50984,28.29539],[85.50982,28.29541],[85.50982,28.29542],[85.5098,28.29542],[85.50976,28.2954],[85.50973,28.2954],[85.50965,28.29537],[85.50962,28.29536],[85.50959,28.29536],[85.50951,28.29536],[85.50949,28.29536],[85.50947,28.29536],[85.50946,28.29535],[85.50944,28.29535],[85.50943,28.29535],[85.50942,28.29535],[85.50941,28.29534],[85.5094,28.29533],[85.5094,28.29531],[85.5094,28.2953],[85.5094,28.29529],[85.5094,28.29527],[85.50941,28.29526],[85.50941,28.29524],[85.50942,28.29523],[85.50942,28.29522],[85.50943,28.29521],[85.50944,28.29521],[85.50949,28.2952],[85.5095,28.2952],[85.50951,28.29519],[85.50952,28.29518],[85.50953,28.29516],[85.50954,28.29515],[85.50956,28.29514],[85.50957,28.29513],[85.50957,28.29511],[85.50957,28.2951],[85.50957,28.29508],[85.50956,28.29507],[85.50954,28.29505],[85.50952,28.29503],[85.50951,28.29502],[85.50949,28.29501],[85.50947,28.29501],[85.50945,28.29501],[85.50943,28.29501],[85.50941,28.29501],[85.50939,28.29502],[85.50937,28.29502],[85.50936,28.29503],[85.50935,28.29505],[85.50935,28.29506],[85.50934,28.29507],[85.50932,28.29508],[85.50931,28.29508],[85.5093,28.29509],[85.5093,28.2951],[85.5093,28.29511],[85.5093,28.29513],[85.50929,28.29515],[85.50928,28.29516],[85.50927,28.29516],[85.50926,28.29516],[85.50925,28.29517],[85.50924,28.29517],[85.50919,28.29517],[85.50917,28.29518],[85.50916,28.29518],[85.50915,28.2952],[85.50914,28.29521],[85.50912,28.29522],[85.5091,28.29522],[85.50907,28.29522],[85.50905,28.29522],[85.50903,28.29523],[85.509,28.29523],[85.50899,28.29524],[85.50897,28.29525],[85.50896,28.29526],[85.50895,28.29528],[85.50894,28.29529],[85.50893,28.29533],[85.50892,28.29535],[85.5089,28.29537],[85.50889,28.29538],[85.50888,28.2954],[85.50887,28.29541],[85.50886,28.29542],[85.50885,28.29543],[85.50884,28.29543],[85.50882,28.29544],[85.50879,28.29544],[85.50874,28.29543],[85.50871,28.29542],[85.50868,28.29542],[85.50868,28.29541],[85.50865,28.29543],[85.50863,28.29544],[85.50862,28.29545],[85.50857,28.2955],[85.50855,28.29553],[85.50852,28.29554],[85.5085,28.29556],[85.50848,28.29557],[85.50845,28.29557],[85.50843,28.29557],[85.5084,28.29557],[85.50838,28.29557],[85.50835,28.29555],[85.50833,28.29554],[85.50832,28.29553],[85.50832,28.29552],[85.50832,28.29549],[85.50832,28.29546],[85.50832,28.29543],[85.50833,28.29541],[85.50834,28.29538],[85.50836,28.29535],[85.50838,28.29531],[85.5084,28.29527],[85.50842,28.29525],[85.50844,28.29523],[85.50847,28.29521],[85.50848,28.29521],[85.50848,28.2952],[85.50849,28.29519],[85.50849,28.29517],[85.50849,28.29511],[85.50849,28.29509],[85.50849,28.29508],[85.5085,28.29506],[85.50851,28.29503],[85.50852,28.29501],[85.50856,28.29496],[85.50857,28.29495],[85.50858,28.29494],[85.50858,28.29493],[85.50858,28.29491],[85.50857,28.29484],[85.50857,28.29482],[85.50857,28.29481],[85.50857,28.29479],[85.50857,28.29477],[85.50857,28.29475],[85.50858,28.29473],[85.50859,28.29471],[85.50862,28.29467],[85.50863,28.29465],[85.50865,28.29462],[85.50866,28.29459],[85.50869,28.29445],[85.50871,28.2944],[85.50872,28.29438],[85.50876,28.29432],[85.50877,28.2943],[85.50878,28.29428],[85.50878,28.29426],[85.50878,28.29425],[85.50876,28.29419],[85.50876,28.29417],[85.50876,28.29411],[85.50876,28.29407],[85.50876,28.29403],[85.50877,28.294],[85.50879,28.29396],[85.5088,28.29394],[85.50881,28.29393],[85.50882,28.29393],[85.50885,28.29392],[85.50886,28.29391],[85.50887,28.2939],[85.50889,28.29389],[85.50892,28.29383],[85.5089,28.29381],[85.50889,28.29378],[85.50888,28.29377],[85.50887,28.29377],[85.50885,28.29376],[85.50885,28.29375],[85.50884,28.29374],[85.50885,28.2937],[85.50885,28.29369],[85.50885,28.29367],[85.50887,28.29364],[85.50889,28.29361],[85.5089,28.29359],[85.50891,28.29358],[85.50893,28.29357],[85.50896,28.29356],[85.50898,28.29355],[85.50899,28.29354],[85.509,28.29351],[85.50901,28.2935],[85.50902,28.29349],[85.50902,28.29347],[85.50902,28.29345],[85.50901,28.29343],[85.509,28.29342],[85.50898,28.29338],[85.50896,28.29336],[85.50892,28.29332],[85.50891,28.29331],[85.50891,28.2933],[85.50891,28.29328],[85.50891,28.29326],[85.50891,28.29324],[85.50891,28.29322],[85.50892,28.2932],[85.50895,28.29317],[85.50896,28.29315],[85.50897,28.29314],[85.50905,28.29309],[85.50907,28.29308],[85.50908,28.29307],[85.50909,28.29305],[85.50912,28.293],[85.50912,28.29298],[85.50912,28.29297],[85.50911,28.29296],[85.5091,28.29295],[85.50907,28.29291],[85.50906,28.2929],[85.50906,28.29289],[85.50906,28.29288],[85.50906,28.29284],[85.50906,28.29282],[85.50906,28.29281],[85.50905,28.2928],[85.50903,28.29275],[85.50902,28.29273],[85.50901,28.2927],[85.509,28.29262],[85.50899,28.29259],[85.50896,28.29253],[85.50895,28.29249],[85.50894,28.29246],[85.50893,28.29241],[85.50893,28.2924],[85.50893,28.29239],[85.50894,28.29239],[85.50896,28.29238],[85.50896,28.29237],[85.50897,28.29237],[85.50896,28.29233],[85.50897,28.29231],[85.50897,28.2923],[85.50897,28.29229],[85.50898,28.29229],[85.50899,28.29229],[85.50901,28.29228],[85.50902,28.29227],[85.50902,28.29225],[85.50903,28.29221],[85.50904,28.29217],[85.50905,28.29213],[85.50905,28.29209],[85.50905,28.29207],[85.50904,28.29202],[85.50904,28.292],[85.50904,28.29198],[85.50905,28.29196],[85.50906,28.29195],[85.50907,28.29193],[85.50907,28.2919],[85.50907,28.29188],[85.50907,28.29187],[85.50908,28.29187],[85.50912,28.29183],[85.50912,28.29182],[85.50913,28.29181],[85.50913,28.29178],[85.50913,28.29176],[85.50914,28.29175],[85.50915,28.29173],[85.50914,28.29172],[85.50915,28.29168],[85.50915,28.29167],[85.50915,28.29166],[85.50914,28.29165],[85.50913,28.29164],[85.50912,28.29163],[85.50912,28.29161],[85.50913,28.29159],[85.50913,28.29158],[85.50915,28.29157],[85.50917,28.29155],[85.50918,28.29154],[85.50921,28.29152],[85.50922,28.29151],[85.50922,28.2915],[85.50922,28.29148],[85.50922,28.29146],[85.50921,28.29142],[85.5092,28.2914],[85.50921,28.29138],[85.50922,28.29138],[85.50922,28.29137],[85.50925,28.29137],[85.50926,28.29137],[85.50927,28.29134],[85.50928,28.29134],[85.50931,28.29132],[85.50932,28.29131],[85.50932,28.2913],[85.50931,28.29127],[85.50931,28.29125],[85.50931,28.29124],[85.50934,28.29121],[85.50935,28.2912],[85.50935,28.29119],[85.50935,28.29117],[85.50935,28.29115],[85.50934,28.29113],[85.50933,28.29111],[85.50932,28.2911],[85.50931,28.29109],[85.5093,28.29109],[85.50927,28.29109],[85.50926,28.29108],[85.50925,28.29107],[85.50924,28.29107],[85.50923,28.29105],[85.50923,28.29103],[85.50923,28.29102],[85.50924,28.29098],[85.50925,28.29095],[85.50927,28.29091],[85.50929,28.29088],[85.50932,28.29085],[85.50934,28.29084],[85.50939,28.29081],[85.5094,28.2908],[85.50941,28.29079],[85.50942,28.29078],[85.50942,28.29076],[85.50943,28.29075],[85.50944,28.29073],[85.50949,28.29068],[85.50951,28.29066],[85.50953,28.29063],[85.50957,28.29054],[85.50959,28.2905],[85.50961,28.29047],[85.50964,28.29045],[85.50967,28.29042],[85.50969,28.2904],[85.50971,28.29037],[85.50973,28.29034],[85.50975,28.29031],[85.50977,28.29027],[85.50978,28.29023],[85.50982,28.29013],[85.50984,28.29006],[85.50985,28.29003],[85.50986,28.29],[85.50989,28.28997],[85.50991,28.28994],[85.50993,28.28991],[85.50995,28.28988],[85.50998,28.28985],[85.51,28.28983],[85.51003,28.28981],[85.51005,28.28979],[85.51007,28.28978],[85.5101,28.28977],[85.51013,28.28977],[85.51021,28.28975],[85.51023,28.28975],[85.51026,28.28975],[85.51028,28.28975],[85.51029,28.28976],[85.5103,28.28976],[85.51031,28.28977],[85.51031,28.28979],[85.51031,28.28984],[85.51032,28.28985],[85.51033,28.28986],[85.51039,28.28985],[85.51041,28.28985],[85.51042,28.28986],[85.51042,28.28987],[85.51043,28.28991],[85.51044,28.28992],[85.51046,28.28992],[85.51047,28.28992],[85.51047,28.28993],[85.51049,28.28994],[85.51049,28.28995],[85.5105,28.28995],[85.51054,28.28995],[85.51056,28.28995],[85.51059,28.28996],[85.51062,28.28998],[85.51063,28.28999],[85.51064,28.29],[85.51068,28.29006],[85.51069,28.29007],[85.51071,28.29007],[85.51072,28.29008],[85.51078,28.29009],[85.5108,28.2901],[85.51083,28.29012],[85.51085,28.29013],[85.51086,28.29014],[85.51086,28.29015],[85.51088,28.29019],[85.51088,28.2902],[85.51089,28.29021],[85.51093,28.29024],[85.51093,28.29025],[85.51094,28.29025],[85.51094,28.29027],[85.51094,28.2903],[85.51094,28.29032],[85.51094,28.29033],[85.51095,28.29035],[85.51099,28.29039],[85.51102,28.29043],[85.51102,28.29044],[85.51103,28.29044],[85.51104,28.29044],[85.51107,28.29044],[85.51108,28.29045],[85.51109,28.29045],[85.5111,28.29046],[85.51111,28.29048],[85.51113,28.2905],[85.51114,28.29052],[85.51115,28.29054],[85.51116,28.29056],[85.51117,28.29061],[85.51118,28.29063],[85.51119,28.29064],[85.51123,28.29063],[85.51126,28.29062],[85.51127,28.29062],[85.51129,28.29063],[85.5113,28.29063],[85.51131,28.29063],[85.51132,28.29064],[85.51133,28.29067],[85.51134,28.29068],[85.51135,28.29068],[85.51139,28.29069],[85.5114,28.29069],[85.5114,28.2907],[85.5114,28.29071],[85.51139,28.29073],[85.51139,28.29074],[85.5114,28.29075],[85.51141,28.29077],[85.51142,28.29077],[85.51144,28.29078],[85.51148,28.29078],[85.51151,28.29078],[85.51153,28.29078],[85.51155,28.29077],[85.51157,28.29076],[85.51159,28.29075],[85.5116,28.29074],[85.51162,28.29071],[85.51163,28.29071],[85.51164,28.29071],[85.51166,28.2907],[85.51167,28.2907],[85.51168,28.29069],[85.51171,28.29066],[85.51172,28.29065],[85.51174,28.29064],[85.51176,28.29064],[85.51179,28.29064],[85.51184,28.29066],[85.51187,28.29066],[85.51188,28.29066],[85.51189,28.29065],[85.5119,28.29064],[85.5119,28.29063],[85.51191,28.29061],[85.51191,28.2906],[85.5119,28.29059],[85.51189,28.29058],[85.51189,28.29056],[85.51189,28.29055],[85.51189,28.29053],[85.5119,28.29052],[85.5119,28.29051],[85.51191,28.2905],[85.51194,28.29048],[85.51195,28.29047],[85.51199,28.29046],[85.512,28.29045],[85.51201,28.29044],[85.51202,28.29042],[85.51202,28.29041],[85.51203,28.29039],[85.51203,28.29038],[85.51204,28.29037],[85.51206,28.29036],[85.51207,28.29036],[85.51208,28.29035],[85.5121,28.29032],[85.51213,28.29029],[85.51214,28.29028],[85.51215,28.29027],[85.51215,28.29026],[85.51214,28.29021],[85.51214,28.29019],[85.51215,28.29018],[85.51215,28.29016],[85.51217,28.29013],[85.51217,28.29012],[85.51218,28.29008],[85.51219,28.29006],[85.51222,28.29002],[85.51223,28.29001],[85.51224,28.28997],[85.51224,28.28996],[85.51226,28.28994],[85.51228,28.28993],[85.51229,28.28993],[85.51231,28.28993],[85.51234,28.28992],[85.51237,28.28993],[85.51239,28.28993],[85.5124,28.28994],[85.51241,28.28995],[85.51243,28.28998],[85.51247,28.29004],[85.51248,28.29006],[85.51249,28.29008],[85.5125,28.29011],[85.51251,28.29016],[85.51252,28.2902],[85.51252,28.29024],[85.51252,28.29028],[85.51252,28.29031],[85.51252,28.29033],[85.51251,28.29034],[85.51248,28.29036],[85.51246,28.29038],[85.51244,28.29039],[85.51242,28.2904],[85.51239,28.29041],[85.51237,28.29041],[85.51234,28.29041],[85.51231,28.29043],[85.51224,28.29045],[85.51221,28.29047],[85.51216,28.29049],[85.51214,28.29051],[85.51213,28.29052],[85.51209,28.29056],[85.51208,28.29057],[85.51205,28.29059],[85.51204,28.2906],[85.51203,28.29061],[85.51203,28.29064],[85.51204,28.29066],[85.51205,28.29067],[85.51206,28.29068],[85.51206,28.29069],[85.51206,28.29071],[85.51205,28.29075],[85.51205,28.29077],[85.51206,28.29078],[85.51206,28.29079],[85.51209,28.29082],[85.5121,28.29083],[85.5121,28.29085],[85.5121,28.29088],[85.5121,28.2909],[85.51209,28.29093],[85.51208,28.29095],[85.51207,28.29097],[85.51205,28.29099],[85.51204,28.291],[85.51203,28.29101],[85.512,28.29102],[85.51199,28.29102],[85.51198,28.29104],[85.51197,28.29105],[85.51197,28.29107],[85.51197,28.29108],[85.51198,28.29109],[85.512,28.29111],[85.51201,28.29112],[85.51201,28.29113],[85.51201,28.29116],[85.51202,28.29118],[85.51202,28.29119],[85.51205,28.29122],[85.51205,28.29123],[85.51207,28.29127],[85.51208,28.29128],[85.51209,28.29129],[85.51209,28.2913],[85.5121,28.29131],[85.5121,28.29133],[85.5121,28.29136],[85.5121,28.29138],[85.5121,28.2914],[85.51209,28.29141],[85.51208,28.29142],[85.51205,28.29146],[85.51204,28.29147],[85.51204,28.29148],[85.51204,28.29149],[85.51204,28.29153],[85.51204,28.29154],[85.51204,28.29155],[85.51203,28.29156],[85.51204,28.29158],[85.51205,28.29159],[85.51206,28.2916],[85.51208,28.29161],[85.51211,28.29162],[85.51215,28.29163],[85.51219,28.29164],[85.51222,28.29165],[85.51225,28.29165],[85.51228,28.29164],[85.51232,28.29163],[85.51234,28.29163],[85.51236,28.29163],[85.51239,28.29163],[85.5124,28.29163],[85.51241,28.29163],[85.51241,28.29164],[85.51243,28.29165],[85.51244,28.29165],[85.51245,28.29166],[85.51246,28.29166],[85.5125,28.29165],[85.51252,28.29165],[85.51253,28.29166],[85.51254,28.29167],[85.51254,28.29172],[85.51255,28.29173],[85.51255,28.29174],[85.51256,28.29175],[85.51257,28.29175],[85.51259,28.29176],[85.51259,28.29177],[85.5126,28.29177],[85.5126,28.29178],[85.5126,28.2918],[85.51258,28.29183],[85.51258,28.29185],[85.51259,28.29185],[85.51259,28.29186],[85.51261,28.29187],[85.51262,28.29188],[85.51265,28.29189],[85.51267,28.29189],[85.51271,28.29189],[85.51272,28.29189],[85.51272,28.2919],[85.51274,28.29191],[85.51274,28.29192],[85.51275,28.29193],[85.51275,28.29195],[85.51275,28.29197],[85.51278,28.29199],[85.51279,28.292],[85.51282,28.29201],[85.51284,28.29201],[85.51286,28.29202],[85.51287,28.29201],[85.51289,28.29201],[85.51291,28.292],[85.51295,28.29198],[85.51297,28.29197],[85.513,28.29196],[85.51304,28.29196],[85.51307,28.29196],[85.5131,28.29197],[85.51313,28.29198],[85.51314,28.29199],[85.51315,28.29199],[85.51315,28.292],[85.51315,28.29201],[85.51315,28.29203],[85.51315,28.29204],[85.51314,28.29205],[85.51313,28.29205],[85.51312,28.29206],[85.5131,28.29206],[85.51308,28.29206],[85.51307,28.29206],[85.51305,28.29204],[85.51303,28.29204],[85.51302,28.29204],[85.51301,28.29204],[85.513,28.29204],[85.513,28.29205],[85.513,28.29207],[85.51301,28.29208],[85.51304,28.29209],[85.51304,28.2921],[85.51305,28.29211],[85.51305,28.29212],[85.51304,28.29213],[85.51304,28.29214],[85.51302,28.29214],[85.51298,28.29216],[85.51297,28.29216],[85.51296,28.29217],[85.51296,28.29218],[85.51296,28.2922],[85.51296,28.29221],[85.51297,28.29222],[85.51298,28.29223],[85.513,28.29224],[85.51301,28.29225],[85.51301,28.29226],[85.51302,28.29227],[85.51302,28.29228],[85.51302,28.29229],[85.51301,28.2923],[85.51299,28.29232],[85.51298,28.29232],[85.51298,28.29233],[85.51298,28.29235],[85.51299,28.29236],[85.513,28.29237],[85.51302,28.29238],[85.51306,28.2924],[85.51308,28.29241],[85.5131,28.29241],[85.51319,28.29242],[85.5132,28.29242],[85.51322,28.29242],[85.51325,28.29244],[85.51326,28.29245],[85.51327,28.29246],[85.51328,28.29248],[85.51329,28.2925],[85.5133,28.29255],[85.5133,28.29257],[85.5133,28.2926],[85.51331,28.29271],[85.51331,28.29273],[85.51331,28.29275],[85.51334,28.2928],[85.51334,28.29281],[85.51334,28.29283],[85.51334,28.29284],[85.51333,28.29284],[85.51332,28.29285],[85.51329,28.29285],[85.51328,28.29286],[85.51328,28.29287],[85.51327,28.29292],[85.51326,28.29293],[85.51325,28.29295],[85.51323,28.29298],[85.51322,28.29299],[85.51321,28.29301],[85.51321,28.29303],[85.51321,28.29305],[85.51321,28.29308],[85.51321,28.29309],[85.5132,28.29311],[85.5132,28.29312],[85.51318,28.29316],[85.51316,28.29318],[85.51315,28.29319],[85.51313,28.29321],[85.51311,28.29323],[85.51308,28.29324],[85.51305,28.29325],[85.51303,28.29326],[85.51299,28.29328],[85.51294,28.29329],[85.51292,28.2933],[85.51289,28.29332],[85.51287,28.29333],[85.51286,28.29335],[85.51285,28.29336],[85.51284,28.29337],[85.51283,28.29341],[85.51282,28.29343],[85.51281,28.29344],[85.51275,28.29348],[85.51273,28.29349],[85.51271,28.29352],[85.51269,28.29354],[85.51267,28.29357],[85.51266,28.29359],[85.51265,28.29361],[85.51264,28.29363],[85.51263,28.29369],[85.51262,28.29372],[85.51262,28.29375],[85.51263,28.29384],[85.51264,28.29387],[85.51263,28.2939],[85.51263,28.29393],[85.51261,28.29396],[85.51258,28.29401],[85.51256,28.29403],[85.51251,28.29409],[85.5125,28.29411],[85.51249,28.29412],[85.51249,28.29414],[85.51248,28.29419],[85.51246,28.29423],[85.51244,28.29426],[85.51243,28.29427],[85.51242,28.29428],[85.51242,28.29429],[85.51242,28.2944],[85.51242,28.29443],[85.51241,28.29446],[85.5124,28.2945],[85.51239,28.29452],[85.51239,28.29453],[85.51237,28.29455],[85.51235,28.29456],[85.51234,28.29457],[85.51232,28.29457],[85.51231,28.29458],[85.5123,28.29459],[85.51229,28.29462],[85.51229,28.29463],[85.51228,28.29464],[85.51226,28.29466],[85.51224,28.29466],[85.51221,28.29468],[85.51219,28.29468],[85.51217,28.29469],[85.51213,28.29473],[85.51211,28.29475],[85.51206,28.29477],[85.51204,28.29478],[85.51202,28.29478],[85.512,28.29478],[85.51198,28.29478],[85.51196,28.29478],[85.51194,28.29478],[85.51193,28.29477],[85.51191,28.29476],[85.51189,28.29474],[85.51186,28.29471],[85.51185,28.2947],[85.51184,28.29468],[85.5118,28.29467],[85.51178,28.29467],[85.51176,28.29467],[85.51175,28.29468],[85.51174,28.29469],[85.5117,28.29473],[85.51169,28.29474],[85.51167,28.29475],[85.51165,28.29477],[85.51162,28.2948],[85.5116,28.29481],[85.51156,28.29483],[85.51154,28.29484],[85.51152,28.29487],[85.51151,28.29488],[85.51149,28.29488],[85.51145,28.29489],[85.51143,28.2949],[85.51143,28.29491],[85.51142,28.29492],[85.51141,28.29498],[85.51141,28.29499],[85.5114,28.295],[85.51139,28.29501],[85.51137,28.29503],[85.51136,28.29504],[85.51135,28.29505],[85.51133,28.29509],[85.51132,28.29511],[85.51131,28.29512],[85.51129,28.29513],[85.51122,28.29518],[85.5112,28.29519],[85.51119,28.2952],[85.51117,28.29523],[85.51114,28.29529],[85.51111,28.29532],[85.5111,28.29534],[85.51106,28.29537],[85.51104,28.29538],[85.51103,28.29541],[85.51102,28.29544],[85.51101,28.29547],[85.511,28.29553]]]}}]}