{"type":"FeatureCollection","features":[{"type":"Feature","properties":{"name":"Palisades Fire","county":"Los Angeles","acres":23448,"area_km2":94.9,"cause":"Undetermined","start":"2025-01-07T18:30Z","fill":"#dc2626","fill-opacity":0.4,"stroke":"#dc2626","stroke-width":1.5},"geometry":{"type":"MultiPolygon","coordinates":[[[[-118.55644,34.04015],[-118.55655,34.04009],[-118.55664,34.04019],[-118.55644,34.04015]]],[[[-118.51923,34.03383],[-118.51933,34.0337],[-118.51952,34.0338],[-118.51952,34.03396],[-118.51934,34.03406],[-118.51921,34.034],[-118.51923,34.03383]]],[[[-118.51839,34.03923],[-118.51878,34.03912],[-118.51891,34.03926],[-118.51855,34.0394],[-118.51839,34.03923]]],[[[-118.51866,34.03422],[-118.51889,34.03419],[-118.51905,34.0343],[-118.51909,34.03448],[-118.51885,34.03457],[-118.51865,34.0344],[-118.51866,34.03422]]],[[[-118.5682,34.04712],[-118.56846,34.04718],[-118.56856,34.0477],[-118.56821,34.04758],[-118.5682,34.04712]]],[[[-118.55532,34.04016],[-118.55525,34.03974],[-118.55543,34.03965],[-118.55606,34.04009],[-118.55548,34.04031],[-118.55532,34.04016]]],[[[-118.51975,34.02997],[-118.52002,34.02989],[-118.52033,34.03011],[-118.51998,34.02995],[-118.5197,34.03015],[-118.51937,34.03102],[-118.51953,34.03157],[-118.51917,34.03156],[-118.51927,34.03089],[-118.51975,34.02997]]],[[[-118.51841,34.03566],[-118.51819,34.03498],[-118.51891,34.03504],[-118.51895,34.03554],[-118.51841,34.03566]]],[[[-118.56123,34.04268],[-118.5612,34.04248],[-118.56154,34.04259],[-118.56183,34.04243],[-118.56198,34.04277],[-118.56183,34.04326],[-118.56155,34.04331],[-118.5615,34.04287],[-118.56123,34.04268]]],[[[-118.51945,34.03312],[-118.51984,34.03287],[-118.52027,34.03344],[-118.52036,34.0337],[-118.52008,34.03398],[-118.51982,34.0337],[-118.51945,34.03312]]],[[[-118.51754,34.03597],[-118.51841,34.03596],[-118.51854,34.03642],[-118.51768,34.038],[-118.51804,34.0385],[-118.51778,34.0388],[-118.51722,34.03836],[-118.51721,34.03785],[-118.51748,34.03768],[-118.51691,34.03744],[-118.51678,34.03694],[-118.51754,34.03597]]],[[[-118.56956,34.08837],[-118.56953,34.08742],[-118.56826,34.08757],[-118.56787,34.0874],[-118.56774,34.08753],[-118.56811,34.0879],[-118.56749,34.08872],[-118.56705,34.08887],[-118.56684,34.08955],[-118.56632,34.08968],[-118.56538,34.08916],[-118.56407,34.08973],[-118.56382,34.09107],[-118.56076,34.09166],[-118.55994,34.09161],[-118.55977,34.092],[-118.55998,34.09237],[-118.56047,34.09241],[-118.56072,34.09272],[-118.56162,34.09222],[-118.5616,34.09307],[-118.56037,34.09323],[-118.55894,34.09315],[-118.55903,34.09403],[-118.55981,34.09369],[-118.56069,34.0939],[-118.56087,34.09376],[-118.56142,34.09395],[-118.56153,34.09425],[-118.56115,34.0954],[-118.56087,34.09557],[-118.56118,34.09627],[-118.56119,34.09682],[-118.56038,34.09699],[-118.55976,34.09738],[-118.55947,34.09793],[-118.55999,34.09887],[-118.56082,34.09885],[-118.56275,34.09813],[-118.56332,34.09744],[-118.56391,34.09745],[-118.5639,34.09802],[-118.56336,34.09829],[-118.56314,34.09967],[-118.56416,34.09999],[-118.56403,34.1005],[-118.56439,34.10077],[-118.56445,34.10122],[-118.56409,34.10194],[-118.56345,34.10244],[-118.56369,34.10281],[-118.56342,34.10307],[-118.56356,34.10341],[-118.56415,34.10368],[-118.56413,34.10423],[-118.56321,34.10449],[-118.56313,34.10515],[-118.56212,34.10581],[-118.56158,34.10666],[-118.56044,34.10722],[-118.5594,34.10955],[-118.55801,34.10937],[-118.55768,34.11018],[-118.55823,34.10979],[-118.55859,34.10993],[-118.55815,34.11029],[-118.55836,34.11054],[-118.55838,34.1114],[-118.55824,34.11202],[-118.55791,34.11228],[-118.5579,34.11251],[-118.55814,34.11266],[-118.55771,34.11294],[-118.55795,34.1134],[-118.55759,34.11351],[-118.55784,34.11376],[-118.55791,34.11424],[-118.55821,34.11433],[-118.55784,34.11455],[-118.55814,34.11499],[-118.55795,34.11584],[-118.55829,34.11615],[-118.55824,34.11712],[-118.55859,34.11722],[-118.55827,34.11747],[-118.55835,34.11783],[-118.55797,34.11793],[-118.55805,34.11819],[-118.5586,34.11841],[-118.55849,34.11879],[-118.5583,34.11871],[-118.55865,34.11887],[-118.55862,34.11921],[-118.55899,34.1195],[-118.55877,34.11959],[-118.55882,34.12009],[-118.55835,34.12026],[-118.55859,34.1206],[-118.55842,34.12056],[-118.55837,34.12091],[-118.55792,34.12122],[-118.55759,34.12116],[-118.55756,34.12147],[-118.55738,34.12147],[-118.55745,34.12173],[-118.55699,34.12195],[-118.5567,34.12185],[-118.55649,34.12214],[-118.55718,34.12215],[-118.55706,34.12244],[-118.55729,34.12285],[-118.5571,34.12316],[-118.55638,34.12318],[-118.55655,34.12361],[-118.5564,34.1241],[-118.55573,34.12445],[-118.55543,34.12436],[-118.55463,34.12517],[-118.55434,34.12501],[-118.55421,34.12544],[-118.55387,34.12537],[-118.55359,34.12488],[-118.55322,34.12475],[-118.55177,34.1248],[-118.54938,34.12584],[-118.54548,34.12602],[-118.54516,34.12589],[-118.54496,34.12638],[-118.54153,34.12764],[-118.54057,34.12832],[-118.53957,34.12847],[-118.53913,34.12821],[-118.53859,34.12828],[-118.53744,34.12854],[-118.53701,34.12883],[-118.53614,34.12876],[-118.53587,34.12856],[-118.53456,34.1289],[-118.53197,34.12881],[-118.53063,34.12934],[-118.53004,34.12936],[-118.52837,34.12885],[-118.52777,34.12897],[-118.52567,34.12854],[-118.52271,34.12841],[-118.52207,34.12802],[-118.52152,34.12817],[-118.52043,34.12892],[-118.51921,34.12887],[-118.51864,34.12905],[-118.51689,34.1288],[-118.5135,34.12898],[-118.51318,34.12852],[-118.5132,34.12816],[-118.51364,34.12776],[-118.51371,34.12721],[-118.51251,34.12612],[-118.51209,34.12509],[-118.51161,34.12473],[-118.51153,34.12442],[-118.51097,34.1241],[-118.51093,34.12382],[-118.51054,34.12382],[-118.51033,34.12324],[-118.50944,34.12322],[-118.50896,34.12311],[-118.50873,34.12284],[-118.50842,34.12286],[-118.50841,34.12221],[-118.5087,34.12206],[-118.50894,34.12161],[-118.50858,34.12154],[-118.50831,34.1212],[-118.50879,34.12077],[-118.50844,34.12069],[-118.50791,34.12098],[-118.50742,34.12079],[-118.50729,34.12113],[-118.50711,34.12087],[-118.50668,34.12092],[-118.50636,34.12074],[-118.50646,34.1206],[-118.50596,34.12044],[-118.506,34.12029],[-118.50552,34.12017],[-118.50532,34.11956],[-118.50484,34.11957],[-118.50496,34.11924],[-118.50447,34.11877],[-118.50477,34.11786],[-118.504,34.11749],[-118.50429,34.11755],[-118.5042,34.11738],[-118.50447,34.11714],[-118.50324,34.11629],[-118.50218,34.11443],[-118.50201,34.11367],[-118.50146,34.11306],[-118.50126,34.11202],[-118.50107,34.11197],[-118.50109,34.11167],[-118.50136,34.11146],[-118.50119,34.11138],[-118.50129,34.111],[-118.501,34.11071],[-118.50139,34.10973],[-118.5026,34.10939],[-118.50281,34.10826],[-118.50346,34.10741],[-118.50327,34.10699],[-118.50352,34.1066],[-118.50304,34.10623],[-118.50293,34.1059],[-118.50416,34.10561],[-118.50474,34.10599],[-118.50498,34.10595],[-118.50509,34.10533],[-118.50464,34.10459],[-118.5047,34.10433],[-118.50546,34.10433],[-118.50542,34.10398],[-118.50471,34.10337],[-118.50491,34.10248],[-118.50448,34.10199],[-118.50461,34.10166],[-118.50442,34.10161],[-118.50449,34.1013],[-118.50412,34.10113],[-118.50408,34.10006],[-118.50393,34.10002],[-118.50407,34.09956],[-118.50396,34.09924],[-118.50492,34.09899],[-118.50574,34.09912],[-118.50536,34.09792],[-118.50578,34.09831],[-118.50575,34.09771],[-118.5062,34.0977],[-118.50493,34.09663],[-118.50489,34.09605],[-118.50537,34.0955],[-118.50512,34.09459],[-118.50546,34.09445],[-118.50537,34.09427],[-118.50498,34.09428],[-118.50507,34.09394],[-118.50536,34.09386],[-118.50503,34.09351],[-118.50531,34.09334],[-118.50525,34.09304],[-118.50577,34.09262],[-118.50571,34.09208],[-118.50606,34.09198],[-118.50599,34.09162],[-118.50577,34.09149],[-118.50592,34.09124],[-118.50571,34.09077],[-118.50616,34.09058],[-118.50569,34.09013],[-118.50531,34.09039],[-118.50509,34.09033],[-118.50503,34.08926],[-118.50534,34.08889],[-118.50554,34.08736],[-118.50591,34.08682],[-118.50672,34.08685],[-118.50717,34.08607],[-118.50795,34.08545],[-118.50854,34.08561],[-118.50963,34.08542],[-118.50978,34.08433],[-118.51011,34.08409],[-118.50992,34.08342],[-118.50924,34.08321],[-118.51016,34.08295],[-118.50999,34.08282],[-118.51005,34.08251],[-118.51121,34.08219],[-118.51103,34.08158],[-118.5114,34.08141],[-118.51186,34.08158],[-118.51307,34.08136],[-118.51402,34.08187],[-118.5143,34.08173],[-118.5135,34.08115],[-118.51252,34.07986],[-118.51252,34.07927],[-118.5121,34.07821],[-118.50973,34.07494],[-118.50979,34.0745],[-118.50899,34.07398],[-118.50682,34.07095],[-118.50536,34.0702],[-118.50499,34.06905],[-118.50499,34.06816],[-118.50459,34.06794],[-118.50447,34.06694],[-118.50373,34.06668],[-118.50318,34.0669],[-118.50197,34.06619],[-118.50124,34.06559],[-118.501,34.06478],[-118.5006,34.06454],[-118.50057,34.0641],[-118.50084,34.06402],[-118.50105,34.06453],[-118.50133,34.06467],[-118.50219,34.06458],[-118.50187,34.06497],[-118.50241,34.06507],[-118.50261,34.06476],[-118.5023,34.06428],[-118.50256,34.06408],[-118.50262,34.06362],[-118.50326,34.06317],[-118.50332,34.06257],[-118.50387,34.06234],[-118.50451,34.06263],[-118.50468,34.0625],[-118.50438,34.0621],[-118.50454,34.06194],[-118.5054,34.06178],[-118.50554,34.06101],[-118.50532,34.06084],[-118.50458,34.06119],[-118.50438,34.06071],[-118.5045,34.0601],[-118.50506,34.06015],[-118.5052,34.05999],[-118.50481,34.05953],[-118.50488,34.05929],[-118.50525,34.05937],[-118.50583,34.05916],[-118.50605,34.05849],[-118.50571,34.05745],[-118.50495,34.05655],[-118.50572,34.0544],[-118.50566,34.05415],[-118.50507,34.05379],[-118.50552,34.05362],[-118.50557,34.05334],[-118.5069,34.05232],[-118.50686,34.05189],[-118.50646,34.05177],[-118.5066,34.05124],[-118.5072,34.05114],[-118.50723,34.05147],[-118.50766,34.05157],[-118.50787,34.05222],[-118.50895,34.05232],[-118.50963,34.05197],[-118.50957,34.05129],[-118.50901,34.05055],[-118.50832,34.05036],[-118.50783,34.05048],[-118.50815,34.05029],[-118.50801,34.05016],[-118.50817,34.04999],[-118.50833,34.0501],[-118.50911,34.04997],[-118.51003,34.05089],[-118.51071,34.05112],[-118.51141,34.05094],[-118.51169,34.05053],[-118.51201,34.04947],[-118.51183,34.04906],[-118.51133,34.04875],[-118.51168,34.0485],[-118.51171,34.04823],[-118.51098,34.04806],[-118.51048,34.04832],[-118.51002,34.04828],[-118.50924,34.04789],[-118.50918,34.04764],[-118.50964,34.04729],[-118.51011,34.04753],[-118.51045,34.04734],[-118.51051,34.04703],[-118.51099,34.04695],[-118.51099,34.04663],[-118.51066,34.04646],[-118.51053,34.04598],[-118.5107,34.04505],[-118.5106,34.0444],[-118.51096,34.04397],[-118.51122,34.04383],[-118.51136,34.04402],[-118.51108,34.04452],[-118.51119,34.04482],[-118.51092,34.04581],[-118.51139,34.04644],[-118.51144,34.04726],[-118.51181,34.04766],[-118.51287,34.04811],[-118.51319,34.04789],[-118.51358,34.04649],[-118.51434,34.04594],[-118.51474,34.04593],[-118.51483,34.04628],[-118.51549,34.04605],[-118.5153,34.04539],[-118.51662,34.04498],[-118.51682,34.04472],[-118.51709,34.04298],[-118.51765,34.04162],[-118.51859,34.04127],[-118.5183,34.04056],[-118.51848,34.04043],[-118.51915,34.04085],[-118.52074,34.04081],[-118.52081,34.04055],[-118.52049,34.03975],[-118.52013,34.03966],[-118.52009,34.04007],[-118.5198,34.04009],[-118.51965,34.03988],[-118.51979,34.03948],[-118.52014,34.03945],[-118.5203,34.03921],[-118.52032,34.0387],[-118.52005,34.03855],[-118.51955,34.03867],[-118.51931,34.03849],[-118.51985,34.03805],[-118.5205,34.03836],[-118.52068,34.03824],[-118.52079,34.03701],[-118.52276,34.03867],[-118.52326,34.03844],[-118.5229,34.0371],[-118.52353,34.03589],[-118.5247,34.03465],[-118.52538,34.03354],[-118.52558,34.03259],[-118.52544,34.03218],[-118.52438,34.03183],[-118.52373,34.03131],[-118.52218,34.03056],[-118.52209,34.03042],[-118.52245,34.02985],[-118.52458,34.03103],[-118.52663,34.03191],[-118.52886,34.03252],[-118.53441,34.03486],[-118.53524,34.03567],[-118.5353,34.03591],[-118.53501,34.03633],[-118.53522,34.03656],[-118.53592,34.03594],[-118.53657,34.03607],[-118.53945,34.03766],[-118.53962,34.03781],[-118.53945,34.03814],[-118.53876,34.03841],[-118.53847,34.03894],[-118.53865,34.03911],[-118.53953,34.03915],[-118.53996,34.0386],[-118.5409,34.03851],[-118.54035,34.03883],[-118.54039,34.03911],[-118.54116,34.03914],[-118.54146,34.03883],[-118.54482,34.03955],[-118.54664,34.03966],[-118.54886,34.03948],[-118.55019,34.03958],[-118.55277,34.03897],[-118.55299,34.03903],[-118.5531,34.03937],[-118.55392,34.03969],[-118.55346,34.04044],[-118.55359,34.04064],[-118.55414,34.04053],[-118.55442,34.04092],[-118.55474,34.041],[-118.55557,34.04048],[-118.55631,34.04112],[-118.55647,34.04149],[-118.55498,34.04133],[-118.55486,34.04181],[-118.55389,34.04181],[-118.55369,34.04201],[-118.55366,34.04267],[-118.55315,34.0431],[-118.55276,34.04313],[-118.55274,34.04289],[-118.5533,34.04212],[-118.55322,34.0419],[-118.55267,34.04159],[-118.55256,34.04188],[-118.55225,34.04185],[-118.55209,34.04158],[-118.55243,34.04086],[-118.55189,34.04073],[-118.55141,34.04096],[-118.55132,34.04134],[-118.55166,34.04161],[-118.55175,34.04218],[-118.55113,34.04293],[-118.55109,34.04365],[-118.5508,34.04395],[-118.55125,34.0446],[-118.55136,34.04588],[-118.55228,34.04678],[-118.55146,34.04774],[-118.55151,34.04835],[-118.55172,34.04862],[-118.55151,34.04984],[-118.55186,34.05105],[-118.55181,34.05209],[-118.552,34.05249],[-118.55309,34.05285],[-118.55332,34.05282],[-118.55346,34.05245],[-118.55278,34.0508],[-118.55286,34.04958],[-118.55392,34.04935],[-118.55419,34.04917],[-118.55425,34.04871],[-118.5535,34.04791],[-118.55365,34.04755],[-118.55297,34.04674],[-118.55288,34.04582],[-118.55313,34.04527],[-118.55351,34.04503],[-118.55388,34.04422],[-118.55421,34.04429],[-118.55414,34.04533],[-118.55592,34.04573],[-118.55652,34.04544],[-118.55652,34.0447],[-118.55685,34.04428],[-118.5564,34.04381],[-118.55601,34.04379],[-118.55564,34.04394],[-118.55577,34.04431],[-118.55536,34.0446],[-118.55462,34.04412],[-118.55431,34.04353],[-118.55389,34.04376],[-118.55365,34.04435],[-118.55303,34.04385],[-118.55449,34.04227],[-118.55511,34.04232],[-118.55553,34.04179],[-118.55585,34.04178],[-118.55614,34.04222],[-118.55668,34.04254],[-118.55773,34.04249],[-118.55807,34.04199],[-118.55856,34.04184],[-118.55861,34.04161],[-118.55816,34.04136],[-118.558,34.04093],[-118.55664,34.04056],[-118.55678,34.04036],[-118.55729,34.0404],[-118.55697,34.03993],[-118.55697,34.03951],[-118.55662,34.03929],[-118.55662,34.03912],[-118.55697,34.03906],[-118.55756,34.0393],[-118.5584,34.04013],[-118.55884,34.04015],[-118.55913,34.03962],[-118.56043,34.04009],[-118.56013,34.04067],[-118.56089,34.04169],[-118.56084,34.04206],[-118.56119,34.04228],[-118.55961,34.04223],[-118.56041,34.04381],[-118.55962,34.04368],[-118.55979,34.04416],[-118.56084,34.04478],[-118.56145,34.04458],[-118.56161,34.04491],[-118.56138,34.04542],[-118.56204,34.04548],[-118.56264,34.04521],[-118.56285,34.0449],[-118.56397,34.04438],[-118.56413,34.04398],[-118.56404,34.04353],[-118.56448,34.04369],[-118.56475,34.04467],[-118.56433,34.04512],[-118.56427,34.04547],[-118.56462,34.04618],[-118.56416,34.04608],[-118.56389,34.04571],[-118.56334,34.04617],[-118.56308,34.04575],[-118.56233,34.04598],[-118.56297,34.04635],[-118.56359,34.04629],[-118.56376,34.04664],[-118.56529,34.04665],[-118.56562,34.04629],[-118.56577,34.04558],[-118.56628,34.04517],[-118.56626,34.04453],[-118.56658,34.0441],[-118.56658,34.04374],[-118.56604,34.04391],[-118.56603,34.04297],[-118.56562,34.04313],[-118.56572,34.04344],[-118.56526,34.04372],[-118.56506,34.04329],[-118.56473,34.0433],[-118.56408,34.04283],[-118.56372,34.04287],[-118.56332,34.04364],[-118.56303,34.0436],[-118.56275,34.04326],[-118.56293,34.04262],[-118.56275,34.04239],[-118.56215,34.04224],[-118.56222,34.04196],[-118.56181,34.04149],[-118.56167,34.04098],[-118.56179,34.04074],[-118.56244,34.0408],[-118.56347,34.04137],[-118.56505,34.04136],[-118.5671,34.04185],[-118.56728,34.04269],[-118.56773,34.04311],[-118.56778,34.0437],[-118.56739,34.04464],[-118.56683,34.04471],[-118.56654,34.04549],[-118.5668,34.04565],[-118.56677,34.04623],[-118.56774,34.04652],[-118.56765,34.04666],[-118.56663,34.04663],[-118.56555,34.0477],[-118.56507,34.04791],[-118.56505,34.04806],[-118.5662,34.04842],[-118.56565,34.04851],[-118.56564,34.04882],[-118.56595,34.04895],[-118.56695,34.04859],[-118.5671,34.04812],[-118.56739,34.04802],[-118.5696,34.04859],[-118.57013,34.04892],[-118.57061,34.04887],[-118.5707,34.04868],[-118.56958,34.04783],[-118.5691,34.04654],[-118.56924,34.04588],[-118.56834,34.04455],[-118.56827,34.04298],[-118.56868,34.04223],[-118.56911,34.04206],[-118.57084,34.04212],[-118.57224,34.04188],[-118.57426,34.04111],[-118.57593,34.04001],[-118.5767,34.03996],[-118.57724,34.04019],[-118.57998,34.04017],[-118.58322,34.03877],[-118.58438,34.0387],[-118.58446,34.03901],[-118.58471,34.03913],[-118.58566,34.03931],[-118.58598,34.03924],[-118.58637,34.03859],[-118.58664,34.03853],[-118.58831,34.03902],[-118.58974,34.03909],[-118.5923,34.03961],[-118.59511,34.03971],[-118.59671,34.03924],[-118.59835,34.03958],[-118.60323,34.03949],[-118.60671,34.03851],[-118.60757,34.03745],[-118.60827,34.03692],[-118.60991,34.03645],[-118.6109,34.03649],[-118.6118,34.03678],[-118.61457,34.03684],[-118.61909,34.03741],[-118.62421,34.03774],[-118.62711,34.03697],[-118.63254,34.03726],[-118.63309,34.03749],[-118.63592,34.03701],[-118.63634,34.0372],[-118.63663,34.037],[-118.63722,34.03703],[-118.63808,34.03657],[-118.64129,34.03741],[-118.64744,34.03848],[-118.6488,34.03832],[-118.64977,34.03763],[-118.65026,34.03761],[-118.6519,34.03791],[-118.65275,34.03862],[-118.65363,34.03871],[-118.65409,34.03824],[-118.65476,34.03824],[-118.65695,34.03861],[-118.65766,34.03934],[-118.65838,34.03935],[-118.65961,34.03891],[-118.66066,34.03981],[-118.66225,34.03995],[-118.66234,34.03958],[-118.66313,34.03966],[-118.6633,34.04027],[-118.66626,34.04016],[-118.66649,34.04032],[-118.66638,34.04047],[-118.66532,34.04122],[-118.66488,34.04102],[-118.66364,34.04111],[-118.6639,34.04248],[-118.66283,34.04387],[-118.66196,34.04428],[-118.66184,34.04464],[-118.66251,34.04502],[-118.66226,34.04541],[-118.66224,34.04603],[-118.66357,34.04796],[-118.66345,34.04819],[-118.66308,34.04819],[-118.6626,34.04785],[-118.66043,34.04713],[-118.65981,34.04711],[-118.65993,34.0476],[-118.65975,34.04805],[-118.65995,34.04847],[-118.66136,34.04897],[-118.66185,34.04951],[-118.66226,34.0508],[-118.66297,34.05151],[-118.663,34.05296],[-118.66393,34.05369],[-118.66383,34.05395],[-118.66267,34.05406],[-118.66306,34.05458],[-118.66386,34.05504],[-118.66395,34.05531],[-118.66346,34.05597],[-118.66348,34.05636],[-118.66435,34.05693],[-118.66455,34.05761],[-118.66521,34.05793],[-118.66633,34.05785],[-118.66731,34.05745],[-118.6682,34.05798],[-118.6681,34.05828],[-118.66826,34.0587],[-118.66805,34.05915],[-118.66916,34.06014],[-118.669,34.06019],[-118.66868,34.06141],[-118.66972,34.06194],[-118.66992,34.06223],[-118.66952,34.06309],[-118.66861,34.06423],[-118.66925,34.06444],[-118.66988,34.064],[-118.67109,34.06369],[-118.67153,34.06285],[-118.67172,34.06301],[-118.6729,34.06244],[-118.67425,34.06245],[-118.67465,34.06223],[-118.67468,34.06193],[-118.67504,34.06224],[-118.67608,34.0618],[-118.67632,34.06238],[-118.67597,34.06291],[-118.6762,34.0631],[-118.67605,34.06359],[-118.67577,34.06387],[-118.67646,34.06396],[-118.6764,34.06422],[-118.67667,34.06457],[-118.67813,34.06425],[-118.67895,34.06429],[-118.68004,34.06526],[-118.68083,34.06566],[-118.68094,34.06607],[-118.68209,34.06619],[-118.68243,34.06645],[-118.68311,34.06635],[-118.68397,34.06726],[-118.68444,34.06813],[-118.68566,34.06823],[-118.68587,34.06855],[-118.68486,34.0687],[-118.68519,34.06888],[-118.6858,34.06983],[-118.68551,34.07106],[-118.68496,34.07118],[-118.68475,34.07098],[-118.6844,34.07169],[-118.68337,34.07132],[-118.68301,34.07175],[-118.68301,34.07221],[-118.68273,34.07229],[-118.68309,34.0725],[-118.68301,34.07282],[-118.68261,34.07271],[-118.68223,34.07303],[-118.68145,34.07315],[-118.68104,34.07366],[-118.6812,34.07407],[-118.68237,34.07469],[-118.68282,34.07452],[-118.68381,34.07511],[-118.68407,34.07553],[-118.68362,34.07609],[-118.68376,34.07619],[-118.6833,34.07648],[-118.6832,34.07688],[-118.68285,34.07717],[-118.68269,34.077],[-118.68241,34.0772],[-118.68225,34.07706],[-118.68166,34.07719],[-118.68151,34.07753],[-118.68117,34.07746],[-118.68083,34.07816],[-118.68069,34.07808],[-118.68052,34.07833],[-118.68015,34.07841],[-118.68009,34.07888],[-118.67997,34.07873],[-118.67981,34.07894],[-118.6796,34.07884],[-118.67907,34.07905],[-118.67887,34.07894],[-118.67887,34.0787],[-118.67864,34.07869],[-118.67791,34.07934],[-118.67783,34.07971],[-118.67757,34.07973],[-118.67752,34.08016],[-118.67702,34.08071],[-118.67651,34.08077],[-118.67585,34.08115],[-118.67496,34.08116],[-118.67418,34.0814],[-118.67386,34.08104],[-118.67325,34.08145],[-118.67267,34.08136],[-118.67229,34.08161],[-118.67225,34.08142],[-118.6716,34.08136],[-118.67156,34.0812],[-118.67048,34.08123],[-118.67014,34.08152],[-118.66973,34.08139],[-118.66957,34.08085],[-118.6689,34.08035],[-118.66792,34.0803],[-118.66797,34.08007],[-118.66759,34.08002],[-118.66687,34.07926],[-118.66677,34.07973],[-118.66647,34.07996],[-118.66648,34.0805],[-118.66596,34.08063],[-118.66595,34.0808],[-118.66534,34.08101],[-118.66384,34.0809],[-118.6631,34.08062],[-118.66405,34.08028],[-118.66409,34.07963],[-118.66387,34.07946],[-118.66481,34.07916],[-118.66493,34.07873],[-118.66421,34.07818],[-118.66458,34.07745],[-118.66329,34.07763],[-118.6633,34.07783],[-118.66269,34.07812],[-118.66234,34.07774],[-118.66142,34.07803],[-118.66119,34.07757],[-118.66067,34.07772],[-118.66,34.07733],[-118.65994,34.0777],[-118.65922,34.0781],[-118.65896,34.07797],[-118.65814,34.07873],[-118.65824,34.07895],[-118.6578,34.07904],[-118.65691,34.07912],[-118.65658,34.07892],[-118.65635,34.0791],[-118.6564,34.0789],[-118.65616,34.07868],[-118.65499,34.07867],[-118.65474,34.07802],[-118.6535,34.07809],[-118.65322,34.07858],[-118.6521,34.07877],[-118.65182,34.07846],[-118.65154,34.07845],[-118.65037,34.07971],[-118.64965,34.0796],[-118.64811,34.08019],[-118.64766,34.08014],[-118.64779,34.08035],[-118.64692,34.08056],[-118.64688,34.08077],[-118.64452,34.08153],[-118.64305,34.08299],[-118.6407,34.0836],[-118.63975,34.08338],[-118.63893,34.08354],[-118.63832,34.08377],[-118.63766,34.08453],[-118.6373,34.08463],[-118.63695,34.08454],[-118.63656,34.0839],[-118.63568,34.08325],[-118.63558,34.08295],[-118.63536,34.08319],[-118.63494,34.08321],[-118.63518,34.0826],[-118.6347,34.08224],[-118.63463,34.08196],[-118.63498,34.08174],[-118.63499,34.08143],[-118.63457,34.08124],[-118.63404,34.08132],[-118.63373,34.08089],[-118.63276,34.08119],[-118.63283,34.08086],[-118.63259,34.0802],[-118.63356,34.07938],[-118.63347,34.0789],[-118.63305,34.07875],[-118.63225,34.07789],[-118.63154,34.07768],[-118.63035,34.07772],[-118.62985,34.07734],[-118.62946,34.07688],[-118.62948,34.07584],[-118.62923,34.07525],[-118.62896,34.07509],[-118.62899,34.07484],[-118.6284,34.0744],[-118.62794,34.07434],[-118.62784,34.07413],[-118.62713,34.07451],[-118.62595,34.07425],[-118.62504,34.07441],[-118.62483,34.07483],[-118.62486,34.07534],[-118.62467,34.07519],[-118.62445,34.07536],[-118.62259,34.07457],[-118.62295,34.07378],[-118.62259,34.07329],[-118.62138,34.0737],[-118.62074,34.07414],[-118.6205,34.074],[-118.62043,34.07361],[-118.62072,34.0732],[-118.62026,34.07304],[-118.62011,34.07273],[-118.6196,34.07263],[-118.61924,34.07293],[-118.6195,34.07335],[-118.61837,34.07287],[-118.61804,34.07301],[-118.61798,34.07348],[-118.61682,34.07347],[-118.61626,34.07313],[-118.61628,34.07286],[-118.61598,34.07289],[-118.61581,34.07265],[-118.61577,34.07239],[-118.61645,34.07209],[-118.6164,34.07182],[-118.61563,34.07168],[-118.61596,34.07211],[-118.61532,34.07209],[-118.61496,34.07279],[-118.61546,34.07335],[-118.61606,34.07347],[-118.61496,34.07393],[-118.6145,34.07443],[-118.61389,34.07452],[-118.61379,34.07476],[-118.61404,34.0753],[-118.61324,34.07509],[-118.61266,34.0754],[-118.61217,34.07543],[-118.61153,34.07501],[-118.61116,34.07503],[-118.61134,34.07483],[-118.61121,34.07459],[-118.61058,34.07476],[-118.61027,34.07467],[-118.61027,34.0744],[-118.61001,34.07455],[-118.60937,34.0743],[-118.60892,34.07328],[-118.60926,34.07306],[-118.60939,34.07248],[-118.60898,34.0724],[-118.60858,34.07199],[-118.60876,34.07148],[-118.60824,34.07125],[-118.60813,34.06977],[-118.60712,34.06802],[-118.60636,34.06801],[-118.60611,34.06877],[-118.60628,34.06906],[-118.6061,34.0692],[-118.60579,34.06912],[-118.60535,34.06849],[-118.60471,34.06836],[-118.60458,34.06855],[-118.60472,34.06871],[-118.60419,34.06885],[-118.60404,34.06915],[-118.60357,34.06932],[-118.60357,34.06957],[-118.6031,34.06971],[-118.60189,34.06977],[-118.60165,34.06956],[-118.6015,34.06898],[-118.60109,34.06889],[-118.60027,34.07014],[-118.59986,34.07042],[-118.59971,34.07156],[-118.60048,34.07205],[-118.59994,34.0721],[-118.60014,34.07259],[-118.59952,34.07297],[-118.59983,34.07342],[-118.59962,34.0735],[-118.59953,34.07404],[-118.59899,34.07476],[-118.59865,34.07509],[-118.59792,34.07507],[-118.59764,34.07563],[-118.59728,34.07575],[-118.59708,34.07563],[-118.59712,34.07522],[-118.59696,34.07524],[-118.59671,34.07578],[-118.59621,34.07582],[-118.59629,34.07603],[-118.59549,34.07591],[-118.59488,34.07648],[-118.59421,34.07662],[-118.59397,34.07697],[-118.59421,34.07743],[-118.59407,34.07758],[-118.59454,34.07755],[-118.5949,34.07797],[-118.59462,34.07826],[-118.59487,34.07858],[-118.59469,34.07923],[-118.59495,34.08045],[-118.59619,34.08106],[-118.59679,34.08186],[-118.5971,34.08277],[-118.59921,34.08448],[-118.59971,34.08528],[-118.60042,34.08696],[-118.60028,34.08738],[-118.60055,34.0875],[-118.59998,34.08827],[-118.59907,34.08828],[-118.59874,34.08787],[-118.59775,34.0877],[-118.59759,34.08806],[-118.59699,34.08778],[-118.59677,34.08729],[-118.59617,34.08762],[-118.59574,34.08741],[-118.59539,34.08749],[-118.59541,34.08706],[-118.59574,34.08698],[-118.59574,34.08673],[-118.59642,34.08615],[-118.59628,34.08602],[-118.5964,34.08575],[-118.59616,34.08552],[-118.59546,34.08567],[-118.59512,34.0855],[-118.59546,34.08523],[-118.59542,34.08428],[-118.59485,34.08409],[-118.59465,34.08366],[-118.59475,34.08341],[-118.59401,34.08352],[-118.59416,34.08331],[-118.59373,34.08287],[-118.59316,34.08323],[-118.59263,34.08411],[-118.59286,34.0843],[-118.59281,34.08469],[-118.59254,34.08464],[-118.59213,34.0851],[-118.59227,34.08558],[-118.5921,34.08607],[-118.59175,34.08609],[-118.5917,34.08636],[-118.59197,34.0868],[-118.59084,34.08747],[-118.5906,34.08791],[-118.59077,34.08808],[-118.59063,34.08835],[-118.58966,34.08829],[-118.58965,34.08845],[-118.58995,34.08857],[-118.5898,34.08875],[-118.59,34.08909],[-118.58923,34.08985],[-118.58867,34.09026],[-118.58801,34.09024],[-118.58771,34.09015],[-118.58771,34.08961],[-118.58753,34.08931],[-118.58731,34.0893],[-118.58698,34.08961],[-118.58705,34.0899],[-118.58675,34.0901],[-118.58605,34.09053],[-118.58511,34.09066],[-118.58404,34.09173],[-118.58267,34.09229],[-118.58207,34.09197],[-118.58192,34.09161],[-118.58075,34.09185],[-118.58086,34.09167],[-118.58056,34.0915],[-118.5803,34.09101],[-118.57992,34.09098],[-118.57935,34.09038],[-118.57939,34.09002],[-118.5789,34.08926],[-118.5783,34.08897],[-118.5777,34.08916],[-118.57739,34.08905],[-118.57701,34.08849],[-118.57725,34.08834],[-118.5769,34.08805],[-118.57686,34.08745],[-118.57643,34.08748],[-118.57619,34.08728],[-118.57542,34.08751],[-118.57454,34.08735],[-118.57364,34.08819],[-118.57339,34.08797],[-118.57286,34.08803],[-118.57241,34.08836],[-118.57233,34.08866],[-118.57248,34.08909],[-118.57326,34.08932],[-118.57302,34.08953],[-118.57321,34.08963],[-118.57266,34.08989],[-118.57257,34.0895],[-118.57199,34.08912],[-118.57095,34.08912],[-118.57035,34.0886],[-118.56951,34.08861],[-118.56956,34.08837]]],[[[-118.5662,34.07804],[-118.56562,34.07639],[-118.56601,34.07573],[-118.56463,34.07454],[-118.56448,34.07373],[-118.5635,34.07265],[-118.5627,34.0713],[-118.56092,34.06975],[-118.56025,34.0688],[-118.5597,34.06855],[-118.55825,34.06857],[-118.5582,34.07001],[-118.55787,34.07061],[-118.55704,34.07099],[-118.55715,34.07155],[-118.55783,34.07218],[-118.55869,34.07239],[-118.5594,34.07366],[-118.55949,34.0745],[-118.56058,34.07522],[-118.56076,34.07552],[-118.56057,34.07608],[-118.56069,34.07633],[-118.5618,34.07743],[-118.56145,34.07779],[-118.56285,34.07806],[-118.56339,34.07792],[-118.56377,34.07814],[-118.5641,34.0789],[-118.56373,34.07848],[-118.56347,34.07848],[-118.56348,34.07928],[-118.56318,34.07972],[-118.56304,34.07931],[-118.56317,34.0787],[-118.56289,34.07837],[-118.56211,34.07822],[-118.56234,34.07882],[-118.56167,34.07903],[-118.56,34.07859],[-118.5637,34.08008],[-118.56468,34.07989],[-118.56628,34.07886],[-118.5662,34.07804]]],[[[-118.54296,34.0646],[-118.54344,34.06408],[-118.54319,34.06337],[-118.54359,34.06235],[-118.54531,34.06203],[-118.54566,34.06163],[-118.54633,34.06171],[-118.54745,34.06069],[-118.54751,34.06038],[-118.54739,34.06006],[-118.54668,34.05986],[-118.54624,34.06084],[-118.54588,34.06091],[-118.54502,34.06013],[-118.54362,34.06007],[-118.54331,34.05957],[-118.54278,34.05958],[-118.54266,34.05932],[-118.54298,34.05818],[-118.54279,34.05795],[-118.54195,34.05773],[-118.54098,34.05692],[-118.54149,34.05622],[-118.54046,34.05555],[-118.54108,34.0548],[-118.54178,34.05501],[-118.54212,34.05481],[-118.5423,34.05416],[-118.54275,34.05354],[-118.54267,34.05299],[-118.54205,34.05231],[-118.54175,34.05242],[-118.54173,34.052],[-118.54121,34.05186],[-118.54103,34.05217],[-118.54069,34.05201],[-118.54038,34.05224],[-118.54102,34.05279],[-118.54094,34.05312],[-118.54011,34.05264],[-118.53863,34.05292],[-118.53796,34.05267],[-118.53793,34.05196],[-118.53816,34.05155],[-118.53805,34.0512],[-118.53757,34.05091],[-118.53712,34.05097],[-118.53683,34.0513],[-118.53685,34.05158],[-118.53649,34.05143],[-118.53701,34.05035],[-118.53696,34.04999],[-118.53649,34.04982],[-118.53584,34.05027],[-118.53552,34.05095],[-118.53521,34.05077],[-118.53536,34.05063],[-118.53521,34.04964],[-118.53588,34.04926],[-118.53662,34.04931],[-118.53658,34.04887],[-118.53699,34.04873],[-118.5358,34.04768],[-118.53648,34.04677],[-118.53628,34.04612],[-118.53634,34.04539],[-118.53597,34.04512],[-118.53597,34.04485],[-118.53653,34.04463],[-118.53706,34.04414],[-118.53705,34.04356],[-118.53666,34.04332],[-118.53694,34.04258],[-118.53736,34.04224],[-118.53768,34.04151],[-118.53748,34.04048],[-118.53615,34.0408],[-118.53597,34.04101],[-118.53516,34.04094],[-118.53487,34.04175],[-118.53525,34.04227],[-118.5342,34.04293],[-118.53416,34.04377],[-118.53336,34.04522],[-118.53355,34.04533],[-118.53336,34.04678],[-118.53317,34.04687],[-118.53317,34.0474],[-118.5329,34.04777],[-118.53297,34.04803],[-118.53323,34.04811],[-118.53326,34.0485],[-118.53242,34.04921],[-118.53177,34.05084],[-118.53271,34.05151],[-118.53394,34.05152],[-118.53513,34.0511],[-118.53529,34.0513],[-118.53515,34.05161],[-118.53551,34.05178],[-118.53511,34.0518],[-118.53551,34.05195],[-118.53605,34.05184],[-118.5369,34.05273],[-118.53712,34.05258],[-118.53706,34.05292],[-118.53756,34.05276],[-118.53779,34.05291],[-118.53774,34.05315],[-118.53795,34.05287],[-118.5384,34.05324],[-118.53839,34.05347],[-118.53922,34.05321],[-118.53944,34.05342],[-118.54023,34.05349],[-118.54062,34.05387],[-118.53966,34.05593],[-118.54025,34.05647],[-118.54014,34.05729],[-118.54066,34.05835],[-118.54059,34.05877],[-118.54155,34.05942],[-118.54194,34.06027],[-118.54313,34.06106],[-118.54235,34.06085],[-118.54185,34.06093],[-118.54072,34.06019],[-118.54004,34.05893],[-118.54009,34.05858],[-118.53963,34.05816],[-118.53972,34.05765],[-118.53941,34.05769],[-118.53903,34.05722],[-118.53916,34.05594],[-118.53901,34.05456],[-118.53851,34.05449],[-118.53813,34.0547],[-118.53814,34.05501],[-118.53852,34.05523],[-118.5385,34.05698],[-118.53751,34.05696],[-118.53723,34.05607],[-118.53655,34.05592],[-118.53588,34.05547],[-118.53528,34.05549],[-118.53531,34.05584],[-118.53635,34.05632],[-118.53668,34.05683],[-118.53636,34.0573],[-118.53639,34.05758],[-118.5367,34.05784],[-118.5371,34.05792],[-118.53726,34.05769],[-118.53823,34.05752],[-118.53885,34.05778],[-118.53898,34.05816],[-118.53788,34.05825],[-118.5381,34.05843],[-118.53882,34.05848],[-118.54011,34.06004],[-118.54144,34.06091],[-118.54151,34.0618],[-118.54128,34.0621],[-118.54133,34.06249],[-118.54107,34.06267],[-118.54112,34.06313],[-118.54203,34.06384],[-118.54242,34.06449],[-118.54296,34.0646]]]]}},{"type":"Feature","properties":{"name":"Eaton Fire","county":"Los Angeles","acres":14021,"area_km2":56.7,"cause":"Human-caused","start":"2025-01-08T02:18Z","contained":"2025-01-31","fill":"#dc2626","fill-opacity":0.4,"stroke":"#dc2626","stroke-width":1.5},"geometry":{"type":"MultiPolygon","coordinates":[[[[-118.08367,34.23654],[-118.08397,34.23662],[-118.08395,34.23685],[-118.08383,34.23681],[-118.08366,34.23655],[-118.08367,34.23654]]],[[[-118.093,34.16646],[-118.09319,34.16655],[-118.09309,34.16672],[-118.09288,34.16664],[-118.093,34.16646]]],[[[-118.09474,34.16688],[-118.09493,34.16696],[-118.09483,34.16714],[-118.09462,34.16706],[-118.09474,34.16688]]],[[[-118.0991,34.16767],[-118.09928,34.16776],[-118.09918,34.16794],[-118.09897,34.16786],[-118.0991,34.16767]]],[[[-118.09657,34.1677],[-118.09675,34.16779],[-118.09665,34.16797],[-118.09644,34.16789],[-118.09657,34.1677]]],[[[-118.09304,34.16801],[-118.09322,34.1681],[-118.09312,34.16828],[-118.0929,34.16817],[-118.09304,34.16801]]],[[[-118.07244,34.169],[-118.07263,34.16909],[-118.07253,34.16927],[-118.07232,34.16919],[-118.07244,34.169]]],[[[-118.10005,34.16956],[-118.10024,34.16967],[-118.10014,34.16982],[-118.09993,34.16974],[-118.10005,34.16956]]],[[[-118.09868,34.17001],[-118.09887,34.1701],[-118.09877,34.17027],[-118.09856,34.17019],[-118.09868,34.17001]]],[[[-118.06551,34.17061],[-118.0657,34.1707],[-118.0656,34.17088],[-118.06539,34.1708],[-118.06551,34.17061]]],[[[-118.0762,34.17057],[-118.07638,34.17066],[-118.07628,34.17083],[-118.07607,34.17075],[-118.0762,34.17057]]],[[[-118.05722,34.17157],[-118.05741,34.17166],[-118.05731,34.17183],[-118.05709,34.17173],[-118.05722,34.17157]]],[[[-118.05612,34.17199],[-118.0563,34.17208],[-118.0562,34.17226],[-118.05599,34.17218],[-118.05612,34.17199]]],[[[-118.07503,34.17229],[-118.07521,34.17238],[-118.07511,34.17256],[-118.07489,34.17245],[-118.07503,34.17229]]],[[[-118.0727,34.17237],[-118.07289,34.17248],[-118.07279,34.17264],[-118.07257,34.17253],[-118.0727,34.17237]]],[[[-118.07466,34.17293],[-118.07485,34.17302],[-118.07475,34.1732],[-118.07454,34.17311],[-118.07466,34.17293]]],[[[-118.07428,34.1732],[-118.07447,34.17329],[-118.07437,34.17347],[-118.07416,34.17338],[-118.07428,34.1732]]],[[[-118.09858,34.17515],[-118.09876,34.17524],[-118.09866,34.17541],[-118.09845,34.17533],[-118.09858,34.17515]]],[[[-118.0988,34.17577],[-118.09899,34.17585],[-118.09889,34.17603],[-118.09868,34.17595],[-118.0988,34.17577]]],[[[-118.13635,34.17651],[-118.13654,34.1766],[-118.13644,34.17678],[-118.13623,34.1767],[-118.13635,34.17651]]],[[[-118.10511,34.18419],[-118.10529,34.18428],[-118.1052,34.18446],[-118.10498,34.18438],[-118.10511,34.18419]]],[[[-118.10515,34.1845],[-118.10533,34.18459],[-118.10524,34.18477],[-118.10502,34.18469],[-118.10515,34.1845]]],[[[-118.10555,34.18461],[-118.10573,34.1847],[-118.10563,34.18488],[-118.10542,34.1848],[-118.10555,34.18461]]],[[[-118.15756,34.1857],[-118.15774,34.18578],[-118.15764,34.18596],[-118.15743,34.18588],[-118.15756,34.1857]]],[[[-118.10468,34.18599],[-118.10487,34.18608],[-118.10477,34.18625],[-118.10456,34.18617],[-118.10468,34.18599]]],[[[-118.15768,34.18598],[-118.15786,34.18607],[-118.15776,34.18625],[-118.15755,34.18617],[-118.15768,34.18598]]],[[[-118.15439,34.18601],[-118.15458,34.1861],[-118.15448,34.18627],[-118.15427,34.18619],[-118.15439,34.18601]]],[[[-118.1572,34.18604],[-118.15739,34.18616],[-118.15729,34.18631],[-118.15708,34.18623],[-118.1572,34.18604]]],[[[-118.15959,34.18917],[-118.15978,34.18928],[-118.15967,34.18943],[-118.15945,34.18932],[-118.15959,34.18917]]],[[[-118.16018,34.19178],[-118.16036,34.19187],[-118.16026,34.19205],[-118.16005,34.19196],[-118.16018,34.19178]]],[[[-118.15718,34.20069],[-118.15736,34.20078],[-118.15726,34.20096],[-118.15705,34.20088],[-118.15718,34.20069]]],[[[-118.09969,34.16739],[-118.09989,34.16752],[-118.0997,34.16774],[-118.09953,34.1676],[-118.09969,34.16739]]],[[[-118.10613,34.1831],[-118.10632,34.18326],[-118.10607,34.18348],[-118.10593,34.18333],[-118.10613,34.1831]]],[[[-118.07906,34.1739],[-118.07932,34.17411],[-118.07925,34.17428],[-118.07893,34.17409],[-118.07906,34.1739]]],[[[-118.09553,34.16328],[-118.09583,34.16347],[-118.09579,34.16365],[-118.09542,34.16348],[-118.09553,34.16328]]],[[[-118.09492,34.16456],[-118.09476,34.16469],[-118.09438,34.16453],[-118.09454,34.1644],[-118.09492,34.16456]]],[[[-118.13687,34.18543],[-118.13705,34.18561],[-118.13668,34.18585],[-118.1366,34.18569],[-118.13687,34.18543]]],[[[-118.07301,34.17334],[-118.0732,34.1735],[-118.07292,34.17382],[-118.07279,34.17366],[-118.07301,34.17334]]],[[[-118.11303,34.18408],[-118.11327,34.18381],[-118.11351,34.18388],[-118.11327,34.18424],[-118.11303,34.18408]]],[[[-118.13794,34.18491],[-118.13813,34.18507],[-118.13778,34.18541],[-118.13768,34.18525],[-118.13794,34.18491]]],[[[-118.15393,34.18733],[-118.15412,34.18752],[-118.15368,34.1878],[-118.15361,34.18764],[-118.15393,34.18733]]],[[[-118.15825,34.18516],[-118.15864,34.18518],[-118.1587,34.1855],[-118.15836,34.18558],[-118.15825,34.18516]]],[[[-118.11832,34.17924],[-118.11786,34.17919],[-118.11778,34.17902],[-118.11825,34.1788],[-118.11832,34.17924]]],[[[-118.09549,34.1641],[-118.09513,34.16411],[-118.09518,34.16379],[-118.09582,34.16374],[-118.09549,34.1641]]],[[[-118.05589,34.16744],[-118.05572,34.16719],[-118.05544,34.16734],[-118.05531,34.16715],[-118.05556,34.16697],[-118.05596,34.16709],[-118.05616,34.16735],[-118.05589,34.16744]]],[[[-118.15709,34.18052],[-118.15709,34.18072],[-118.15659,34.18072],[-118.15626,34.18045],[-118.15643,34.18024],[-118.15709,34.18052]]],[[[-118.15654,34.18097],[-118.15695,34.18106],[-118.15675,34.18165],[-118.1564,34.18127],[-118.15654,34.18097]]],[[[-118.10078,34.16665],[-118.10053,34.16652],[-118.1007,34.16617],[-118.10125,34.16618],[-118.10123,34.16637],[-118.10089,34.16639],[-118.10109,34.16655],[-118.10107,34.16678],[-118.10078,34.16665]]],[[[-118.13544,34.17773],[-118.13484,34.1778],[-118.13465,34.17753],[-118.13507,34.17717],[-118.13544,34.17735],[-118.13544,34.17773]]],[[[-118.16006,34.19138],[-118.15978,34.19115],[-118.15951,34.19123],[-118.15948,34.19094],[-118.15985,34.19084],[-118.15994,34.19104],[-118.16064,34.19131],[-118.16031,34.19172],[-118.15998,34.19159],[-118.16006,34.19138]]],[[[-118.15851,34.18722],[-118.15834,34.18736],[-118.15806,34.18723],[-118.15824,34.1868],[-118.15799,34.18673],[-118.15799,34.18619],[-118.15857,34.18598],[-118.15835,34.18664],[-118.15866,34.1868],[-118.15851,34.18722]]],[[[-118.16041,34.19423],[-118.16013,34.19427],[-118.15984,34.19488],[-118.15965,34.19398],[-118.15981,34.19323],[-118.16039,34.19329],[-118.16047,34.19357],[-118.16026,34.194],[-118.16053,34.19402],[-118.16041,34.19423]]],[[[-118.13677,34.17796],[-118.13568,34.17791],[-118.13585,34.1773],[-118.13562,34.17696],[-118.13578,34.17676],[-118.13628,34.17676],[-118.13669,34.1771],[-118.13677,34.17796]]],[[[-118.1571,34.18573],[-118.15692,34.18544],[-118.1569,34.18434],[-118.15641,34.18441],[-118.15627,34.18425],[-118.15644,34.18398],[-118.15775,34.18373],[-118.15766,34.18229],[-118.15791,34.18222],[-118.15857,34.1825],[-118.15825,34.18406],[-118.15848,34.18392],[-118.15864,34.18408],[-118.15829,34.1845],[-118.15825,34.18485],[-118.15783,34.18486],[-118.15798,34.18557],[-118.15772,34.18571],[-118.15735,34.18559],[-118.15727,34.18602],[-118.1571,34.18573]]],[[[-118.13512,34.18421],[-118.13512,34.18345],[-118.1357,34.18325],[-118.1357,34.18386],[-118.13603,34.18393],[-118.13628,34.18311],[-118.13694,34.18373],[-118.13743,34.18366],[-118.13793,34.18304],[-118.13859,34.18332],[-118.13857,34.18413],[-118.13804,34.18422],[-118.13801,34.18475],[-118.13768,34.18503],[-118.13754,34.18549],[-118.13488,34.18464],[-118.13512,34.18421]]],[[[-118.15749,34.2114],[-118.15763,34.21063],[-118.15798,34.21047],[-118.15908,34.21065],[-118.15955,34.21052],[-118.15981,34.21017],[-118.15986,34.20995],[-118.15922,34.20933],[-118.15921,34.20901],[-118.15956,34.20891],[-118.15956,34.2086],[-118.15989,34.20842],[-118.15981,34.20795],[-118.16052,34.20802],[-118.16088,34.2077],[-118.16073,34.20747],[-118.16138,34.20752],[-118.16163,34.20842],[-118.16143,34.20883],[-118.16177,34.20917],[-118.16141,34.2092],[-118.16131,34.20941],[-118.16156,34.20951],[-118.16145,34.20983],[-118.16105,34.21012],[-118.16079,34.21005],[-118.16083,34.21037],[-118.1604,34.21058],[-118.16023,34.21094],[-118.15972,34.21102],[-118.16002,34.21118],[-118.15981,34.21132],[-118.15997,34.21136],[-118.15989,34.21158],[-118.15957,34.21154],[-118.1596,34.21181],[-118.15902,34.21205],[-118.15875,34.2124],[-118.15764,34.21213],[-118.15703,34.21318],[-118.1571,34.21346],[-118.15783,34.21319],[-118.15797,34.21428],[-118.15747,34.21417],[-118.157,34.21447],[-118.15654,34.21447],[-118.1564,34.21523],[-118.15673,34.21553],[-118.1567,34.21584],[-118.15581,34.21629],[-118.15574,34.21652],[-118.15439,34.21711],[-118.1553,34.21728],[-118.15582,34.2177],[-118.15621,34.21814],[-118.1565,34.21906],[-118.1552,34.2203],[-118.15383,34.22066],[-118.1532,34.2211],[-118.15223,34.22087],[-118.15058,34.22162],[-118.14879,34.22157],[-118.14556,34.2199],[-118.1447,34.2199],[-118.14379,34.21836],[-118.14328,34.2182],[-118.14207,34.21727],[-118.14149,34.2171],[-118.13797,34.2175],[-118.13594,34.21808],[-118.13453,34.21732],[-118.13371,34.2172],[-118.13275,34.21767],[-118.13437,34.2187],[-118.1352,34.21859],[-118.13489,34.21962],[-118.13366,34.21937],[-118.13335,34.21966],[-118.13307,34.21951],[-118.13279,34.21977],[-118.13187,34.2195],[-118.13032,34.22015],[-118.13012,34.22084],[-118.12882,34.22147],[-118.1285,34.22134],[-118.1282,34.22153],[-118.1279,34.22105],[-118.12749,34.22088],[-118.12716,34.22103],[-118.12732,34.22124],[-118.12716,34.22133],[-118.12731,34.22145],[-118.12714,34.22158],[-118.12715,34.22193],[-118.12621,34.22252],[-118.12599,34.22218],[-118.12493,34.22264],[-118.1248,34.22302],[-118.12406,34.22334],[-118.12359,34.22425],[-118.12245,34.22452],[-118.12179,34.22519],[-118.1206,34.22506],[-118.12146,34.22433],[-118.12081,34.22357],[-118.12011,34.22357],[-118.11933,34.22421],[-118.11801,34.22411],[-118.11831,34.2248],[-118.11827,34.22522],[-118.11797,34.2253],[-118.11767,34.22503],[-118.11751,34.2253],[-118.11761,34.22581],[-118.11679,34.2258],[-118.11771,34.22727],[-118.1175,34.22757],[-118.11768,34.22788],[-118.11727,34.22813],[-118.11676,34.22911],[-118.11745,34.22951],[-118.11725,34.22971],[-118.11727,34.23018],[-118.11605,34.23053],[-118.1159,34.2312],[-118.11642,34.23132],[-118.11671,34.23105],[-118.11721,34.23099],[-118.11754,34.23128],[-118.11779,34.23105],[-118.12013,34.23056],[-118.12054,34.23073],[-118.12002,34.23134],[-118.12006,34.23172],[-118.11968,34.23177],[-118.12009,34.23301],[-118.11944,34.23405],[-118.1194,34.23477],[-118.11837,34.23438],[-118.11754,34.23465],[-118.1162,34.23422],[-118.11553,34.23434],[-118.11532,34.23416],[-118.11404,34.23422],[-118.11294,34.23405],[-118.11188,34.23352],[-118.11107,34.23359],[-118.11039,34.23322],[-118.10976,34.23329],[-118.10835,34.23276],[-118.10792,34.23282],[-118.1063,34.23215],[-118.10591,34.23153],[-118.10494,34.23082],[-118.10483,34.2301],[-118.10338,34.22857],[-118.10345,34.2283],[-118.10307,34.22725],[-118.10273,34.22707],[-118.10208,34.22571],[-118.10001,34.22703],[-118.09953,34.227],[-118.09931,34.22662],[-118.09875,34.22677],[-118.09875,34.22713],[-118.09925,34.22757],[-118.09897,34.22775],[-118.09923,34.22797],[-118.09902,34.22825],[-118.09819,34.22833],[-118.09834,34.2288],[-118.09699,34.22863],[-118.09652,34.22898],[-118.09704,34.22936],[-118.09702,34.22964],[-118.09632,34.22973],[-118.09504,34.22932],[-118.09439,34.22955],[-118.09452,34.22987],[-118.09556,34.22988],[-118.09586,34.23008],[-118.09609,34.23068],[-118.09547,34.23073],[-118.09466,34.23022],[-118.09522,34.23139],[-118.09485,34.2313],[-118.09514,34.23216],[-118.09481,34.23223],[-118.09439,34.23285],[-118.09469,34.23355],[-118.09432,34.23382],[-118.09406,34.23388],[-118.09377,34.23367],[-118.09337,34.23379],[-118.09324,34.23416],[-118.09255,34.23427],[-118.09175,34.2336],[-118.09216,34.23322],[-118.09222,34.23293],[-118.09203,34.23279],[-118.09054,34.2325],[-118.08991,34.23289],[-118.08988,34.23322],[-118.08942,34.23328],[-118.08947,34.23285],[-118.08905,34.23228],[-118.08869,34.23318],[-118.08886,34.2335],[-118.0887,34.23387],[-118.08832,34.2337],[-118.0883,34.23337],[-118.08781,34.23325],[-118.08679,34.23425],[-118.08646,34.23422],[-118.08591,34.23533],[-118.08608,34.23544],[-118.08582,34.23561],[-118.0863,34.23602],[-118.08577,34.23611],[-118.08526,34.23651],[-118.08423,34.23646],[-118.08398,34.2361],[-118.08326,34.23618],[-118.08298,34.23656],[-118.08227,34.23663],[-118.08153,34.23647],[-118.08083,34.23602],[-118.07943,34.23597],[-118.07814,34.2351],[-118.07737,34.23487],[-118.07663,34.23496],[-118.07624,34.23442],[-118.0755,34.2342],[-118.07536,34.23372],[-118.07488,34.23322],[-118.07503,34.23285],[-118.07447,34.23252],[-118.0743,34.23203],[-118.0738,34.23205],[-118.07319,34.23168],[-118.0723,34.23149],[-118.0717,34.2315],[-118.07067,34.23024],[-118.07036,34.23024],[-118.07011,34.22985],[-118.06937,34.22973],[-118.06945,34.22931],[-118.06852,34.22873],[-118.06783,34.2278],[-118.06832,34.22674],[-118.06776,34.22645],[-118.06637,34.22622],[-118.06565,34.22573],[-118.06567,34.22537],[-118.0645,34.22501],[-118.06442,34.22467],[-118.06283,34.22354],[-118.06293,34.22269],[-118.06245,34.22241],[-118.06166,34.2225],[-118.06089,34.22157],[-118.06027,34.21993],[-118.05952,34.21966],[-118.05927,34.21771],[-118.05971,34.21761],[-118.05987,34.21713],[-118.06199,34.21666],[-118.06325,34.21709],[-118.06354,34.21685],[-118.06369,34.21693],[-118.06281,34.21575],[-118.06279,34.21515],[-118.06235,34.21456],[-118.06205,34.21331],[-118.06154,34.21328],[-118.06134,34.21375],[-118.0608,34.21412],[-118.05992,34.21403],[-118.05945,34.21364],[-118.05857,34.214],[-118.05837,34.21423],[-118.05889,34.21498],[-118.05835,34.21515],[-118.05818,34.21491],[-118.05801,34.21497],[-118.05693,34.21581],[-118.05648,34.21585],[-118.05538,34.21518],[-118.05459,34.21499],[-118.05527,34.21418],[-118.05631,34.21374],[-118.05654,34.21331],[-118.05803,34.21312],[-118.05841,34.2129],[-118.05865,34.213],[-118.05902,34.21264],[-118.05827,34.21174],[-118.05533,34.21057],[-118.05365,34.20908],[-118.05263,34.20853],[-118.05192,34.20844],[-118.05194,34.20806],[-118.05078,34.20689],[-118.05037,34.2062],[-118.05006,34.20633],[-118.04981,34.20607],[-118.04981,34.20571],[-118.04912,34.20515],[-118.04883,34.20527],[-118.04861,34.20504],[-118.04835,34.20511],[-118.04816,34.2047],[-118.04742,34.20417],[-118.04611,34.20379],[-118.04604,34.20413],[-118.0457,34.20417],[-118.04546,34.20358],[-118.04366,34.20326],[-118.04349,34.20283],[-118.04287,34.20282],[-118.04272,34.20242],[-118.04221,34.2024],[-118.03942,34.20139],[-118.03737,34.20088],[-118.03775,34.20074],[-118.0386,34.20102],[-118.03881,34.20013],[-118.03921,34.20002],[-118.03951,34.19922],[-118.03977,34.19916],[-118.03995,34.19839],[-118.03979,34.19816],[-118.03988,34.19763],[-118.0396,34.19656],[-118.03917,34.19602],[-118.03762,34.19542],[-118.03737,34.19475],[-118.03585,34.19357],[-118.03569,34.19313],[-118.03401,34.19127],[-118.03266,34.19048],[-118.0327,34.1896],[-118.03232,34.18924],[-118.03176,34.18882],[-118.031,34.18869],[-118.02951,34.18911],[-118.02917,34.18884],[-118.02914,34.18843],[-118.02882,34.18817],[-118.02404,34.18808],[-118.02394,34.18775],[-118.02448,34.18699],[-118.02424,34.18658],[-118.0236,34.18615],[-118.02361,34.18521],[-118.02095,34.18463],[-118.01925,34.1837],[-118.01834,34.1841],[-118.01636,34.18298],[-118.01518,34.18318],[-118.01414,34.18363],[-118.01312,34.18344],[-118.0138,34.18294],[-118.01533,34.18241],[-118.01576,34.18118],[-118.01781,34.17924],[-118.01766,34.17862],[-118.01872,34.17797],[-118.02003,34.17655],[-118.02012,34.17691],[-118.01987,34.17746],[-118.02023,34.17771],[-118.02061,34.1777],[-118.02196,34.17694],[-118.0222,34.17728],[-118.02262,34.17737],[-118.02249,34.17733],[-118.02271,34.17721],[-118.02465,34.17719],[-118.02636,34.17612],[-118.02676,34.17581],[-118.02707,34.17517],[-118.02752,34.17506],[-118.02817,34.17454],[-118.02846,34.17155],[-118.02947,34.17191],[-118.02987,34.17087],[-118.03027,34.17066],[-118.03106,34.17096],[-118.03186,34.17096],[-118.03225,34.17129],[-118.03276,34.17243],[-118.03296,34.17223],[-118.0338,34.17237],[-118.0338,34.1717],[-118.03413,34.17122],[-118.03609,34.17135],[-118.03621,34.17093],[-118.03654,34.17085],[-118.03688,34.17087],[-118.03696,34.17117],[-118.03633,34.17177],[-118.037,34.17198],[-118.03695,34.17226],[-118.03733,34.1724],[-118.03783,34.17229],[-118.03793,34.1717],[-118.03867,34.17095],[-118.03933,34.1715],[-118.04065,34.17163],[-118.04173,34.17273],[-118.04209,34.17368],[-118.04298,34.17428],[-118.04268,34.17617],[-118.04313,34.17624],[-118.04344,34.17603],[-118.04338,34.17546],[-118.04387,34.1745],[-118.04437,34.17423],[-118.04514,34.17471],[-118.0462,34.17393],[-118.04612,34.17349],[-118.04562,34.17291],[-118.04581,34.17253],[-118.0461,34.17227],[-118.04696,34.17225],[-118.0475,34.17182],[-118.04679,34.17184],[-118.04627,34.17211],[-118.04619,34.1702],[-118.04734,34.16979],[-118.05031,34.17054],[-118.05089,34.17102],[-118.05045,34.17201],[-118.05132,34.17233],[-118.05163,34.17211],[-118.05137,34.17187],[-118.05162,34.17134],[-118.05286,34.17113],[-118.05308,34.17138],[-118.05331,34.1712],[-118.05391,34.17151],[-118.05409,34.17187],[-118.05425,34.17283],[-118.05393,34.17371],[-118.05415,34.17407],[-118.05547,34.17466],[-118.05746,34.17499],[-118.05856,34.17461],[-118.05916,34.17301],[-118.05953,34.17315],[-118.05942,34.17389],[-118.06063,34.17392],[-118.06108,34.17197],[-118.06162,34.17119],[-118.06198,34.171],[-118.06307,34.17125],[-118.06364,34.17227],[-118.06464,34.17273],[-118.06509,34.17325],[-118.06585,34.17329],[-118.06586,34.17303],[-118.06562,34.17291],[-118.06591,34.17255],[-118.0678,34.17351],[-118.06824,34.1735],[-118.06807,34.17321],[-118.06848,34.17204],[-118.07038,34.17198],[-118.07053,34.1721],[-118.07063,34.17194],[-118.07036,34.17115],[-118.07048,34.17094],[-118.07005,34.17047],[-118.07005,34.16999],[-118.07088,34.16952],[-118.07141,34.17011],[-118.07163,34.17002],[-118.07193,34.17026],[-118.07127,34.17088],[-118.07107,34.17133],[-118.07107,34.17259],[-118.07047,34.17327],[-118.07003,34.17452],[-118.07083,34.17402],[-118.07155,34.17392],[-118.07106,34.17381],[-118.07118,34.17358],[-118.0718,34.17374],[-118.07168,34.17402],[-118.07261,34.17368],[-118.07329,34.17406],[-118.07351,34.17401],[-118.07358,34.17417],[-118.07339,34.17426],[-118.07405,34.17475],[-118.07484,34.1741],[-118.07486,34.17357],[-118.07552,34.17237],[-118.07529,34.17201],[-118.07502,34.17226],[-118.07481,34.17218],[-118.07516,34.17182],[-118.075,34.17129],[-118.07534,34.17129],[-118.07581,34.17188],[-118.07657,34.17051],[-118.07744,34.16963],[-118.07788,34.16881],[-118.07923,34.16801],[-118.08028,34.16659],[-118.08058,34.16664],[-118.08071,34.1669],[-118.08059,34.16753],[-118.08025,34.16794],[-118.08007,34.16955],[-118.07961,34.17044],[-118.07936,34.17075],[-118.07733,34.17135],[-118.07638,34.17195],[-118.07617,34.17248],[-118.07645,34.1729],[-118.07784,34.17375],[-118.07771,34.17466],[-118.07692,34.17585],[-118.07654,34.17699],[-118.07649,34.17791],[-118.0779,34.17982],[-118.07856,34.18032],[-118.0789,34.18105],[-118.07963,34.18175],[-118.07957,34.18265],[-118.07983,34.18307],[-118.08099,34.18337],[-118.08244,34.18295],[-118.08405,34.18346],[-118.084,34.18325],[-118.08464,34.18228],[-118.08508,34.18264],[-118.08595,34.18279],[-118.0873,34.18114],[-118.0873,34.18053],[-118.08791,34.18007],[-118.08863,34.18001],[-118.09245,34.17803],[-118.09215,34.17772],[-118.09265,34.17694],[-118.09349,34.17613],[-118.09331,34.17539],[-118.09268,34.17516],[-118.09255,34.17533],[-118.09236,34.17522],[-118.0926,34.17508],[-118.09251,34.17472],[-118.09319,34.17425],[-118.09213,34.1725],[-118.09117,34.17202],[-118.09053,34.17266],[-118.08904,34.17323],[-118.08822,34.17295],[-118.08712,34.17298],[-118.08641,34.17322],[-118.08562,34.17307],[-118.08633,34.17223],[-118.08629,34.17185],[-118.08679,34.1718],[-118.08736,34.17123],[-118.08611,34.16895],[-118.08406,34.16709],[-118.0829,34.16528],[-118.08247,34.16417],[-118.08187,34.16379],[-118.08154,34.16213],[-118.08172,34.16195],[-118.08535,34.16189],[-118.08556,34.16284],[-118.08531,34.16291],[-118.08252,34.16247],[-118.08207,34.1625],[-118.08217,34.16275],[-118.08293,34.1636],[-118.08314,34.16444],[-118.08409,34.16541],[-118.08786,34.16826],[-118.08825,34.16868],[-118.0886,34.16983],[-118.08919,34.16952],[-118.09007,34.16951],[-118.09117,34.16888],[-118.09228,34.16853],[-118.09367,34.1685],[-118.09435,34.16868],[-118.09499,34.16798],[-118.09575,34.16792],[-118.09585,34.1677],[-118.09599,34.16794],[-118.09683,34.16801],[-118.09714,34.16779],[-118.09713,34.16731],[-118.09581,34.16741],[-118.0955,34.16728],[-118.09559,34.16714],[-118.09538,34.16701],[-118.09552,34.16688],[-118.09571,34.16703],[-118.09632,34.16691],[-118.09647,34.16661],[-118.09623,34.16653],[-118.0962,34.16615],[-118.09663,34.16602],[-118.0967,34.16581],[-118.09757,34.16635],[-118.09795,34.16686],[-118.09806,34.16727],[-118.0978,34.16766],[-118.09631,34.16917],[-118.09647,34.16924],[-118.09628,34.16977],[-118.09691,34.1703],[-118.09697,34.16952],[-118.09722,34.16931],[-118.09829,34.16972],[-118.09796,34.17096],[-118.09823,34.17149],[-118.0982,34.17212],[-118.0975,34.17382],[-118.09843,34.17628],[-118.09797,34.17885],[-118.09805,34.17959],[-118.09708,34.18048],[-118.09679,34.18102],[-118.09739,34.1813],[-118.09928,34.18331],[-118.10055,34.18418],[-118.10128,34.18389],[-118.10122,34.18373],[-118.1014,34.18364],[-118.10215,34.18435],[-118.10218,34.18417],[-118.1026,34.18405],[-118.10249,34.1835],[-118.10276,34.18348],[-118.1029,34.18467],[-118.10329,34.18495],[-118.10359,34.18478],[-118.10376,34.18492],[-118.10338,34.18514],[-118.10302,34.18574],[-118.10304,34.18685],[-118.10286,34.18758],[-118.10353,34.18835],[-118.10391,34.1879],[-118.10473,34.18824],[-118.10497,34.18897],[-118.10528,34.18904],[-118.10512,34.18918],[-118.10495,34.18903],[-118.10483,34.18953],[-118.10549,34.18959],[-118.10547,34.19047],[-118.10704,34.18967],[-118.10686,34.18945],[-118.10737,34.18919],[-118.1082,34.19049],[-118.10952,34.19111],[-118.1101,34.1909],[-118.11051,34.19049],[-118.11027,34.18974],[-118.11093,34.18947],[-118.11208,34.19008],[-118.11293,34.19013],[-118.11235,34.18964],[-118.11219,34.18857],[-118.11232,34.18834],[-118.11208,34.18824],[-118.11192,34.18776],[-118.11241,34.18701],[-118.11372,34.18696],[-118.11336,34.18675],[-118.11307,34.18571],[-118.11376,34.18542],[-118.11381,34.18519],[-118.114,34.1854],[-118.11427,34.18538],[-118.11428,34.185],[-118.11398,34.18496],[-118.11382,34.18373],[-118.11431,34.1825],[-118.11431,34.18188],[-118.11472,34.1812],[-118.11613,34.18154],[-118.11626,34.18179],[-118.11685,34.1811],[-118.11747,34.18072],[-118.11772,34.18014],[-118.1176,34.17996],[-118.11787,34.17962],[-118.11855,34.18019],[-118.11799,34.18056],[-118.11761,34.18158],[-118.11774,34.18348],[-118.11759,34.18368],[-118.11742,34.18351],[-118.11716,34.18171],[-118.11653,34.18208],[-118.11638,34.18243],[-118.11663,34.18288],[-118.11695,34.1829],[-118.11667,34.18302],[-118.11663,34.18328],[-118.1172,34.184],[-118.11778,34.18427],[-118.11851,34.18525],[-118.11883,34.18544],[-118.11928,34.18523],[-118.12058,34.18533],[-118.12079,34.1855],[-118.12125,34.18537],[-118.12158,34.18468],[-118.1215,34.18386],[-118.12191,34.18291],[-118.1229,34.18263],[-118.12472,34.18291],[-118.12486,34.18327],[-118.12511,34.18296],[-118.12534,34.18297],[-118.12516,34.18378],[-118.1246,34.18457],[-118.12505,34.18503],[-118.1262,34.18544],[-118.12638,34.18517],[-118.12656,34.18537],[-118.12688,34.18531],[-118.12669,34.18509],[-118.12604,34.18496],[-118.12612,34.18421],[-118.12653,34.18359],[-118.12797,34.18324],[-118.1276,34.1828],[-118.12609,34.18268],[-118.12571,34.18247],[-118.1251,34.1826],[-118.12497,34.18227],[-118.12592,34.18213],[-118.12529,34.18168],[-118.12529,34.1814],[-118.12653,34.1812],[-118.12695,34.18229],[-118.12734,34.18239],[-118.12728,34.18168],[-118.12785,34.18038],[-118.1281,34.17997],[-118.12887,34.17996],[-118.12897,34.17961],[-118.12868,34.17942],[-118.12843,34.1786],[-118.12967,34.17854],[-118.13,34.17819],[-118.13041,34.17826],[-118.13058,34.17847],[-118.13037,34.17898],[-118.13132,34.17925],[-118.13156,34.17967],[-118.13123,34.17986],[-118.13042,34.17977],[-118.12989,34.18002],[-118.1305,34.18031],[-118.13132,34.18031],[-118.13289,34.17977],[-118.13322,34.18026],[-118.1333,34.1797],[-118.13363,34.17942],[-118.13339,34.17901],[-118.1338,34.17847],[-118.13429,34.1786],[-118.13454,34.17922],[-118.13487,34.17929],[-118.13461,34.1799],[-118.13484,34.18017],[-118.13505,34.18024],[-118.13537,34.17936],[-118.13578,34.17936],[-118.13603,34.18058],[-118.13636,34.18099],[-118.13702,34.18134],[-118.1371,34.18168],[-118.1368,34.18205],[-118.13693,34.18233],[-118.13609,34.18288],[-118.13567,34.18293],[-118.1355,34.18261],[-118.13565,34.18229],[-118.13513,34.18183],[-118.13411,34.18233],[-118.13284,34.18239],[-118.13267,34.18274],[-118.13284,34.18292],[-118.13255,34.183],[-118.13271,34.18313],[-118.13256,34.18362],[-118.13234,34.18381],[-118.13199,34.18373],[-118.13281,34.18414],[-118.13322,34.18414],[-118.13347,34.18373],[-118.13405,34.18373],[-118.1343,34.18537],[-118.13529,34.18626],[-118.13506,34.18682],[-118.13527,34.18747],[-118.1357,34.18735],[-118.13701,34.18908],[-118.13752,34.18899],[-118.13773,34.18926],[-118.13804,34.18904],[-118.13727,34.18865],[-118.13743,34.18831],[-118.13793,34.18817],[-118.13867,34.18872],[-118.13934,34.18858],[-118.13932,34.18836],[-118.13959,34.18834],[-118.13976,34.18807],[-118.13962,34.18786],[-118.13988,34.18784],[-118.14034,34.18718],[-118.14049,34.18619],[-118.14268,34.18672],[-118.14297,34.18659],[-118.14313,34.18571],[-118.14338,34.18591],[-118.14363,34.18557],[-118.14404,34.18578],[-118.14396,34.18673],[-118.14375,34.18709],[-118.1461,34.18783],[-118.14669,34.18793],[-118.14725,34.18757],[-118.14814,34.18752],[-118.14881,34.18705],[-118.14921,34.18744],[-118.14941,34.18714],[-118.14974,34.18708],[-118.1499,34.18721],[-118.14973,34.18775],[-118.15043,34.18764],[-118.1512,34.1867],[-118.15099,34.18546],[-118.15128,34.18525],[-118.15122,34.18468],[-118.15171,34.18481],[-118.15226,34.18447],[-118.15243,34.18379],[-118.15221,34.18359],[-118.15246,34.18284],[-118.15395,34.18298],[-118.15438,34.18244],[-118.15451,34.18186],[-118.15428,34.18154],[-118.15444,34.18072],[-118.15535,34.18052],[-118.15589,34.1814],[-118.15571,34.18217],[-118.15619,34.18292],[-118.15615,34.18332],[-118.15583,34.18344],[-118.15568,34.18284],[-118.15538,34.18259],[-118.15506,34.18282],[-118.15519,34.18523],[-118.15482,34.18534],[-118.15508,34.1856],[-118.1549,34.1858],[-118.15455,34.1858],[-118.15386,34.18531],[-118.15321,34.18534],[-118.15268,34.18558],[-118.15253,34.18605],[-118.15295,34.18645],[-118.1532,34.18591],[-118.15378,34.18598],[-118.15403,34.18701],[-118.15312,34.18778],[-118.15247,34.18734],[-118.15223,34.18761],[-118.15218,34.18836],[-118.15312,34.18858],[-118.15428,34.18837],[-118.15453,34.18728],[-118.15639,34.18742],[-118.15667,34.18653],[-118.15725,34.18687],[-118.15725,34.18728],[-118.15816,34.18735],[-118.15849,34.18755],[-118.15915,34.18673],[-118.1594,34.18673],[-118.15956,34.18742],[-118.15943,34.18781],[-118.15968,34.18804],[-118.15893,34.18918],[-118.15875,34.18999],[-118.15824,34.19032],[-118.15809,34.19088],[-118.15846,34.19112],[-118.15827,34.19125],[-118.15845,34.19142],[-118.158,34.1922],[-118.15809,34.1927],[-118.15877,34.19338],[-118.15871,34.19385],[-118.15817,34.19451],[-118.15826,34.19502],[-118.15882,34.19598],[-118.15873,34.19634],[-118.15799,34.19647],[-118.15811,34.19699],[-118.15866,34.19685],[-118.15882,34.19719],[-118.15908,34.19794],[-118.15875,34.19845],[-118.15953,34.19993],[-118.15965,34.20066],[-118.15925,34.20093],[-118.15885,34.20168],[-118.15802,34.2018],[-118.15795,34.20164],[-118.15815,34.20155],[-118.15764,34.20015],[-118.15698,34.19895],[-118.1565,34.19868],[-118.1561,34.1987],[-118.15641,34.20026],[-118.15641,34.20163],[-118.15702,34.20218],[-118.15698,34.2024],[-118.15619,34.20239],[-118.15577,34.2027],[-118.15758,34.20301],[-118.15791,34.20238],[-118.15841,34.20225],[-118.15874,34.20266],[-118.15886,34.20355],[-118.15932,34.20346],[-118.15948,34.20328],[-118.15923,34.20279],[-118.1594,34.20218],[-118.16022,34.20231],[-118.16064,34.20266],[-118.16059,34.20309],[-118.16114,34.2021],[-118.1608,34.20163],[-118.16088,34.20129],[-118.16138,34.20115],[-118.16177,34.20139],[-118.16197,34.2018],[-118.16207,34.20296],[-118.16098,34.20315],[-118.16111,34.20411],[-118.16088,34.20467],[-118.15867,34.20474],[-118.15814,34.20497],[-118.15854,34.20572],[-118.15882,34.20553],[-118.15923,34.2058],[-118.15927,34.2065],[-118.15922,34.20685],[-118.15887,34.20711],[-118.15839,34.20716],[-118.15753,34.20773],[-118.15677,34.20798],[-118.157,34.20826],[-118.157,34.20887],[-118.15746,34.20941],[-118.15735,34.20985],[-118.1575,34.21065],[-118.15671,34.21075],[-118.15749,34.2114]]]]}},{"type":"Feature","properties":{"name":"Hughes Fire","county":"Los Angeles","acres":10425,"area_km2":42.2,"cause":"Human-caused","start":"2025-01-22T18:37Z","contained":"2025-01-31","fill":"#dc2626","fill-opacity":0.4,"stroke":"#dc2626","stroke-width":1.5},"geometry":{"type":"MultiPolygon","coordinates":[[[[-118.58018,34.53925],[-118.5815,34.53943],[-118.58134,34.5395],[-118.58193,34.53992],[-118.58046,34.54034],[-118.58037,34.54123],[-118.57978,34.54189],[-118.58,34.54235],[-118.57886,34.54269],[-118.57866,34.54308],[-118.57807,34.54319],[-118.57761,34.54354],[-118.5781,34.54415],[-118.57733,34.54432],[-118.57818,34.545],[-118.57804,34.5453],[-118.57671,34.54594],[-118.57621,34.54545],[-118.57564,34.54528],[-118.57575,34.54592],[-118.57553,34.54653],[-118.57425,34.54688],[-118.57364,34.54735],[-118.57473,34.54751],[-118.57506,34.54788],[-118.57585,34.54757],[-118.57596,34.54784],[-118.57575,34.54851],[-118.57637,34.5488],[-118.57679,34.5493],[-118.57678,34.54981],[-118.57574,34.55015],[-118.57675,34.55033],[-118.57697,34.55057],[-118.57617,34.55144],[-118.57602,34.55233],[-118.5748,34.55246],[-118.57445,34.5528],[-118.57369,34.55308],[-118.57271,34.55317],[-118.57193,34.55274],[-118.57193,34.55291],[-118.57176,34.55245],[-118.5714,34.55223],[-118.56967,34.55167],[-118.56954,34.55123],[-118.56793,34.55116],[-118.56751,34.5514],[-118.567,34.55114],[-118.56663,34.55126],[-118.56748,34.55154],[-118.56844,34.55139],[-118.56928,34.55176],[-118.56965,34.55227],[-118.57024,34.55254],[-118.5704,34.55292],[-118.57102,34.55284],[-118.57125,34.55307],[-118.57124,34.55337],[-118.57165,34.55347],[-118.57173,34.55377],[-118.57148,34.55419],[-118.57672,34.55339],[-118.57693,34.55387],[-118.57637,34.55506],[-118.57523,34.55625],[-118.57419,34.55647],[-118.57337,34.55641],[-118.57289,34.55682],[-118.57266,34.55723],[-118.57272,34.55828],[-118.57244,34.55862],[-118.57284,34.55889],[-118.5731,34.55968],[-118.5725,34.56045],[-118.5718,34.56089],[-118.57082,34.56106],[-118.56983,34.56196],[-118.56734,34.56294],[-118.56667,34.56375],[-118.56617,34.56407],[-118.56522,34.56419],[-118.5644,34.56404],[-118.56367,34.56447],[-118.56425,34.5644],[-118.56489,34.56468],[-118.56668,34.56475],[-118.56699,34.56463],[-118.56801,34.56354],[-118.56882,34.56319],[-118.56926,34.5632],[-118.57083,34.56244],[-118.57339,34.56227],[-118.57362,34.56189],[-118.57445,34.5613],[-118.57448,34.56064],[-118.57474,34.56024],[-118.57468,34.55909],[-118.57482,34.55905],[-118.57428,34.55819],[-118.57431,34.55773],[-118.57597,34.55764],[-118.57746,34.55692],[-118.57896,34.55774],[-118.57863,34.55727],[-118.57839,34.55635],[-118.57897,34.55557],[-118.57893,34.55516],[-118.57922,34.55489],[-118.57928,34.55398],[-118.57964,34.55355],[-118.57947,34.55322],[-118.5798,34.55215],[-118.58045,34.55168],[-118.58116,34.55165],[-118.58296,34.55218],[-118.58396,34.55307],[-118.58491,34.55293],[-118.58419,34.55236],[-118.5837,34.55144],[-118.58269,34.55098],[-118.58267,34.55065],[-118.58178,34.55051],[-118.58122,34.55016],[-118.58055,34.54895],[-118.58071,34.54837],[-118.58134,34.54785],[-118.58253,34.54752],[-118.58354,34.54783],[-118.58389,34.54718],[-118.58483,34.54628],[-118.58502,34.5447],[-118.58454,34.54365],[-118.58502,34.54357],[-118.5854,34.54398],[-118.58549,34.54576],[-118.58571,34.54617],[-118.58635,34.54661],[-118.5864,34.54821],[-118.58689,34.54937],[-118.58683,34.54818],[-118.58724,34.54711],[-118.58679,34.54527],[-118.58699,34.5447],[-118.58687,34.54452],[-118.58719,34.54408],[-118.58683,34.54267],[-118.5871,34.54231],[-118.58748,34.5423],[-118.58771,34.54252],[-118.58796,34.54401],[-118.58908,34.54489],[-118.58924,34.54409],[-118.58885,34.54354],[-118.58933,34.54222],[-118.5893,34.54123],[-118.59025,34.54128],[-118.59091,34.54161],[-118.59157,34.54154],[-118.59217,34.54232],[-118.59286,34.54242],[-118.59391,34.54358],[-118.59432,34.54448],[-118.59389,34.54517],[-118.59392,34.54546],[-118.59429,34.54508],[-118.59471,34.54504],[-118.59476,34.54457],[-118.59501,34.54435],[-118.59462,34.54372],[-118.59461,34.54258],[-118.59409,34.54139],[-118.59404,34.54114],[-118.59419,34.54116],[-118.59342,34.53954],[-118.59277,34.53873],[-118.59328,34.53878],[-118.59429,34.53938],[-118.59461,34.53983],[-118.59593,34.54013],[-118.59684,34.54012],[-118.59502,34.53855],[-118.5945,34.5376],[-118.59383,34.53745],[-118.59321,34.53648],[-118.5926,34.53605],[-118.59231,34.53534],[-118.59292,34.53521],[-118.59461,34.53599],[-118.59526,34.53554],[-118.59547,34.53492],[-118.59705,34.533],[-118.59791,34.5324],[-118.59896,34.53213],[-118.59958,34.53217],[-118.5994,34.53299],[-118.59954,34.53346],[-118.6,34.53382],[-118.60013,34.53475],[-118.60001,34.53531],[-118.6008,34.53466],[-118.60091,34.53484],[-118.60103,34.53454],[-118.6009,34.53334],[-118.6012,34.533],[-118.60133,34.53157],[-118.60198,34.53138],[-118.60195,34.53086],[-118.6022,34.53029],[-118.60266,34.53016],[-118.60296,34.52958],[-118.6035,34.52937],[-118.60553,34.53117],[-118.60602,34.53247],[-118.60717,34.5336],[-118.60702,34.53394],[-118.60753,34.53414],[-118.60693,34.53442],[-118.60716,34.53492],[-118.60781,34.535],[-118.60741,34.53597],[-118.60789,34.53609],[-118.60821,34.53556],[-118.6086,34.53563],[-118.61028,34.53616],[-118.61026,34.53639],[-118.61055,34.53665],[-118.6103,34.53703],[-118.61028,34.53767],[-118.61047,34.53806],[-118.60972,34.53853],[-118.60979,34.53938],[-118.60932,34.53977],[-118.60851,34.54002],[-118.6085,34.54041],[-118.60871,34.54054],[-118.6096,34.54031],[-118.61066,34.53958],[-118.61169,34.53846],[-118.61214,34.53822],[-118.6123,34.53772],[-118.61361,34.53871],[-118.61352,34.53907],[-118.61385,34.54009],[-118.61345,34.5408],[-118.61364,34.54097],[-118.61357,34.54123],[-118.61317,34.54133],[-118.61387,34.54195],[-118.61453,34.54195],[-118.61451,34.54209],[-118.61482,34.54216],[-118.61454,34.54259],[-118.61468,34.54267],[-118.61455,34.54326],[-118.61416,34.54374],[-118.6129,34.54395],[-118.61267,34.54436],[-118.61178,34.5448],[-118.61071,34.5458],[-118.61136,34.54586],[-118.61139,34.54554],[-118.6122,34.54508],[-118.61351,34.54465],[-118.61384,34.54478],[-118.61415,34.54455],[-118.61518,34.54492],[-118.61553,34.54407],[-118.61638,34.54351],[-118.61611,34.54405],[-118.6163,34.54417],[-118.61643,34.54561],[-118.61617,34.54695],[-118.61644,34.54743],[-118.61662,34.54636],[-118.6172,34.5459],[-118.61752,34.54465],[-118.61796,34.54429],[-118.61874,34.54405],[-118.62056,34.54548],[-118.62104,34.54649],[-118.62058,34.54691],[-118.62077,34.54705],[-118.62077,34.54769],[-118.6203,34.54769],[-118.62025,34.54836],[-118.61973,34.54898],[-118.61991,34.54974],[-118.61945,34.55135],[-118.61945,34.55237],[-118.61852,34.55393],[-118.61753,34.55503],[-118.61722,34.55606],[-118.61645,34.55668],[-118.61638,34.55694],[-118.61655,34.5569],[-118.61667,34.55743],[-118.61697,34.55752],[-118.6182,34.55648],[-118.6192,34.55496],[-118.62043,34.55404],[-118.6201,34.55355],[-118.6202,34.55327],[-118.62093,34.5527],[-118.621,34.55236],[-118.62147,34.55209],[-118.6222,34.55108],[-118.62311,34.5497],[-118.62325,34.54875],[-118.62359,34.54822],[-118.62417,34.54835],[-118.62435,34.54867],[-118.62504,34.54897],[-118.625,34.54945],[-118.62346,34.55098],[-118.62374,34.55129],[-118.62356,34.55252],[-118.62433,34.55338],[-118.62432,34.55365],[-118.62494,34.55383],[-118.6257,34.55449],[-118.62577,34.5548],[-118.62544,34.55539],[-118.62618,34.55569],[-118.62671,34.55689],[-118.6263,34.55811],[-118.6256,34.55916],[-118.62585,34.55956],[-118.62693,34.55964],[-118.62673,34.56014],[-118.6256,34.56113],[-118.62498,34.56205],[-118.62407,34.56248],[-118.62342,34.56304],[-118.62502,34.56245],[-118.62577,34.56249],[-118.62616,34.56278],[-118.62602,34.56309],[-118.62627,34.56337],[-118.62575,34.5636],[-118.6255,34.56328],[-118.62441,34.56324],[-118.62436,34.5637],[-118.62398,34.5636],[-118.62372,34.56388],[-118.6236,34.56467],[-118.62233,34.56539],[-118.62176,34.56639],[-118.62192,34.56655],[-118.62185,34.56726],[-118.62249,34.5674],[-118.62196,34.56787],[-118.62151,34.5687],[-118.62074,34.56907],[-118.6206,34.56891],[-118.62031,34.56936],[-118.61971,34.56953],[-118.6187,34.5704],[-118.61858,34.57023],[-118.61815,34.57086],[-118.61693,34.57179],[-118.61679,34.57158],[-118.61685,34.57099],[-118.61611,34.57117],[-118.61599,34.57097],[-118.61551,34.57113],[-118.61548,34.57139],[-118.61502,34.57149],[-118.61497,34.57183],[-118.61468,34.57163],[-118.61426,34.57176],[-118.61408,34.57192],[-118.6142,34.57223],[-118.6151,34.57209],[-118.61497,34.57255],[-118.61474,34.5727],[-118.61422,34.57265],[-118.6138,34.57225],[-118.61317,34.57266],[-118.61239,34.57252],[-118.61184,34.57195],[-118.61056,34.5712],[-118.61036,34.57064],[-118.60992,34.57126],[-118.60841,34.5722],[-118.60691,34.57255],[-118.60623,34.57237],[-118.6059,34.57207],[-118.60306,34.57247],[-118.60269,34.57212],[-118.60201,34.572],[-118.60103,34.57236],[-118.60108,34.5725],[-118.60055,34.573],[-118.59957,34.57318],[-118.59926,34.57369],[-118.59872,34.57392],[-118.59845,34.57396],[-118.59809,34.5737],[-118.59825,34.57328],[-118.59782,34.57303],[-118.59584,34.5735],[-118.59333,34.5735],[-118.59321,34.57364],[-118.59347,34.57422],[-118.59244,34.57483],[-118.59181,34.57569],[-118.58894,34.57562],[-118.58774,34.57608],[-118.58631,34.57627],[-118.58577,34.57643],[-118.58389,34.57787],[-118.5821,34.57844],[-118.58038,34.57871],[-118.5788,34.57941],[-118.5766,34.57939],[-118.5746,34.57896],[-118.57305,34.5792],[-118.5719,34.57907],[-118.57084,34.57862],[-118.56973,34.57947],[-118.56896,34.57928],[-118.56836,34.57952],[-118.56736,34.57924],[-118.56593,34.57947],[-118.56331,34.57931],[-118.56265,34.57961],[-118.56193,34.57964],[-118.56077,34.58028],[-118.56082,34.5808],[-118.56006,34.58108],[-118.55973,34.58141],[-118.55934,34.5814],[-118.55706,34.58043],[-118.55662,34.58008],[-118.55546,34.57974],[-118.55533,34.57945],[-118.5556,34.57885],[-118.55498,34.57801],[-118.55399,34.5778],[-118.55216,34.57814],[-118.55093,34.57812],[-118.55091,34.5786],[-118.55123,34.57888],[-118.55111,34.57899],[-118.5496,34.57907],[-118.549,34.57824],[-118.54827,34.578],[-118.54717,34.57838],[-118.54598,34.57848],[-118.54515,34.57826],[-118.54428,34.57781],[-118.54375,34.5772],[-118.54295,34.57699],[-118.54222,34.57645],[-118.54258,34.57608],[-118.54339,34.57574],[-118.54313,34.57486],[-118.54371,34.57452],[-118.54547,34.57404],[-118.54664,34.57452],[-118.54726,34.5745],[-118.54747,34.57396],[-118.54745,34.57183],[-118.54721,34.57091],[-118.54734,34.57057],[-118.54643,34.57017],[-118.54605,34.56977],[-118.54579,34.56979],[-118.54522,34.57037],[-118.5449,34.57042],[-118.54476,34.57068],[-118.54486,34.57142],[-118.54455,34.57158],[-118.54388,34.57117],[-118.54367,34.57075],[-118.5437,34.56987],[-118.54412,34.56878],[-118.54475,34.56786],[-118.54493,34.56697],[-118.54484,34.56626],[-118.54506,34.56597],[-118.5459,34.5656],[-118.54573,34.56536],[-118.54605,34.56519],[-118.54602,34.5648],[-118.54532,34.5646],[-118.5457,34.56417],[-118.5452,34.56404],[-118.54493,34.56374],[-118.54693,34.56262],[-118.54779,34.56252],[-118.54851,34.56189],[-118.54863,34.5615],[-118.54793,34.56106],[-118.54766,34.56053],[-118.54676,34.56111],[-118.54533,34.5615],[-118.54434,34.56137],[-118.54317,34.56044],[-118.54161,34.55672],[-118.54035,34.55485],[-118.54021,34.55412],[-118.54036,34.5536],[-118.54182,34.55216],[-118.547,34.54828],[-118.54977,34.54721],[-118.55456,34.54442],[-118.55516,34.54426],[-118.55537,34.54377],[-118.55514,34.54337],[-118.55431,34.54323],[-118.55398,34.54268],[-118.55404,34.54245],[-118.55455,34.54231],[-118.55468,34.54149],[-118.55445,34.54134],[-118.55517,34.54079],[-118.55574,34.54092],[-118.55606,34.54073],[-118.55723,34.5395],[-118.55841,34.53874],[-118.55894,34.5372],[-118.55882,34.53606],[-118.55948,34.53489],[-118.55953,34.53425],[-118.55906,34.53317],[-118.55965,34.5326],[-118.56068,34.53014],[-118.56033,34.5297],[-118.56196,34.52893],[-118.56286,34.52736],[-118.56302,34.52669],[-118.56284,34.52603],[-118.56321,34.52561],[-118.56322,34.52504],[-118.56377,34.52452],[-118.56495,34.52392],[-118.56616,34.5222],[-118.56692,34.52186],[-118.56717,34.52125],[-118.56779,34.52064],[-118.56784,34.52027],[-118.56857,34.51974],[-118.56945,34.51941],[-118.57133,34.51609],[-118.5722,34.51604],[-118.57264,34.51662],[-118.57314,34.51656],[-118.57344,34.51573],[-118.57319,34.51536],[-118.57334,34.5146],[-118.57442,34.51326],[-118.57462,34.51206],[-118.57592,34.51058],[-118.57694,34.51034],[-118.57754,34.50974],[-118.57783,34.50771],[-118.57842,34.50584],[-118.57887,34.50508],[-118.57886,34.50344],[-118.57918,34.50293],[-118.58255,34.50098],[-118.58271,34.50073],[-118.58321,34.50075],[-118.58378,34.50047],[-118.58368,34.50005],[-118.58414,34.49932],[-118.58531,34.49869],[-118.58545,34.49839],[-118.58611,34.49838],[-118.58673,34.49799],[-118.58703,34.49766],[-118.58694,34.49725],[-118.58711,34.49694],[-118.58901,34.49524],[-118.58752,34.49334],[-118.58694,34.49297],[-118.58698,34.49256],[-118.58861,34.49122],[-118.58942,34.48988],[-118.59086,34.48933],[-118.59316,34.48721],[-118.59266,34.48531],[-118.59301,34.48437],[-118.59371,34.48381],[-118.59257,34.48189],[-118.59279,34.48174],[-118.59288,34.48102],[-118.59476,34.48017],[-118.59752,34.48018],[-118.59891,34.47982],[-118.59974,34.47981],[-118.60111,34.47921],[-118.60296,34.47946],[-118.60389,34.47925],[-118.60521,34.4794],[-118.60621,34.48029],[-118.60539,34.48263],[-118.60479,34.48316],[-118.60335,34.48282],[-118.60195,34.48334],[-118.60209,34.48453],[-118.60087,34.48542],[-118.6006,34.48624],[-118.60033,34.48639],[-118.59961,34.4862],[-118.5992,34.48639],[-118.59857,34.48702],[-118.59806,34.48791],[-118.5985,34.48816],[-118.59956,34.4882],[-118.59954,34.48869],[-118.60004,34.48975],[-118.60091,34.48959],[-118.6014,34.48974],[-118.60256,34.48928],[-118.60387,34.48836],[-118.60403,34.48716],[-118.60439,34.48675],[-118.60489,34.48725],[-118.60547,34.48676],[-118.60687,34.48658],[-118.60741,34.48765],[-118.60679,34.48815],[-118.60631,34.48821],[-118.6064,34.48891],[-118.60569,34.48882],[-118.60571,34.4917],[-118.60947,34.48997],[-118.60968,34.48963],[-118.60997,34.48819],[-118.60937,34.48709],[-118.60894,34.48668],[-118.60896,34.48566],[-118.60975,34.48557],[-118.6099,34.48611],[-118.61195,34.48596],[-118.61252,34.48912],[-118.6131,34.48922],[-118.61252,34.48957],[-118.61268,34.49015],[-118.6125,34.49032],[-118.61243,34.49107],[-118.61278,34.49292],[-118.61399,34.49285],[-118.61326,34.49305],[-118.61337,34.49331],[-118.6132,34.49377],[-118.61389,34.49392],[-118.61392,34.4944],[-118.61423,34.49447],[-118.61421,34.49387],[-118.61453,34.49316],[-118.61481,34.49333],[-118.61503,34.49314],[-118.61524,34.4934],[-118.61563,34.49302],[-118.61659,34.49305],[-118.61683,34.49336],[-118.61678,34.49425],[-118.61475,34.49553],[-118.61339,34.49593],[-118.61228,34.49654],[-118.61174,34.49657],[-118.61115,34.49709],[-118.61107,34.49741],[-118.6106,34.49747],[-118.6092,34.49831],[-118.60817,34.49985],[-118.60731,34.50054],[-118.60655,34.50156],[-118.60639,34.50304],[-118.60681,34.50414],[-118.60685,34.50499],[-118.60661,34.50574],[-118.60712,34.50713],[-118.60716,34.50917],[-118.60786,34.51092],[-118.60743,34.51083],[-118.60682,34.50997],[-118.60624,34.51015],[-118.60618,34.51075],[-118.6053,34.51121],[-118.60621,34.51285],[-118.60573,34.51344],[-118.60515,34.51356],[-118.60521,34.51385],[-118.60567,34.51446],[-118.60648,34.51487],[-118.60587,34.51597],[-118.60603,34.51521],[-118.60535,34.51488],[-118.60404,34.51704],[-118.6027,34.51697],[-118.60208,34.51718],[-118.59971,34.51608],[-118.59971,34.51625],[-118.59932,34.51647],[-118.59896,34.51638],[-118.59874,34.51755],[-118.59948,34.51893],[-118.59935,34.51984],[-118.59962,34.52065],[-118.59923,34.52109],[-118.59932,34.52132],[-118.59899,34.52175],[-118.59673,34.52212],[-118.59627,34.52196],[-118.596,34.52161],[-118.5944,34.52147],[-118.594,34.52234],[-118.59174,34.52282],[-118.5915,34.52304],[-118.59184,34.52356],[-118.5918,34.52511],[-118.59128,34.52543],[-118.59006,34.52552],[-118.58985,34.52612],[-118.58876,34.52601],[-118.58768,34.52484],[-118.58681,34.5246],[-118.58544,34.52365],[-118.58472,34.52428],[-118.58506,34.5249],[-118.58454,34.52543],[-118.58312,34.52503],[-118.58301,34.5252],[-118.58361,34.5257],[-118.58514,34.52643],[-118.58514,34.52718],[-118.58548,34.52753],[-118.58655,34.52714],[-118.58736,34.52745],[-118.58792,34.52811],[-118.58771,34.52939],[-118.58724,34.5297],[-118.58726,34.53056],[-118.58618,34.53031],[-118.5864,34.53118],[-118.58708,34.5319],[-118.58684,34.53218],[-118.58681,34.53264],[-118.58642,34.53264],[-118.58614,34.53214],[-118.58475,34.53198],[-118.58501,34.53339],[-118.58526,34.53376],[-118.58513,34.53413],[-118.58474,34.53435],[-118.58331,34.53413],[-118.58273,34.53509],[-118.58195,34.53547],[-118.58085,34.53563],[-118.58053,34.53595],[-118.57968,34.53627],[-118.57916,34.53616],[-118.57735,34.53734],[-118.57586,34.53766],[-118.57528,34.53755],[-118.57502,34.53686],[-118.57312,34.53709],[-118.57421,34.53743],[-118.5745,34.53827],[-118.57485,34.53832],[-118.57447,34.53927],[-118.57493,34.53941],[-118.57525,34.53908],[-118.57567,34.53902],[-118.5759,34.53865],[-118.5764,34.53896],[-118.57704,34.5382],[-118.57781,34.53835],[-118.57986,34.5381],[-118.5801,34.53837],[-118.58018,34.53925]]],[[[-118.5951,34.47948],[-118.59501,34.47922],[-118.59402,34.47929],[-118.59375,34.47866],[-118.59393,34.47807],[-118.59366,34.47673],[-118.59496,34.47539],[-118.59559,34.47603],[-118.59645,34.47583],[-118.59674,34.47607],[-118.59672,34.47662],[-118.59708,34.47665],[-118.59713,34.47695],[-118.5969,34.47702],[-118.5969,34.47725],[-118.59757,34.47753],[-118.59704,34.47818],[-118.59731,34.47844],[-118.59695,34.47907],[-118.59645,34.47922],[-118.59641,34.47948],[-118.59559,34.47974],[-118.59541,34.48004],[-118.59496,34.47981],[-118.5951,34.47948]]],[[[-118.61536,34.57147],[-118.6154,34.57145],[-118.61545,34.57146],[-118.61547,34.57158],[-118.61536,34.57147]]]]}},{"type":"Feature","properties":{"name":"Kenneth Fire","county":"Ventura","acres":999,"area_km2":4,"cause":"Undetermined","start":"2025-01-09T22:52Z","fill":"#f97316","fill-opacity":0.4,"stroke":"#f97316","stroke-width":1.5},"geometry":{"type":"Polygon","coordinates":[[[-118.67692,34.16894],[-118.67657,34.16876],[-118.67659,34.16849],[-118.67811,34.16718],[-118.67921,34.16705],[-118.6796,34.16734],[-118.68281,34.16777],[-118.68401,34.16661],[-118.68406,34.1661],[-118.68499,34.16582],[-118.68535,34.16597],[-118.68549,34.16637],[-118.68479,34.16744],[-118.68488,34.16783],[-118.68589,34.16762],[-118.68816,34.16805],[-118.68845,34.16797],[-118.68871,34.16772],[-118.68863,34.16692],[-118.69029,34.16515],[-118.69103,34.16471],[-118.69157,34.16376],[-118.69146,34.16313],[-118.69169,34.16279],[-118.69239,34.16278],[-118.69271,34.16254],[-118.69269,34.16202],[-118.69346,34.16158],[-118.69361,34.16101],[-118.69387,34.16126],[-118.69385,34.1625],[-118.69338,34.16326],[-118.69351,34.16384],[-118.69327,34.16438],[-118.69339,34.16489],[-118.69403,34.16533],[-118.69358,34.1656],[-118.69387,34.16671],[-118.6955,34.16582],[-118.69568,34.16612],[-118.69487,34.16705],[-118.69427,34.1674],[-118.69383,34.16855],[-118.69411,34.16888],[-118.69448,34.16906],[-118.69479,34.16846],[-118.69537,34.16887],[-118.69544,34.16852],[-118.69607,34.16848],[-118.6959,34.16803],[-118.6963,34.16782],[-118.69686,34.16801],[-118.6967,34.16743],[-118.69685,34.16661],[-118.69753,34.16597],[-118.69803,34.16576],[-118.69909,34.166],[-118.69937,34.1664],[-118.69991,34.1657],[-118.70082,34.16559],[-118.70068,34.16629],[-118.70091,34.16749],[-118.70215,34.16797],[-118.70228,34.16837],[-118.70134,34.16855],[-118.70137,34.16901],[-118.70093,34.16948],[-118.70088,34.16985],[-118.69996,34.17045],[-118.69954,34.17094],[-118.69936,34.17152],[-118.69797,34.17163],[-118.69802,34.17312],[-118.69878,34.17383],[-118.69711,34.17469],[-118.69686,34.17518],[-118.69565,34.17588],[-118.69359,34.17615],[-118.69256,34.17688],[-118.69216,34.17722],[-118.6917,34.17827],[-118.69157,34.17918],[-118.69088,34.17921],[-118.69145,34.18021],[-118.69102,34.18051],[-118.6902,34.18048],[-118.68954,34.18076],[-118.68885,34.1814],[-118.68879,34.18202],[-118.68751,34.18205],[-118.68668,34.18254],[-118.68517,34.18274],[-118.68495,34.18345],[-118.68326,34.18363],[-118.68281,34.18408],[-118.68209,34.18403],[-118.68138,34.18435],[-118.68079,34.18412],[-118.68015,34.18428],[-118.67937,34.18415],[-118.67776,34.18527],[-118.6762,34.18514],[-118.67601,34.18558],[-118.67534,34.18522],[-118.6748,34.1853],[-118.67445,34.18504],[-118.67374,34.18579],[-118.67313,34.18776],[-118.67274,34.18733],[-118.67219,34.18717],[-118.67212,34.18696],[-118.6713,34.18723],[-118.67103,34.18697],[-118.67011,34.1867],[-118.66955,34.18599],[-118.66989,34.18506],[-118.67066,34.18477],[-118.6706,34.18411],[-118.67012,34.18416],[-118.66948,34.18319],[-118.66982,34.18296],[-118.66974,34.18218],[-118.67065,34.18031],[-118.67052,34.17985],[-118.67082,34.1792],[-118.67044,34.17894],[-118.67029,34.17852],[-118.67082,34.17777],[-118.67068,34.17677],[-118.67126,34.17658],[-118.67296,34.17485],[-118.67393,34.17366],[-118.67374,34.17335],[-118.67397,34.17295],[-118.6745,34.17307],[-118.67671,34.17153],[-118.67775,34.17164],[-118.67802,34.17195],[-118.67883,34.17069],[-118.67844,34.17034],[-118.6778,34.17026],[-118.67735,34.16924],[-118.67692,34.16894]]]}},{"type":"Feature","properties":{"name":"Hurst Fire","county":"Los Angeles","acres":800,"area_km2":3.2,"cause":"Undetermined","start":"2025-01-08T06:30Z","fill":"#f97316","fill-opacity":0.4,"stroke":"#f97316","stroke-width":1.5},"geometry":{"type":"Polygon","coordinates":[[[-118.47458,34.34255],[-118.47368,34.34256],[-118.47156,34.34127],[-118.47063,34.34134],[-118.47052,34.34097],[-118.47132,34.33942],[-118.47126,34.33905],[-118.47058,34.33824],[-118.46955,34.3382],[-118.46927,34.33802],[-118.46816,34.33611],[-118.46804,34.33316],[-118.46843,34.33213],[-118.46876,34.33184],[-118.4696,34.33167],[-118.46974,34.33141],[-118.4698,34.33075],[-118.46936,34.32948],[-118.46954,34.32919],[-118.46951,34.32841],[-118.46982,34.32813],[-118.46964,34.32741],[-118.47026,34.32707],[-118.47046,34.32621],[-118.47163,34.32596],[-118.47208,34.3256],[-118.47418,34.32488],[-118.47455,34.3247],[-118.47501,34.32408],[-118.47594,34.32398],[-118.47596,34.32448],[-118.47611,34.32457],[-118.4773,34.32443],[-118.47751,34.32428],[-118.47764,34.32356],[-118.47782,34.32359],[-118.47782,34.32406],[-118.47874,34.32419],[-118.47875,34.32498],[-118.47907,34.32572],[-118.47952,34.32618],[-118.48228,34.32622],[-118.4831,34.32596],[-118.48355,34.32544],[-118.48415,34.32413],[-118.4845,34.32378],[-118.48491,34.32366],[-118.48524,34.32381],[-118.48534,34.32511],[-118.48583,34.32601],[-118.48532,34.32622],[-118.48543,34.32647],[-118.48605,34.32679],[-118.48626,34.32728],[-118.48703,34.32719],[-118.48804,34.32742],[-118.48836,34.32798],[-118.48918,34.32835],[-118.49004,34.3276],[-118.48987,34.32705],[-118.48946,34.3267],[-118.48958,34.32622],[-118.48947,34.32582],[-118.49009,34.3261],[-118.49066,34.32586],[-118.4917,34.32594],[-118.49194,34.32583],[-118.49196,34.32558],[-118.49231,34.32607],[-118.49269,34.32619],[-118.49262,34.32589],[-118.49313,34.32562],[-118.49409,34.32572],[-118.49464,34.32544],[-118.49475,34.32559],[-118.49528,34.32471],[-118.49572,34.32447],[-118.49558,34.32411],[-118.4957,34.32396],[-118.49658,34.3251],[-118.49647,34.3254],[-118.49606,34.3251],[-118.4954,34.32568],[-118.49521,34.32698],[-118.495,34.32697],[-118.49493,34.32662],[-118.49402,34.32673],[-118.49465,34.32767],[-118.49302,34.32816],[-118.49284,34.32866],[-118.4924,34.32891],[-118.49265,34.32937],[-118.49255,34.33026],[-118.49094,34.33113],[-118.49066,34.33181],[-118.49071,34.33304],[-118.49006,34.33352],[-118.49033,34.33454],[-118.48969,34.33499],[-118.48822,34.33476],[-118.48767,34.33522],[-118.48717,34.33623],[-118.4876,34.33707],[-118.48754,34.33738],[-118.48608,34.33917],[-118.48482,34.33953],[-118.48293,34.33873],[-118.48235,34.33876],[-118.48137,34.33929],[-118.48101,34.33987],[-118.48007,34.34015],[-118.47901,34.34076],[-118.47854,34.34174],[-118.47812,34.34178],[-118.47633,34.34272],[-118.47603,34.34311],[-118.47515,34.34309],[-118.47458,34.34255]]]}},{"type":"Feature","properties":{"name":"Laguna Fire","county":"Ventura","acres":67,"area_km2":0.3,"cause":"Undetermined","start":"2025-01-23T14:34Z","fill":"#f59e0b","fill-opacity":0.4,"stroke":"#f59e0b","stroke-width":1.5},"geometry":{"type":"Polygon","coordinates":[[[-119.05553,34.16243],[-119.05322,34.16239],[-119.05319,34.16211],[-119.0544,34.16069],[-119.05465,34.15995],[-119.05854,34.15942],[-119.05936,34.15967],[-119.05994,34.1606],[-119.06002,34.16308],[-119.06055,34.1642],[-119.06013,34.16545],[-119.05857,34.16671],[-119.05794,34.16663],[-119.05784,34.16638],[-119.05802,34.16597],[-119.05785,34.16557],[-119.05822,34.16459],[-119.05782,34.16383],[-119.05621,34.16266],[-119.05553,34.16243]]]}},{"type":"Feature","properties":{"name":"Auto Fire","county":"Ventura","acres":61,"area_km2":0.2,"cause":"Undetermined","start":"2025-01-14T02:50Z","fill":"#f59e0b","fill-opacity":0.4,"stroke":"#f59e0b","stroke-width":1.5},"geometry":{"type":"Polygon","coordinates":[[[-119.21225,34.23681],[-119.21158,34.23697],[-119.21028,34.23689],[-119.20972,34.23718],[-119.20798,34.23723],[-119.20703,34.23754],[-119.20492,34.2376],[-119.20399,34.23783],[-119.20335,34.23781],[-119.20325,34.23765],[-119.20373,34.23695],[-119.20273,34.23743],[-119.2019,34.23756],[-119.20157,34.23736],[-119.20063,34.2375],[-119.20013,34.23695],[-119.19936,34.23726],[-119.19872,34.23722],[-119.19874,34.23687],[-119.19938,34.23675],[-119.19946,34.23655],[-119.19983,34.23651],[-119.20145,34.2355],[-119.20421,34.23533],[-119.2081,34.23526],[-119.21032,34.23537],[-119.21106,34.23559],[-119.21246,34.23556],[-119.21229,34.23601],[-119.21198,34.23598],[-119.21197,34.23615],[-119.21238,34.23638],[-119.21225,34.23681]]]}}],"source":"NIFC WFIGS Interagency Fire Perimeters, Los Angeles-area wildfires of January 2025 (public domain)"}
