{"type":"FeatureCollection","features":[{"type":"Feature","properties":{"name":"Yellowstone National Park","country":"USA","established":1872,"area_km2":8983,"biome":"Temperate forest & geothermal","unesco":true,"description":"The world's first national park. Home to Old Faithful geyser and half of the planet's active geysers. Sits atop a supervolcano.","fill":"#22c55e","fill-opacity":0.35,"stroke":"#15803d","stroke-width":2},"geometry":{"type":"Polygon","coordinates":[[[-111.056,44.996],[-110.697,44.996],[-110.4,44.992],[-109.996,44.992],[-109.996,44.7],[-110.05,44.4],[-110.05,44.137],[-110.3,44.137],[-110.7,44.137],[-111.056,44.137],[-111.056,44.5],[-111.056,44.996]]]}},{"type":"Feature","properties":{"name":"Serengeti National Park","country":"Tanzania","established":1951,"area_km2":14750,"biome":"Savanna grassland","unesco":true,"description":"Hosts the Great Migration — 1.5 million wildebeest and 250,000 zebra moving in an annual cycle. Setting of countless nature documentaries.","fill":"#eab308","fill-opacity":0.35,"stroke":"#a16207","stroke-width":2},"geometry":{"type":"Polygon","coordinates":[[[34,-1.6],[35.3,-1.6],[35.3,-2],[35.4,-2.4],[35.3,-2.8],[35,-3.1],[34.5,-3.3],[34,-3.2],[33.8,-2.8],[33.9,-2.3],[34,-1.9],[34,-1.6]]]}},{"type":"Feature","properties":{"name":"Torres del Paine National Park","country":"Chile","established":1959,"area_km2":2420,"biome":"Patagonian steppe & glaciers","unesco":false,"description":"Famous for its three granite towers, turquoise lakes, and the Grey Glacier. The W Trek is a bucket-list trekking route.","fill":"#06b6d4","fill-opacity":0.35,"stroke":"#0e7490","stroke-width":2},"geometry":{"type":"Polygon","coordinates":[[[-73.5,-50.7],[-73.1,-50.7],[-72.8,-50.8],[-72.6,-51],[-72.65,-51.25],[-72.9,-51.35],[-73.2,-51.3],[-73.5,-51.15],[-73.55,-50.9],[-73.5,-50.7]]]}},{"type":"Feature","properties":{"name":"Banff National Park","country":"Canada","established":1885,"area_km2":6641,"biome":"Boreal forest & alpine","unesco":true,"description":"Canada's first national park. Lake Louise's glacial-fed waters get their turquoise colour from rock flour suspended in the water.","fill":"#3b82f6","fill-opacity":0.35,"stroke":"#1e40af","stroke-width":2},"geometry":{"type":"Polygon","coordinates":[[[-116.5,51.1],[-115.9,51.1],[-115.4,51.3],[-115.1,51.7],[-115.3,52],[-115.9,52.1],[-116.4,52],[-116.8,51.7],[-116.8,51.4],[-116.5,51.1]]]}},{"type":"Feature","properties":{"name":"Kruger National Park","country":"South Africa","established":1926,"area_km2":19485,"biome":"Savanna bushveld","unesco":false,"description":"One of Africa's largest game reserves. Home to the Big Five — lion, leopard, rhino, elephant, and buffalo.","fill":"#f59e0b","fill-opacity":0.35,"stroke":"#b45309","stroke-width":2},"geometry":{"type":"Polygon","coordinates":[[[31,-22.3],[31.8,-22.3],[32,-23],[32,-24],[31.9,-24.9],[31.7,-25.5],[31.3,-25.4],[31.1,-24.7],[31,-23.8],[30.9,-23],[31,-22.3]]]}},{"type":"Feature","properties":{"name":"Fiordland National Park","country":"New Zealand","established":1952,"area_km2":12607,"biome":"Temperate rainforest & fiords","unesco":true,"description":"New Zealand's largest national park. Milford Sound was called the '8th wonder of the world' by Rudyard Kipling.","fill":"#10b981","fill-opacity":0.35,"stroke":"#047857","stroke-width":2},"geometry":{"type":"Polygon","coordinates":[[[166.4,-44.5],[167.6,-44.5],[168.2,-45],[168,-45.7],[167.5,-46.2],[166.8,-46.4],[166.4,-46],[166.2,-45.4],[166.3,-44.8],[166.4,-44.5]]]}},{"type":"Feature","properties":{"name":"Plitvice Lakes National Park","country":"Croatia","established":1949,"area_km2":296,"biome":"Karst lakes & waterfalls","unesco":true,"description":"16 terraced lakes connected by waterfalls, formed by mineral-rich water depositing travertine. Wooden boardwalks thread through the park.","fill":"#06b6d4","fill-opacity":0.4,"stroke":"#0891b2","stroke-width":2},"geometry":{"type":"Polygon","coordinates":[[[15.5,44.8],[15.7,44.82],[15.75,44.9],[15.72,44.97],[15.6,45],[15.5,44.97],[15.45,44.9],[15.47,44.83],[15.5,44.8]]]}},{"type":"Feature","properties":{"name":"Jim Corbett National Park","country":"India","established":1936,"area_km2":520,"biome":"Sub-Himalayan forest","unesco":false,"description":"India's oldest national park and birthplace of Project Tiger. Named after hunter-turned-conservationist Jim Corbett.","fill":"#f97316","fill-opacity":0.35,"stroke":"#c2410c","stroke-width":2},"geometry":{"type":"Polygon","coordinates":[[[78.6,29.45],[78.95,29.45],[79.1,29.52],[79.15,29.62],[79.05,29.68],[78.85,29.66],[78.65,29.58],[78.6,29.5],[78.6,29.45]]]}},{"type":"Feature","properties":{"name":"Galápagos National Park","country":"Ecuador","established":1959,"area_km2":7880,"biome":"Volcanic archipelago","unesco":true,"description":"Inspired Darwin's theory of evolution. Home to giant tortoises, marine iguanas, and blue-footed boobies — 97% of the archipelago is protected.","fill":"#8b5cf6","fill-opacity":0.3,"stroke":"#6d28d9","stroke-width":2},"geometry":{"type":"Polygon","coordinates":[[[-91.7,0.8],[-90.2,0.8],[-89.2,0.4],[-89.2,-0.7],[-89.8,-1.4],[-91,-1.5],[-91.8,-1],[-92,0],[-91.7,0.8]]]}},{"type":"Feature","properties":{"name":"Vatnajökull National Park","country":"Iceland","established":2008,"area_km2":14141,"biome":"Glacier & volcanic","unesco":true,"description":"Covers 14% of Iceland — Europe's largest glacier sits atop active volcanoes. Ice caves and subglacial eruptions make for a surreal landscape.","fill":"#e0f2fe","fill-opacity":0.5,"stroke":"#0369a1","stroke-width":2},"geometry":{"type":"Polygon","coordinates":[[[-18.5,64.8],[-16.5,64.7],[-15.4,64.3],[-15.6,63.9],[-17,63.85],[-18.5,63.95],[-19.1,64.3],[-18.9,64.7],[-18.5,64.8]]]}}]}